Name,Address,City,State,Zip
Atlanta North School of Sda,5123 Chamblee Dunwoody Rd,Dunwoody,GA,30338
Dunwoody Baptist Church,1445 Mt Vernon Rd,Dunwoody,GA,30338
All Saints Catholic Church,2443 Mt Vernon Rd,Dunwoody,GA,30338
Dunwoody United Methodist Chr,1548 Mt Vernon Rd,Dunwoody,GA,30338
North Atlanta Church of Christ,5676 Roberts Dr,Dunwoody,GA,30338
Calvary Assembly of God,5067 Chamblee Dunwoody Rd,Dunwoody,GA,30338
St Luke's Presbyterian Church,1978 Mt Vernon Rd,Dunwoody,GA,30338
Belvedere Seventh Day Advntst,3567 Covington Hwy,Decatur,GA,30032
Bethel Original Free Will Bpts,1890 2nd Ave,Decatur,GA,30032
Briarlake Baptist Church,3715 Lavista Rd,Decatur,GA,30033
Clairmont Hills Baptist Church,1995 Clairmont Rd,Decatur,GA,30033
Columbia Drive Baptist Church,862 Columbia Dr,Decatur,GA,30030
Decatur Heights Baptist Church,735 Sycamore Dr,Decatur,GA,30030
First Baptist Church,1483 W Highway 78,Villa Rica,GA,30180
Greater Friendship Baptist Chr,115 W Bolton St,Savannah,GA,31401
Greenforest Baptist Church,3250 Rainbow Dr,Decatur,GA,30034
Little Friendship Missionary,PO Box 1862,Decatur,GA,30031
Mt Patmos Baptist Church,PO Box 371455,Decatur,GA,30037
Oakhurst Baptist Church,222 E Lake Dr,Decatur,GA,30030
Peace Baptist Church,1399 Austin Dr,Decatur,GA,30032
Primera Iglesia Bautista,3532 Covington Hwy,Decatur,GA,30032
Riverside Baptist Church,2310 Causton Bluff Rd,Savannah,GA,31404
Scott Boulevard Baptist Church,2532 N Decatur Rd,Decatur,GA,30033
Solid Rock Missionary Baptist,5338 Covington Hwy,Decatur,GA,30035
Thankful Baptist Church,820 Martin Luther King Jr Blvd,Savannah,GA,31415
Valley Brook Baptist Church,1198 N Valley Brook Rd,Decatur,GA,30033
St Thomas More Church,636 W Ponce de Leon Ave,Decatur,GA,30030
First Christian Church Decatur,601 W Ponce de Leon Ave,Decatur,GA,30030
Hillcrest Church of Christ,1939 Snapfinger Rd,Decatur,GA,30035
Church of the Holy Cross,2005 S Columbia Pl,Decatur,GA,30032
Holy Trinity Parish-Episcopal,515 E Ponce de Leon Ave,Decatur,GA,30030
Lutheran Church of the Messiah,465 Clairemont Ave,Decatur,GA,30030
Peace Lutheran Church,1679 Columbia Dr,Decatur,GA,30032
St Stephen Lutheran Church,4664 Covington Hwy,Decatur,GA,30035
Amanda Flipper Ame Church,2477 Whites Mill Rd,Decatur,GA,30032
Avondale Pittillo Umc,3260 Covington Hwy,Decatur,GA,30032
Columbia Drive United Meth Chr,2067 Columbia Dr,Decatur,GA,30032
North Decatur United Methodist,1523 Church St,Decatur,GA,30030
Oak Grove United Methodist Chr,1722 Oak Grove Rd,Decatur,GA,30033
Wesley Chapel United Methodist,4495 Sandy Plains Rd,Marietta,GA,30066
Avondale Church of Christ,4017 Memorial Dr,Decatur,GA,30032
Bethel Family Church,PO Box 360384,Decatur,GA,30036
Cathedral of Divine Love,5020 Snapfinger Woods Dr,Decatur,GA,30035
Cathedral of the Holy Spirit,PO Box 784,Decatur,GA,30031
Center of Faith Church,PO Box 370622,Decatur,GA,30037
Christ Covenant Mcc,109 Hibernia Ave,Decatur,GA,30030
Covenant Ministries,3283 Columbia Woods Dr,Decatur,GA,30032
Fellowship Christian Ctr,PO Box 372541,Decatur,GA,30037
First Atlanta Holiness Church,PO Box 361860,Decatur,GA,30036
Friends Religious Society,701 W Howard Ave,Decatur,GA,30030
Redeemed Christian Church,3810 Waldrop Rd,Decatur,GA,30034
Stronghold Christian Church,PO Box 360315,Decatur,GA,30036
Thee Hand of the Lord Intl,4960 Covington Hwy,Decatur,GA,30035
Bethesda Temple Church,PO Box 360366,Decatur,GA,30036
Christ Tabernacle United Chr,PO Box 1950,Decatur,GA,30031
Pilgrim Cathedral of Atlanta,2589 Tilson Rd,Decatur,GA,30032
Refreshing Church of God,3300 River Rd,Decatur,GA,30034
Tabernacle the Youth Mintry,1580 Agape Way,Decatur,GA,30035
Way the Truth ,PO Box 371406,Decatur,GA,30037
Clairmont Presbyterian Church,1994 Clairmont Rd,Decatur,GA,30033
Decatur Presbyterian Church,205 Sycamore St,Decatur,GA,30030
North Decatur Presbyterian Chr,611 Medlock Rd,Decatur,GA,30033
Trinity Presbyterian Church,3003 Howell Mill Rd NW,Atlanta,GA,30327
All Nations Wesleyan Cmnty Chr,3840 Kensington Rd,Decatur,GA,30032
All Souls Fellowship,109 New St,Decatur,GA,30030
Berean Child Development Ctr,291 Hamilton E Holmes Dr NW,Atlanta,GA,30318
West End Seventh Day Adventist,845 Lawton St SW,Atlanta,GA,30310
Antioch Baptist Church North,PO Box 93219,Atlanta,GA,30377
Ben Hill First Baptist Church,2160 Camp Ground Rd SW,Atlanta,GA,30331
Berean Bible Baptist Church,3515 Butner Rd SW,Atlanta,GA,30331
Bethlehem Baptist Church,5485 Bethlehem Rd,Fairburn,GA,30213
Beulah Baptist Church,4031 Bankhead Hwy,Douglasville,GA,30134
Briarcliff Baptist Church,3039 Briarcliff Rd NE,Atlanta,GA,30329
Brookhaven Baptist Church,1294 N Druid Hills Rd NE,Atlanta,GA,30319
Brown Chapel Baptist Church,656 Gary Rd NW,Atlanta,GA,30318
Browns Mill Park Baptist Chr,502 McWilliams Rd SE,Atlanta,GA,30315
Calvary Baptist Church,7130 Mt Zion Cir,Morrow,GA,30260
Candler Park Baptist Church,344 Candler Park Dr NE,Atlanta,GA,30307
Chapel-Christian Love Baptist,875 Cascade Rd SW,Atlanta,GA,30311
Christian Fellowship Baptist,1500 Norman Dr,Atlanta,GA,30349
Clairmont Baptist Church,3542 Clairmont Rd NE,Atlanta,GA,30319
Cornerstone Baptist Church,PO Box 215,Ellerslie,GA,31807
Druid Hills Baptist Church,1085 Ponce de Leon Ave NE,Atlanta,GA,30306
Ebenezer Baptist Church,2570 Harbins Rd,Dacula,GA,30019
Elizabeth Baptist Church,315 Kurtz Rd,Marietta,GA,30066
Emmaus Road Missionary Baptist,3725 Flat Shoals Rd,Atlanta,GA,30349
Faith Temple Missionary Bptst,341 Hill St SE,Atlanta,GA,30312
First Baptist Chr-Cliftondale,4005 Stonewall Tell Rd,Atlanta,GA,30349
First Baptist Church-Atlanta,4400 N Peachtree Rd,Atlanta,GA,30338
First Corinth Missionary Bapt,2165 Donald Lee Hollowell Pky NW,Atlanta,GA,30318
Friendship Baptist Church,PO Box 40,Austell,GA,30168
Greater Ephesus Missionary Chr,50 Cleveland Ave SW,Atlanta,GA,30315
Greater Fairhill Baptist Chr,701 Hamilton E Holmes Dr NW,Atlanta,GA,30318
Greater Isreal Christian,3255 Empire Blvd SW,Atlanta,GA,30354
Greater Mt Calvary Baptist Chr,PO Box 4778,Atlanta,GA,30302
Greater Piney Grove Bapt Chr,1879 Glenwood Ave SE,Atlanta,GA,30316
Greater Springfield Baptist,1195 Heflund Ave,Warner Robins,GA,31093
Hills Park Baptist Church,1755 Annie St NW,Atlanta,GA,30318
Hunter Hills First Baptist Chr,166 Edwards St NW,Atlanta,GA,30314
Israel Baptist Church,2071 Hosea L Williams Dr NE,Atlanta,GA,30317
Jackson Memorial Baptist Chr,534 Fairburn Rd NW,Atlanta,GA,30331
Liberty Baptist Church,1077 Highway 314,Riverdale,GA,30296
Lindsay Street Baptist Church,550 Lindsey St NW,Atlanta,GA,30314
Lissie Chapel Baptist Church,404 Glen Iris Dr NE,Atlanta,GA,30308
Liveoak Baptist Church,2601 Flat Shoals Rd,Atlanta,GA,30349
Macedonia Baptist Church,1504 Macedonia Rd,Newnan,GA,30263
Midway Missionary Baptist Chr,2280 Godby Rd,Atlanta,GA,30349
Mt Calvary Baptist Church,367 Grant Ave,Macon,GA,31201
Mt Carmel Baptist Church,2515 Pope Rd,Douglasville,GA,30135
Mt Gilead Baptist Church,PO Box 92466,Atlanta,GA,30314
Mt Moriah Baptist Church,200 Joseph E Lowery Blvd SW,Atlanta,GA,30314
Mt Nebo Baptist Church Life,PO Box 150040,Atlanta,GA,30315
Mt Olive Baptist Church,4973 Washington Rd,Evans,GA,30809
Mt Pleasant Baptist Church,PO Box 395,Thomson,GA,30824
Mt Sinai Baptist Church,PO Box 805,Austell,GA,30168
Mt Vernon Baptist Church,340 Mt Vernon Church Rd,Dallas,GA,30157
Mt Zion Baptist Church,1036 N Main St,Jasper,GA,30143
New Bethesda Baptist Church,664 Angier Ave NE,Atlanta,GA,30308
New Hope Baptist Church,1836 Hickory Flat Hwy,Canton,GA,30115
New Jerusalem Baptist,PO Box 50213,Atlanta,GA,30302
North Peachtree Baptist Church,4805 Tilly Mill Rd,Atlanta,GA,30360
Northeast Baptist Church,4046 Chamblee Tucker Rd,Atlanta,GA,30340
Northside Drive Baptist Church,3100 Northside Dr NW,Atlanta,GA,30305
Northwoods Baptist Church,2605 Chamblee Tucker Rd,Atlanta,GA,30341
Peachtree Baptist Church,2108 Briarcliff Rd NE,Atlanta,GA,30329
Pilgrim Travelers Baptist Chr,1187 Martin Luther King Jr Dr NW,Atlanta,GA,30314
S E Kwang Korean Baptist Chr,3600 Donaldson Dr NE,Atlanta,GA,30319
Sandtown Baptist Church,5450 Campbellton Rd SW,Atlanta,GA,30331
Second Mount Vernon Baptist,230 Stovall St SE,Atlanta,GA,30316
Second-Ponce De Leon Baptist,2715 Peachtree Rd NE,Atlanta,GA,30305
Shiloh Missionary Baptist Chr,PO Box 115417,Atlanta,GA,30310
Springfield Missionary Baptist,1730 Hollywood Rd NW,Atlanta,GA,30318
St John Baptist Church,1800 Moore St,Macon,GA,31204
St Matthews Missionary Baptist,PO Box 170575,Atlanta,GA,30317
St Stephen Missionary Baptist,PO Box 91128,Atlanta,GA,30364
Sunny Side Baptist Church,1030 Sims St SW,Atlanta,GA,30310
Virginia Highland Baptist Chr,743 Virginia Ave NE,Atlanta,GA,30306
Welcome All Baptist Church,460 Bourne Dr SE,Smyrna,GA,30082
West Hunter Street Baptist Chr,1040 Ralph David Abernathy Blvd SW,Atlanta,GA,30310
West Oakland Baptist Church,1025 Violet St SW,Atlanta,GA,30310
Wheat Street Baptist Church,359 Auburn Ave NE,Atlanta,GA,30312
Wieuca Road Baptist Church,3626 Peachtree Rd NE,Atlanta,GA,30326
Winters Chapel Baptist Church,6625 Winters Chapel Rd,Atlanta,GA,30360
Woodland Hills Baptist Church,1084 Woodland Ave SE,Atlanta,GA,30316
Wood's Memorial Baptist Church,5665 Old National Hwy,Atlanta,GA,30349
Zion Grove Baptist Church,606 Pryor St SW,Atlanta,GA,30312
Zion Hill Baptist Church,3390 S Puckett Rd,Buford,GA,30519
Cathedral of Christ the King,2699 Peachtree Rd NE,Atlanta,GA,30305
Catholic Center Auc,809 Beckwith St SW,Atlanta,GA,30314
Most Blessed Sacrament,2971 Butner Rd SW,Atlanta,GA,30331
Our Lady of Lourdes,29 Boulevard NE,Atlanta,GA,30312
Sacred Heart Church,1323 MacArthur Dr,Griffin,GA,30224
St Anthony Catholic Church,928 Ralph David Abernathy Blvd SW,Atlanta,GA,30310
St Jude's Catholic Church,7171 Glenridge Dr NE,Atlanta,GA,30328
St Paul of the Cross Church,551 Harwell Rd NW,Atlanta,GA,30318
Ben Hill Christian Church,4099 Sunset Dr SW,Atlanta,GA,30331
Brookhaven Christian Church,4500 Peachtree Rd NE,Atlanta,GA,30319
Peachtree Christian Church,1580 Peachtree St NW,Atlanta,GA,30309
Sandy Springs Christian Church,301 Johnson Ferry Rd NW,Atlanta,GA,30328
Christian Church Buckhead,2416 Piedmont Rd NE,Atlanta,GA,30324
Church of Christ Turner Road,1923 Turner Rd SE,Atlanta,GA,30315
Embry Hills Church of Christ,PO Box 941095,Atlanta,GA,31141
Greenbriar Church of Christ,3243 Stone Rd SW,Atlanta,GA,30331
Simpson Street Church-Christ,PO Box 92760,Atlanta,GA,30314
All Saints Episcopal Church,443 S Hansell St,Thomasville,GA,31792
Cathedral of St Philip,2744 Peachtree Rd NW,Atlanta,GA,30305
Church of Our Saviour,4227 Columbia Rd,Martinez,GA,30907
Church of the Apostles,3585 Northside Pky NW,Atlanta,GA,30327
Church of the Atonement,4945 High Point Rd NE,Atlanta,GA,30342
Church of the Epiphany,2089 Ponce de Leon Ave NE,Atlanta,GA,30307
Church of the Incarnation,2407 Cascade Rd SW,Atlanta,GA,30311
Holy Innocents' Episcopal Chr,805 Mt Vernon Hwy NW,Atlanta,GA,30327
St Anne's Episcopal Church,3098 Saint Annes Ln NW,Atlanta,GA,30327
St Bartholomew's,1790 Lavista Rd NE,Atlanta,GA,30329
St Bede's Episcopal Church,2601 Henderson Mill Rd NE,Atlanta,GA,30345
St Dunstan's Episcopal Church,4393 Garmon Rd NW,Atlanta,GA,30327
St Luke's Episcopal Church,435 Peachtree St NE,Atlanta,GA,30308
St Martin in the Fields Church,3110 Ashford Dunwoody Rd NE,Atlanta,GA,30319
St Patrick's Episcopal Church,4755 N Peachtree Rd,Atlanta,GA,30338
St Paul's Episcopal Church,576 Roscoe Rd,Newnan,GA,30263
Church of Atlanta Lighthouse,PO Box 18212,Atlanta,GA,30316
Community Church of God,PO Box 6356,Macon,GA,31208
Martin Street Church of God,148 Glenwood Ave SE,Atlanta,GA,30312
Salvation Army,4648 Robie Rd SW,Lilburn,GA,30047
Congregation Beth Jacob,1855 Lavista Rd NE,Atlanta,GA,30329
Congregation Beth Shalom,5303 Winters Chapel Rd,Atlanta,GA,30360
Congregation B'Nai Torah,700 Mount Vernon Hwy NW,Atlanta,GA,30327
Congregation Shearith Israel,1180 University Dr NE,Atlanta,GA,30306
Temple,1589 Peachtree St NE,Atlanta,GA,30309
Temple Emanuel-Greater Atlanta,1580 Spalding Dr,Atlanta,GA,30350
Temple Sinai,5645 Dupree Dr NW,Atlanta,GA,30327
Lutheran Church of Apostles,6025 Glenridge Dr NE,Atlanta,GA,30328
Lutheran Church-the Ascension,120 Bull St,Savannah,GA,31401
Lutheran Church-the Atonement,1875 Simpson Rd NW,Atlanta,GA,30314
Peachtree Road Lutheran Child,3686 Peachtree Rd NE,Atlanta,GA,30319
Redeemer Lutheran Church,731 Peachtree St NE,Atlanta,GA,30308
Rivercliff Lutheran Church,8750 Roswell Rd,Atlanta,GA,30350
St Johns Lutheran Church,1410 Ponce de Leon Ave NE,Atlanta,GA,30307
St Luke Lutheran Church,3264 Northside Pky NW,Atlanta,GA,30327
St Matthew Lutheran Church,PO Box 12148,Columbus,GA,31917
Atlanta Church of Religious,"2801 Buford Hwy NE, #t30",Atlanta,GA,30324
A New Harvest United Methodist,575 Boulevard SE,Atlanta,GA,30312
Alexander Memorial Ame Chr,287 Augusta Ave SE,Atlanta,GA,30315
Atlanta First United Methodist,360 Peachtree St NE,Atlanta,GA,30308
Ben Hill United Methodist Chr,2099 Fairburn Rd SW,Atlanta,GA,30331
Bethel United Methodist Church,245 Fairview Rd,Stockbridge,GA,30281
Bethlehem United Methodist Chr,4195 Bakers Ferry Rd SW,Atlanta,GA,30331
Big Bethel Ame Church,220 Auburn Ave NE,Atlanta,GA,30303
Briarcliff United Methodist,4105 Briarcliff Rd NE,Atlanta,GA,30345
Butler Street Cme Church,23 Jesse Hill Jr Dr SE,Atlanta,GA,30303
Capitol View United Methodist,661 Dill Ave SW,Atlanta,GA,30310
Cascade United Methodist Chr,3144 Cascade Rd SW,Atlanta,GA,30311
Centenary United Methodist Chr,1290 College St,Macon,GA,31201
Central United Methodist Chr,503 Mitchell St SW,Atlanta,GA,30314
Cokesbury United Methodist Chr,5411 Skidaway Rd,Savannah,GA,31406
Collins Memorial United Meth,2220 Bolton Rd NW,Atlanta,GA,30318
Dodd Sterling United Methodist,3272 Browns Mill Rd SE,Atlanta,GA,30354
Druid Hills United Methodist,1200 Ponce de Leon Ave NE,Atlanta,GA,30306
East Lake United Methodist Chr,2500 Hosea L Williams Dr NE,Atlanta,GA,30317
First Ame Church,PO Box 413,Athens,GA,30603
Flipper Temple Ame Church,580 Fair St SW,Atlanta,GA,30314
Fort Street Memorial United,PO Box 54978,Atlanta,GA,30308
Georgia Oliver United Meth Chr,3202 Bankhead Hwy NW,Atlanta,GA,30331
Glenn Memorial United Meth Chr,1660 N Decatur Rd NE,Atlanta,GA,30307
Grace United Methodist Church,PO Box 1448,Covington,GA,30015
Haygood Preschool,1015 E Rock Springs Rd NE,Atlanta,GA,30306
Hoosier Memorial United Meth,2545 Benjamin E Mays Dr SW,Atlanta,GA,30311
Inman Park United Methodist,1015 Edgewood Ave NE,Atlanta,GA,30307
Mt Zion United Methodist Chr,2840 Metropolitan Pky SW,Atlanta,GA,30315
North Springs United Methodist,7770 Roswell Rd,Atlanta,GA,30350
Northside United Methodist Chr,2799 Northside Dr NW,Atlanta,GA,30305
Owl Rock United Methodist Chr,5291 Campbellton Rd SW,Atlanta,GA,30331
Poplar Springs United Meth Chr,PO Box 310717,Atlanta,GA,31131
Sandy Springs United Methodist,400 Mount Vernon Hwy NW,Atlanta,GA,30327
Skyland United Methodist Chr,1850 Skyland Ter NE,Atlanta,GA,30319
St James United Methodist,4400 Peachtree-Dunwoody Rd NE,Atlanta,GA,30342
St John Child Developement Ctr,550 Mount Paran Rd NW,Atlanta,GA,30327
St Mark United Methodist Chr,6795 Whitesville Rd,Columbus,GA,31904
St Paul Ame Church,PO Box 2066,Covington,GA,30015
St Paul United Methodist Chr,PO Box 5116,Columbus,GA,31906
St Philip Ame Church,240 Candler Rd SE,Atlanta,GA,30317
Trinity United Methodist Chr,PO Box 602,Pooler,GA,31322
Turner Chapel Ame Church,548 Lawrence St NE,Marietta,GA,30060
Warren Memorial United Meth,181 Joseph E Lowery Blvd SW,Atlanta,GA,30314
West Mitchell Cme Church,PO Box 4539,Atlanta,GA,30302
West Side Community Cme Chr,2114 Martin Luther King Jr Dr SW,Atlanta,GA,30310
Winters Chapel United Meth,5105 Winters Chapel Rd,Atlanta,GA,30360
Believers Bible Christian Chr,PO Box 311200,Atlanta,GA,31131
Christian Family Worship Ctr,1401 Hosea L Williams Dr SE,Atlanta,GA,30317
Church in Atlanta,2345 Shallowford Rd NE,Atlanta,GA,30345
Church of Christ West End,1303 Ralph David Abernathy Blvd SW,Atlanta,GA,30310
Dunwoody Community Church,2250 Dunwoody Club Dr,Atlanta,GA,30350
Faith Walk Ministries,PO Box 450165,Atlanta,GA,31145
First Metropolitan Community,1379 Tullie Rd NE,Atlanta,GA,30329
Free Gospel Church,PO Box 17506,Atlanta,GA,30316
God's Church Intl Fellowship,PO Box 44151,Atlanta,GA,30336
Gospel Tabernacle,PO Box 18115,Atlanta,GA,30316
Greater Liberty Hill Baptist,PO Box 18265,Atlanta,GA,30316
Hillside Chapel ,2450 Cascade Rd SW,Atlanta,GA,30311
Northside Community Evnglcl,5185 Peachtree Dunwoody Rd NE,Atlanta,GA,30342
Pilgrim Church of Atlanta,208 1st Ave SE,Atlanta,GA,30317
Praise Christian Ctr,3340 Stone Rd SW,Atlanta,GA,30331
Resurrection House-Nation,PO Box 490190,Atlanta,GA,30349
Salem Baptist Church,1724 Highway 155 N,McDonough,GA,30252
Victory Outreach Church,PO Box 89035,Atlanta,GA,30312
Wellington Boone Ministries,PO Box 941400,Atlanta,GA,31141
Wings of Faith,2847 Main St,Atlanta,GA,30344
Wings of Faith Ministries,"2847 Main St, #100",Atlanta,GA,30344
Greek Orthodox Cathedral,2500 Clairmont Rd NE,Atlanta,GA,30329
St Elias Antiochian Orthodox,2045 Ponce de Leon Ave NE,Atlanta,GA,30307
St John Chrysostom Melkite,1428 Ponce de Leon Ave NE,Atlanta,GA,30307
Bible Way Ministries,PO Box 6743,Atlanta,GA,30315
Blood N Fire Ministries,PO Box 38194,Atlanta,GA,30334
Cathedral of Faith Church-God,1137 Avon Ave SW,Atlanta,GA,30310
Church of Hope,2950 Stone Hogan Conn SW,Atlanta,GA,30331
Citadel of Hope Evangelistic,1517 Ralph David Abernathy Blvd SW,Atlanta,GA,30310
Deliverance Temple Church-God,424 Ashwood Ave SW,Atlanta,GA,30315
Fellowship of Faith Church,PO Box 91760,Atlanta,GA,30364
Fountain of Praise,770 N Elizabeth Pl NW,Atlanta,GA,30318
Full Gospel Atlanta Church,2550 Henderson Mill Rd NE,Atlanta,GA,30345
Greater Fellowship Temple Chr,1591 Ralph David Abernathy Blvd SW,Atlanta,GA,30310
Greater New Macedonia Church,PO Box 91153,Atlanta,GA,30364
Life Center Family Church,2690 Mount Vernon Way,Atlanta,GA,30337
Mt Paran Church of God,2055 Mount Paran Rd NW,Atlanta,GA,30327
New Life Tabernacle Church-God,PO Box 6926,Atlanta,GA,30315
Pan African Orthodox Christian,960 Ralph David Abernathy Blvd SW,Atlanta,GA,30310
Paradise House of Prayer,2387 Summit Ave NW,Atlanta,GA,30318
True Light Baptist Church,47 Anderson Ave NW,Atlanta,GA,30314
Vision Ministries Holiness Chr,659 Larkin St SW,Atlanta,GA,30314
Visions of Unity Ministry Inc,1871 County Line Rd SW,Atlanta,GA,30331
Zion Full Gospel World Mnstry,PO Box 47986,Atlanta,GA,30362
Central Congregational Church,2676 Clairmont Rd NE,Atlanta,GA,30329
Central Presbyterian Church,PO Box 5575,Athens,GA,30604
Christ Church Presbyterian,60 Peachtree Park Dr NE,Atlanta,GA,30309
Covenant Presbyterian Church,819 Highway 314,Fayetteville,GA,30214
Druid Hills Presbyterian Chr,1026 Ponce de Leon Ave NE,Atlanta,GA,30306
Emory Presbyterian Church,1886 N Decatur Rd NE,Atlanta,GA,30307
First Congregational Church,105 Courtland St NE,Atlanta,GA,30303
First Presbyterian Church,1349 Macon Rd,Griffin,GA,30224
Morningside Presbyterian,1411 N Morningside Dr NE,Atlanta,GA,30306
Mt Vernon Presbyterian Church,471 Mount Vernon Hwy NW,Atlanta,GA,30327
New Life Presbyterian Church,6600 Old National Hwy,Atlanta,GA,30349
North Avenue Presbyterian Chr,607 Peachtree St NE,Atlanta,GA,30308
Northwest Presbyterian Church,4300 Northside Dr NW,Atlanta,GA,30327
Peachtree Presbyterian Church,3434 Roswell Rd NW,Atlanta,GA,30305
Providence Presbyterian Church,4011 Chamblee Dunwoody Rd,Atlanta,GA,30341
Radcliffe Presbyterian Church,286 Hamilton E Holmes Dr NW,Atlanta,GA,30318
Rock Spring Presbyterian Chr,1824 Piedmont Ave NE,Atlanta,GA,30324
Shallowford Presbyterian Chr,2375 Shallowford Rd NE,Atlanta,GA,30345
St Andrew Presbyterian Church,5855 Riverside Dr NW,Atlanta,GA,30327
Westminster Presbyterian Chr,4303 Wheeler Rd,Martinez,GA,30907
Young-Nak Presbyterian Church,3100 Oakcliff Rd,Atlanta,GA,30340
Fellowship Of Faith Worship Ce,418 Decatur St SE,Atlanta,GA,30312
Rock Church Of Atlanta,638 Glenwood Ave SE,Atlanta,GA,30312
United House Of Prayer,494 Emery Hwy,Macon,GA,31217
Our Lady Of Assumption,1350 Hearst Dr NE,Atlanta,GA,30319
Agape Church Of God,3761 Adamsville Dr SW,Atlanta,GA,30331
Christian Church Of Living,1020 Smith St SW,Atlanta,GA,30310
Vision Church Of Atlanta,704 Ormewood Ave SE,Atlanta,GA,30312
Immaculate Heart Of Mary,2855 Briarcliff Rd NE,Atlanta,GA,30329
Greater Tabernacle Of Faith,1170 Flat Shoals Rd,Atlanta,GA,30349
Salvation Word Of Life,199 Turman Ave SE,Atlanta,GA,30315
Northside Church Of God,1736 Harper St NW,Atlanta,GA,30318
God's City Of Refuge,1427 Lucile Ave SW,Atlanta,GA,30310
Community Church Of God,1543 Richland Rd SW,Atlanta,GA,30311
House Of Yisrael Of Atlanta,2945 Stone Hogan Connector Rd SW,Atlanta,GA,30331
Liberty Ministries Of Love,2984 Bayard St,Atlanta,GA,30344
A Different Thought: A Community For Conscious Living,56056 PO Box,Atlanta,GA,0
A Hand Up Ministry,1966 Lakewood Ter SE,Atlanta,GA,30315
A New Thing Ministries International,1683 W Caribaea Trl SE,Atlanta,GA,30316
A Peculiar People,93 Howell St NE,Atlanta,GA,30312
Aaron Tabernacle,2525 Browntown Rd NW,Atlanta,GA,30318
Absalom Jones Chapel,807 Fair St SW,Atlanta,GA,30314
Abundant Life Church Of God,3419 Knights Academy Rd,Valdosta,GA,31605
Abundant Life Cogic,1280 Benteen Way SE,Atlanta,GA,30315
Abundant Life Ministries,2705 S Main St,Moultrie,GA,31768
Action Ministries,1156 Micha Way,Madison,GA,30650
Acts Twenty Nine Ministries,1900 The Exchange SE,Atlanta,GA,30339
African Orthodox Catholic Church,1550 Ralph David Abernathy Blvd SW,Atlanta,GA,30310
Ahavath Achim Synagogue,600 Peachtree Battle Ave NW,Atlanta,GA,30327
Al-farooq Masjid Of Atlanta,434 14th St NW,Atlanta,GA,30318
Alexandrian Temple Of Light,235 Berwick Dr NE,Atlanta,GA,30328
All Nation United Gospel Chr,2770 Campbellton Rd SW,Atlanta,GA,30311
All Saints Christ's Church United,2352 Bolton Rd NW,Atlanta,GA,30318
Allen Temple Ame Church,614 W 16th Ave,Cordele,GA,31015
Douglasville Seventh-Day Chr,2838 Bright Star Rd,Douglasville,GA,30134
Arbor Heights Baptist Church,3506 Reynolds Rd,Douglasville,GA,30135
Central Baptist Church,PO Box 1221,Newnan,GA,30264
Chapel Hill Baptist Church,4391 Chapel Hill Rd,Douglasville,GA,30135
Clearview Baptist Church,2183 Dietz Rd,Ringgold,GA,30736
Dorsett Shoals Baptist Church,5633 Dorsett Shoals Rd,Douglasville,GA,30135
Douglasville Baptist Church,3951 Simon Rd,Douglasville,GA,30135
Heritage Baptist Church,3613 Georgia 34,Sharpsburg,GA,30277
New River Community Church,3464 Fairburn Rd,Douglasville,GA,30135
Prays Mill Baptist Church,4979 Highway 5,Douglasville,GA,30135
Sunset Hills Baptist Church,2079 Midway Rd,Douglasville,GA,30135
Sweetwater Baptist Church,1606 Wrens Hwy,Thomson,GA,30824
St Theresa Catholic Church,4401 Prestley Mill Rd,Douglasville,GA,30135
St Julian's Episcopal Church,5400 Stewart Mill Rd,Douglasville,GA,30135
Lutheran Church-Good Shepherd,3099 Chapel Hill Rd,Douglasville,GA,30135
Prince of Peace Lutheran Chr,257 Highway 314,Fayetteville,GA,30214
Bright Star Methodist Church,3715 Bright Star Rd,Douglasville,GA,30135
Charles F Golden Methodist Chr,6903 Forrest Ave,Douglasville,GA,30134
First United Methodist Church,PO Box 246,Pine Mountain,GA,31822
Midway United Methodist Church,1930 Midway Rd,Douglasville,GA,30135
Shepherd of the Hills Umc,4283 Chapel Hill Rd,Douglasville,GA,30135
Bright Star Church,PO Box 237,Douglasville,GA,30133
Christ Abundant Life,8388 Cherokee Blvd,Douglasville,GA,30134
Church-the Lord Jesus Christ,8510 Newman St,Douglasville,GA,30134
Water of Life Christian Ctr,PO Box 5248,Douglasville,GA,30154
West Metro Church of God,PO Box 5367,Douglasville,GA,30154
Contemporary Church Of God,6743 Brookfield Way,Douglasville,GA,30134
Church Of God Of Prophecy,101 Timber Rdg,St Marys,GA,31558
Abounding Grace Baptist,4024 Highway 5,Douglasville,GA,30135
Abundant Life Christian,3382 Highway 5,Douglasville,GA,30135
Duluth Sda Church,2959 Duluth Highway 120,Duluth,GA,30096
Meadow Baptist Church,6158 Highway 191,Comer,GA,30629
Parkway Baptist Church,5049 Log Cabin Dr,Macon,GA,31204
Church of St Benedict,11045 Parsons Rd,Duluth,GA,30097
Duluth United Methodist Church,PO Box 699,Duluth,GA,30096
Johns Creek United Methodist,11180 Medlock Bridge Rd,Duluth,GA,30097
Calvary Christian Fellowship,PO Box 561,Duluth,GA,30096
Duluth Church of God,PO Box 634,Duluth,GA,30096
Metropolitan Church of God,4830 River Green Pky,Duluth,GA,30096
Church of the Hills,10950 Bell Rd,Duluth,GA,30097
Perimeter Church,9500 Medlock Bridge Rd,Duluth,GA,30097
Pleasant Hill Presbyterian Chr,3700 Pleasant Hill Rd,Duluth,GA,30096
Dail Community Of Usa,2986 Buford Hwy,Duluth,GA,30096
Korean Church Of Atlanta,3205 Pleasant Hill Rd,Duluth,GA,30096
Homes Of Georgia Development,3675 Crestwood Pky NW,Duluth,GA,30096
Kumon North America,3175 Satellite Blvd,Duluth,GA,30096
Atlanta Peacemaker Presbyterian Church,2021 W Liddell Rd,Duluth,GA,30096
Howard Morgan Ministries,956486 PO Box,Duluth,GA,0
Atlanta Evangelical Church,4470 Satellite Blvd,Duluth,GA,30096
New Jerusalem Atlant Chr,3182 Steve Reynolds Blvd,Duluth,GA,30096
St James LLC,2400 Pleasant Hill Rd,Duluth,GA,30096
Adb Ministries,2180 Satellite Blvd,Duluth,GA,30097
Cornerstonechurch Of Christ,2458 Duluth Highway 120,Duluth,GA,30097
Korean Community Presbyterian Church Of Georgia,2518 Duluth Highway 120,Duluth,GA,30097
1St Chinese Baptist Church Of Atlanta,2525 Gravitt Rd,Duluth,GA,30096
Adventure Of A Lifetime,1023 Palmetto Dunes Dr,Duluth,GA,30097
Ebenezer Seventh Day Adventist,PO Box 3368,Augusta,GA,30914
Abilene Baptist Church,2046 N Highway 113,Carrollton,GA,30117
Antioch Baptist Church,236 Crow Gap Rd,Chickamauga,GA,30707
Bayvale Baptist Church,2240 Bayvale Rd,Augusta,GA,30909
Crawford Avenue Baptist Church,507 Crawford Ave,Augusta,GA,30904
Crestview Baptist Church,1670 Express Way N,Griffin,GA,30223
Crossbridge Baptist Church,3130 Skinner Mill Rd,Augusta,GA,30909
Cumming Grove Baptist Church,PO Box 3206,Augusta,GA,30914
Curtis Baptist Church,1326 Broad St,Augusta,GA,30901
Dayspring Baptist Church,3642 Us Highway 41 N,Byron,GA,31008
Elim Baptist Church,2359 Mt Auburn St,Augusta,GA,30904
Ever Faithful Baptist Church,PO Box 691,Augusta,GA,30903
First Mt Moriah Baptist Church,2040 Martin Luther King Jr Blvd,Augusta,GA,30901
Fleming Baptist Church,3027 Peach Orchard Rd,Augusta,GA,30906
Glenn Hills Baptist Church,2877 Lumpkin Rd,Augusta,GA,30906
Good Hope Baptist Church,PO Box 2545,Augusta,GA,30903
Good Shepherd Baptist Church,PO Box 141,Augusta,GA,30903
Grace Baptist Fellowship,1725 Sibley Rd,Augusta,GA,30909
Greater Mt Canaan Missionary,2573 Wheeler Rd,Augusta,GA,30904
Greater Young Zion Baptist Chr,PO Box 1864,Augusta,GA,30903
Harmony Baptist Church,PO Box 158,BOWDON JCT,GA,30109
Hill Baptist Church,2165 Kings Way,Augusta,GA,30904
Hillcrest Baptist Church,6069 Woodstock Rd,Acworth,GA,30102
Lake Park Baptist Church,211 Milledge Rd,Augusta,GA,30904
Lumpkin Road Baptist Church,2540 Lumpkin Rd,Augusta,GA,30906
Marks Baptist Church,PO Box 15364,Augusta,GA,30919
Morningside Baptist Church,6065 Morningside Dr,Columbus,GA,31909
Moses Missionary Baptist Chr,PO Box 351,Augusta,GA,30903
Mount Calvary Baptist Church,PO Box 16245,Augusta,GA,30919
National Hills Baptist Church,2725 Washington Rd,Augusta,GA,30909
New Life Baptist Church,3832 McElroy Rd,Doraville,GA,30340
Oak Grove Baptist Church,4990 Shadburn Rd,Cumming,GA,30041
Open Door Baptist Church,2629 Barton Chapel Rd,Augusta,GA,30906
Piney Grove Baptist Church,PO Box 737,Trenton,GA,30752
Providence Baptist Church,1773 Hawthorne Ave,College Park,GA,30337
Sharon Baptist Church,536 N Ola Rd,McDonough,GA,30252
Sherwood Baptist Church,2201 Whispering Pines Rd,Albany,GA,31707
Silvercrest Baptist Church,PO Box 5518,Augusta,GA,30916
Southgate Baptist Church,PO Box 5427,Augusta,GA,30916
Southside Baptist Church,1332 Zebulon Rd,Griffin,GA,30224
Spirit Creek Baptist Church,1783 Dixon Airline Rd,Augusta,GA,30906
Tabernacle Baptist Church,3454 Jimmy Lee Smith Pky,Hiram,GA,30141
Trinity Baptist Church,PO Box 618,Danielsville,GA,30633
Warren Baptist Church,3203 Washington Rd,Augusta,GA,30907
Windsor Spring Baptist Church,PO Box 5563,Augusta,GA,30916
Church of the Most Holy Trnty,811 Telfair St,Augusta,GA,30901
St Joseph Church,2607 Lumpkin Rd,Augusta,GA,30906
St Mary On the Hill Catholic,1420 Monte Sano Ave,Augusta,GA,30904
St Teresa of Avila Church,117 Pleasant Home Rd,Augusta,GA,30907
Central Christian Church,1294 Braselton Hwy,Lawrenceville,GA,30043
First Christian Church,294 Jenkins Rd,Tyrone,GA,30290
Church of the Good Shepherd,3740 Holtzclaw Rd,Cumming,GA,30041
St Augustine Episcopal Church,3321 Wheeler Rd,Augusta,GA,30909
Lutheran Church of Ascension,PO Box 6749,Augusta,GA,30916
Lutheran Church-Resurrection,4814 Paper Mill Rd SE,Marietta,GA,30067
Our Redeemer Lutheran Church,402 Aumond Rd,Augusta,GA,30909
Aldersgate United Methodist,2020 Tennessee Ave,Savannah,GA,31404
Asbury United Methodist Church,PO Box 3651,Columbus,GA,31903
Bethel Ame Church,PO Box 131,Augusta,GA,30903
Burns Memorial United Meth Chr,2372 Lumpkin Rd,Augusta,GA,30906
Korean Methodist Church,2641 Barton Chapel Rd,Augusta,GA,30906
Mann Memorial United Methodist,2705 Milledgeville Rd,Augusta,GA,30904
Martinez United Methodist Chr,3614 Washington Rd,Augusta,GA,30907
Marvin United Methodist Church,4400 Wheeler Rd,Augusta,GA,30907
Mize Memorial United Methodist,302 Barrow Dr,Augusta,GA,30906
Pierce Memorial Methodist Chr,PO Box 15116,Augusta,GA,30919
St James United Methodist Chr,111 W Lake Dr,Athens,GA,30606
St John United Methodist Chr,6507 Moon Rd,Columbus,GA,31909
Trinity Christian Methodist,2930 Glenn Hills Dr,Augusta,GA,30906
Trinity On the Hill Methodist,1330 Monte Sano Ave,Augusta,GA,30904
Ward Chapel Ame Church,1814 15th St,Augusta,GA,30901
Williams Memorial Christian,1630 15th St,Augusta,GA,30901
Woodlawn United Methodist Chr,2220 Walton Way,Augusta,GA,30904
Living Word Christian Ctr,3018 Old McDuffie Rd,Augusta,GA,30906
Whole Life Ministries,2621 Washington Rd,Augusta,GA,30904
Holy Trinity Greek Orthodox,953 Telfair St,Augusta,GA,30901
Bible Deliverance Temple,1857 Fenwick St,Augusta,GA,30904
Church of God Fleming,PO Box 5761,Augusta,GA,30916
First Assembly of God,PO Box 1447,Byron,GA,31008
First Family Church of Augusta,PO Box 2586,Augusta,GA,30903
Friendly Church of God-Christ,1115 Carrie St,Augusta,GA,30901
Old Time Way Community Action,3450 Old McDuffie Rd,Augusta,GA,30906
Augusta Korean Presbyterian,2992 Glenn Hills Dr,Augusta,GA,30906
Belle-Terrace Presbyterian Chr,2454 Golden Camp Rd,Augusta,GA,30906
Cliffwood Presbyterian Church,PO Box 5403,Augusta,GA,30916
Lakemont Presbyterian Church,1000 Blue Bird Rd,Augusta,GA,30904
Reid Memorial Presbyterian Chr,2261 Walton Way,Augusta,GA,30904
Christ Church Of Augusta,2019 Randall Rd,Augusta,GA,30904
Santidham Temple Of Augusta,3917 Old Waynesboro Rd,Augusta,GA,30906
Bible Church Of Augusta,1005 Druid Park Ave,Augusta,GA,30904
Christian City Of Praise,2941 Glenn Hills Dr,Augusta,GA,30906
Apostolic Cathedral Of Praise,3670 Old Petersburg Rd,Augusta,GA,30907
Korean Assembly Of God,3704 Belair Rd,Augusta,GA,30909
Lutheran Church Of Ascension,2860 Wells Dr,Augusta,GA,30906
21St Century Baptist Church,1519 Central Ave,Augusta,GA,30904
39 27 Disciples,1924 Valley Spring Rd,Augusta,GA,30909
A ,117 Old Evans Rd,Augusta,GA,30907
Abundant Life Worship Center,411 E Main St,Statesboro,GA,30458
Abundant Living Word Church,1021 Patriots Way,Augusta,GA,30907
Adams Grove Baptist Church,3940 Byrd Rd,Augusta,GA,30906
Adas Yeshurun-cnsrvtv Syngg,935 Johns Rd,Augusta,GA,30904
Advent Lutheran Church,1416 Vernon Rd,Lagrange,GA,30240
Agape Fellowship Church,1824 Wylds Rd,Augusta,GA,30909
Agape International,1054 Claussen Rd,Augusta,GA,30907
All Saints Christian Church,1728 Pennsylvania Ave,Augusta,GA,30904
Marietta Seventh-Day Adventist,1330 N Cobb Pky NW,Marietta,GA,30062
Austin Avenue Baptist Church,94 Austin Ave NE,Marietta,GA,30060
Burnt Hickory Baptist Church,4001 Burnt Hickory Rd NW,Marietta,GA,30064
Cheatam Hill Baptist Church,1811 W Sandtown Rd SW,Marietta,GA,30064
Eastland Heights Baptist Chr,857 Barnes Mill Rd,Marietta,GA,30062
Eastside Baptist Church,170 Upper Riverdale Rd SW,Riverdale,GA,30274
First Baptist Church-Marietta,148 Church St NE,Marietta,GA,30060
Holt Road Baptist Church,675 Holt Rd NE,Marietta,GA,30068
Johnson Ferry Baptist Church,955 Johnson Ferry Rd,Marietta,GA,30068
Milford Baptist Church,1030 Milford Church Rd SW,Marietta,GA,30060
Noonday Baptist Church,4121 Canton Rd,Marietta,GA,30066
Olive Springs Baptist Church,1528 Austell Rd SE,Marietta,GA,30008
Piedmont Baptist Church-Sbc,570 Piedmont Rd,Marietta,GA,30066
Rose Lane Baptist Church,534 Rose Lane St NW,Marietta,GA,30060
Roswell Street Baptist Church,774 Roswell St NE,Marietta,GA,30060
Sandy Plains Baptist Church,2825 Sandy Plains Rd,Marietta,GA,30066
Sewell Mill Baptist Church,2550 Sewell Mill Rd,Marietta,GA,30062
Shady Grove Baptist Church,1293 Sandhill Shady Grove Rd,Carrollton,GA,30116
West Haven Baptist Church,1251 Villa Rica Rd SW,Marietta,GA,30064
Grace Brethren Church,3079 Hidden Forest Ct,Marietta,GA,30066
Holy Family Church,320 12th St,Columbus,GA,31901
St Joseph Catholic Church,87 Lacy St NW,Marietta,GA,30060
Transfiguration Catholic Chr,1815 Blackwell Rd,Marietta,GA,30066
Church of Christ at East Cobb,5240 Roswell Rd,Marietta,GA,30062
Church of Christ Powers Ferry,835 Powers Ferry Rd SE,Marietta,GA,30067
Church of Christ-Piedmont Rd,1630 Piedmont Rd,Marietta,GA,30066
Episcopal Church-Annunciation,1673 Jamerson Rd,Marietta,GA,30066
St Catherine's Episcopal Pre,571 Holt Rd NE,Marietta,GA,30068
St Jude's Episcopal Church,220 Windy Hill Rd SW,Marietta,GA,30060
St. James Episcopal Church,161 Church St NW,Marietta,GA,30060
Church of the Nazarene,285 Victory Dr SE,Marietta,GA,30060
Iglesia Misionera Asamblea,951 Oregon Trl SW,Marietta,GA,30008
Marietta Alliance Church,1787 E Piedmont Rd,Marietta,GA,30062
Town Center Community Church,1040 Blackwell Rd,Marietta,GA,30066
Open Bible Ministries,545 Lorene Dr SW,Marietta,GA,30060
Congregation Etz Chaim,1190 Indian Hills Pky,Marietta,GA,30068
Temple Kol Emeth Religious,1415 Old Canton Rd,Marietta,GA,30062
Christ Lutheran Church,176 W Sandtown Rd SW,Marietta,GA,30064
Faith Lutheran Church-Missouri,2111 Lower Roswell Rd,Marietta,GA,30068
Holy Trinity Lutheran Church,PO Box 353,Springfield,GA,31329
Lutheran Church of-Incarnation,1200 Indian Hills Pky,Marietta,GA,30062
Due West United Methodist Chr,3956 Due West Rd NW,Marietta,GA,30064
East Cobb United Methodist,2325 Roswell Rd,Marietta,GA,30062
Fair Oaks United Methodist Chr,1480 Joyner Ave SE,Marietta,GA,30060
Immanuel Korean United Meth,945 Old Canton Rd,Marietta,GA,30068
Maple Avenue United Methodist,63 Maple Ave NW,Marietta,GA,30064
Mountain View United Methodist,2300 Jamerson Rd,Marietta,GA,30066
Mt Bethel United Methodist Chr,4385 Lower Roswell Rd,Marietta,GA,30068
Mt Zion United Methodist,1770 Johnson Ferry Rd,Marietta,GA,30062
St Andrew United Methodist Chr,5304 Hurst Dr,Columbus,GA,31904
St Philip United Methodist Chr,2400 Favor Rd SW,Marietta,GA,30060
Big Bethel Baptist Church,1994 Powder Springs Rd SW,Marietta,GA,30064
Church at West Cobb,"701 Whitlock Ave SW, #j44",Marietta,GA,30064
Church of Christ Mac Land Road,2732 MacLand Rd SW,Marietta,GA,30064
Covenant Christian Ministries,170 N Fairground St NE,Marietta,GA,30060
Destiny Metropolitan Worship,PO Box 70967,Marietta,GA,30007
Grace Community Church,PO Box 1369,Rincon,GA,31326
Mountain View Church,520 Casteel Rd SW,Marietta,GA,30064
New Life Family Church,PO Box 7959,Marietta,GA,30065
North Metro Ministries,707 Whitlock Ave SW,Marietta,GA,30064
Unity North Atlanta Church,4255 Sandy Plains Rd,Marietta,GA,30066
Centro Cristiano,1620 S Cobb Dr SE,Marietta,GA,30060
Church of God of Prophecy,3393 Canton Rd,Marietta,GA,30066
Gospel Harvester Church,1521 Hurt Rd SW,Marietta,GA,30008
Liberty Church,1285 Cobb Pky N,Marietta,GA,30062
Marietta Church of God,1083 Allgood Rd,Marietta,GA,30062
Mount Paran Church of God,1700 Allgood Rd,Marietta,GA,30062
East Cobb Presbyterian,4616 Roswell Rd,Marietta,GA,30062
Eastminster Presbyterian Chr,5801 Hugh Howell Rd,Stone Mountain,GA,30087
John Knox Presbyterian Church,505 Powers Ferry Rd SE,Marietta,GA,30067
Pilgrimage Church Ucc,3755 Sandy Plains Rd,Marietta,GA,30066
Tobacco World,700 Sandy Plains Rd,Marietta,GA,30066
First Church Of Nazarene,415 W Shotwell St,Bainbridge,GA,39819
Agape International Ministries,4040 Jonesboro Rd,Hampton,GA,30228
Al Barakaah Trading Co LLC,2692 Sandy Plains Rd,Marietta,GA,30066
Al-hedaya Masjid,1018 Powder Springs St,Marietta,GA,30064
Alive Christian Center 7Th Day Church Of God,102 S Fairground St SE,Marietta,GA,30060
Allen Temple Baptist Church,898 Chestnut Hill Rd SW,Marietta,GA,30064
Mountainside Seventh Day Advnt,2602 Young Rd,Stone Mountain,GA,30088
Forrest Hills Baptist Church,2145 Westside Ct,Snellville,GA,30078
Indian Creek Baptist Church,1282 N Highway 100,Bowdon,GA,30108
Mountain Park First Baptist,5501 Five Forks Trickum Rd,Stone Mountain,GA,30087
Mountain View Baptist Church,4618 Redan Rd,Stone Mountain,GA,30083
Pine Lake Baptist Church,4528 Rockbridge Rd,Stone Mountain,GA,30083
Smoke Rise Baptist Church,5901 Hugh Howell Rd,Stone Mountain,GA,30087
White Oak Hills Baptist Church,5171 Redan Rd,Stone Mountain,GA,30088
Corpus Christi Catholic Church,600 Mountain View Dr,Stone Mountain,GA,30083
Mount Carmel Christian Church,6015 Old Stone Mountain Rd,Stone Mountain,GA,30087
St Michael ,3101 Waters Ave,Savannah,GA,31404
Rock of Ages Lutheran Church,5135 Memorial Dr,Stone Mountain,GA,30083
Allgood Road United Methodist,640 Allgood Rd,Stone Mountain,GA,30083
Antioch Ame Church,765 S Hairston Rd,Stone Mountain,GA,30088
Mountain Park United Methodist,1405 Rockbridge Rd,Stone Mountain,GA,30087
St Timothy United Methodist,5365 Memorial Dr,Stone Mountain,GA,30083
Stone Mountain First United,5312 W Mountain St,Stone Mountain,GA,30083
Jubilee Christian Church,1640 E Park Place Blvd,Stone Mountain,GA,30087
Metro World Outreach Ctr,4678 Central Dr,Stone Mountain,GA,30083
Unity of Faith Christian,6788 Rockbridge Rd,Stone Mountain,GA,30087
Voices of Faith,2500 Rockbridge Rd,Stone Mountain,GA,30087
Dekalb United Pentecostal Chr,1670 Juliette Dr,Stone Mountain,GA,30083
Mountain West Church of God,4818 Hugh Howell Rd,Stone Mountain,GA,30087
Memorial Drive Presbyterian,5140 Memorial Dr,Stone Mountain,GA,30083
Christ Fellowship Of Stone,2650 Young Rd,Stone Mountain,GA,30088
Truth Tabernacle Of Praise,5705 Memorial Dr,Stone Mountain,GA,30083
Judah House Of Praise,5670 Redan Rd,Stone Mountain,GA,30088
Living Hope Reform Baptist Chr,471 Beaumont Dr,Stone Mountain,GA,30087
Reachout Ministries,870141 PO Box,Stone Mountain,GA,0
Agape Christian Family Church,831285 PO Box,Stone Mountain,GA,0
Shiloh Seventh Day Adventist,PO Box 2732,Smyrna,GA,30081
Calvary Baptist Church Smyrna,1243 Belmont Ave SE,Smyrna,GA,30080
Fellowship Baptist Church,PO Box 266,Chickamauga,GA,30707
First Baptist Church of Smyrna,1275 Church St SE,Smyrna,GA,30080
Green Acres Baptist Church,901 Elberta Rd,Warner Robins,GA,31093
Hurt Road Baptist Church,17 Hurt Rd SE,Smyrna,GA,30082
King Spring Baptist Church,3732 King Springs Rd SE,Smyrna,GA,30080
Smyrna Second Baptist Church,2698 Atlanta Rd SE,Smyrna,GA,30080
Faith Christian Ctr,3059 S Cobb Dr SE,Smyrna,GA,30080
Zoe Christian Fellowship,PO Box 813265,Smyrna,GA,30081
Cumberland United Methodist,2375 Paces Ferry Rd SE,Smyrna,GA,30080
Faith United Methodist Church,PO Box 1136,Cartersville,GA,30120
Tillman United Methodist Chr,940 Concord Rd SE,Smyrna,GA,30080
Highpoint Christian Tabernacle,3269 Old Concord Rd SE,Smyrna,GA,30082
International Gospel Outreach,PO Box 2231,Smyrna,GA,30081
Assembly of the Apostolic,PO Box 1999,Smyrna,GA,30081
Smyrna Assembly of God,4100 King Springs Rd SE,Smyrna,GA,30082
Smyrna Presbyterian Church,2920 Highway 212 SW,Conyers,GA,30094
Winds Of Worship Fellowship,2581 Spring Rd SE,Smyrna,GA,30080
Miracle Assembly Of God,2084 PO Box,Smyrna,GA,0
Celestial Church Of Christ,1755 Roswell St SE,Smyrna,GA,30080
West Broad Seventh Day Church,2501 Martin Luther King Jr Blvd,Savannah,GA,31415
Ardsley Park Baptist Church,1 E 55th St,Savannah,GA,31405
Bethany Baptist Church,2065 Bethany Way,Alpharetta,GA,30004
Bolton Street Baptist Church,821 Martin Luther King Jr Blvd,Savannah,GA,31415
Bull Street Baptist Church,17 E Anderson St,Savannah,GA,31401
Burkhalter Baptist Church,PO Box 60746,Savannah,GA,31420
Calvary Baptist Temple,4625 Waters Ave,Savannah,GA,31404
Chatham Parkway Baptist Chr,1950 Chatham Pky,Savannah,GA,31405
Chevis Oaks Baptist Church,102 Sylvania Rd,Savannah,GA,31419
Christ Memorial Baptist,PO Box 6174,Savannah,GA,31414
Christ's Community Church,704 Wheaton St,Savannah,GA,31401
Connor's Temple Baptist Church,509 W Gwinnett St,Savannah,GA,31401
Cresthill Baptist Pre-Kndrgrtn,9120 Whitfield Ave,Savannah,GA,31406
Dean Forest Baptist Church,1524 Old Dean Forest Rd,Savannah,GA,31408
First African Baptist Church,PO Box 1214,Columbus,GA,31902
First Baptist Church-Islands,6613 Johnny Mercer Blvd,Savannah,GA,31410
First Baptist Church-Savannah,PO Box 9551,Savannah,GA,31412
First Beaulah Baptist Church,14 Railroad Ave,Savannah,GA,31406
First Bryan Baptist Church,PO Box 1451,Savannah,GA,31402
First Evergreen Baptist Chr,622 E Bolton St,Savannah,GA,31401
First Jerusalem Missionary Chr,219 W 45th St,Savannah,GA,31405
First Metropolitan Baptist Chr,304 W 37th St,Savannah,GA,31401
First Mount Sinai Baptist Chr,1604 Burroughs St,Savannah,GA,31415
First Tabernacle Baptist Chr,310 Alice St,Savannah,GA,31401
Immanuel Baptist Church,129 Yukon Rd,Macon,GA,31217
Isle of Hope Baptist Church,22 Rose Ave,Savannah,GA,31406
Jonesville Baptist Church,5201 Montgomery St,Savannah,GA,31405
Little Bryan Baptist Church,509 E Gwinnett St,Savannah,GA,31401
Litway Baptist Church,2335 Shell Rd,Savannah,GA,31404
Mount Zion Baptist Church,PO Box 764,Griffin,GA,30224
Mt Bethel Baptist Church,2924 Julia Law St,Savannah,GA,31405
Pilgrim Baptist Church,601 Morris Brown Dr,Savannah,GA,31401
Savannah Primitive Baptist Chr,PO Box 60006,Savannah,GA,31420
Second African Baptist Church,123 Houston St,Savannah,GA,31401
Second Arnold Baptist Church,1427 E 37th St,Savannah,GA,31404
Second St John's Baptist Chr,1323 Golden St,Savannah,GA,31415
Silk Hope Baptist Church,4929 Pineland Dr,Savannah,GA,31405
South Gardens Baptist Church,1112 E 69th St,Savannah,GA,31404
Southwest Community Church,2031 Grove Point Rd,Savannah,GA,31419
St Lukes Baptist Church,418 W 38th St,Savannah,GA,31401
St Peters Baptist Church,401 W 56th St,Savannah,GA,31405
Temple of Glory Community Chr,1105 Stiles Ave,Savannah,GA,31415
Thunderbolt Baptist Church,3205 Russell St,Savannah,GA,31404
Tremont Temple Baptist Church,860 Forsyth St,Macon,GA,31201
Wilder Memorial Baptist Church,1 Gamble Rd,Savannah,GA,31405
Windsor Forest Baptist Church,12521 White Bluff Rd,Savannah,GA,31419
Woodlawn Baptist Church,4943 Columbia Rd,Grovetown,GA,30813
Cathedral of St John-Baptist,222 E Harris St,Savannah,GA,31401
St Benedict the Moor Church,556 E Gordon St,Savannah,GA,31401
St Francis Cabrini Church,11500 Middleground Rd,Savannah,GA,31419
St James Catholic Church,898 Decatur Rd,McDonough,GA,30253
Kingdom Life Christian Fllwshp,203 Television Cir,Savannah,GA,31406
Savannah Christian Church,55 Al Henderson Blvd,Savannah,GA,31419
Christ Church,582 Walnut St,Macon,GA,31201
St Francis of the Islands Chr,590 Walthour Rd,Savannah,GA,31410
St John's Episcopal Church,3480 Main St,College Park,GA,30337
St Matthew's Episcopal Church,1520 Oak Rd,Snellville,GA,30078
St Peters Episcopal Church,3 Westridge Rd,Savannah,GA,31411
St Thomas Episcopal Church,2100 Hilton Ave,Columbus,GA,31906
Christ Temple Church,PO Box 5248,Savannah,GA,31414
Congregation Agudath Achim,9 Lee Blvd,Savannah,GA,31405
Congregation Bnai Brith Jacob,5444 Abercorn St,Savannah,GA,31405
Congregation Mickve Israel,PO Box 816,Savannah,GA,31402
Faith Lutheran Church,5995 Waters Ave,Savannah,GA,31406
Lutheran Church of Redeemer,51 Wilmington Island Rd,Savannah,GA,31410
Messiah Lutheran Church-Elca,1 Westridge Rd,Savannah,GA,31411
St Paul's Evangelical Lutheran,10 W 31st St,Savannah,GA,31401
Trinity Lutheran Church,1826 Killian Hill Rd SW,Lilburn,GA,30047
First Church of Christ Scntst,211 E Victory Dr,Savannah,GA,31405
Asbury Memorial United Meth,1008 E Henry St,Savannah,GA,31401
Epworth United Methodist Chr,2400 Devonshire Dr,Columbus,GA,31904
Faith Community Cme Church,414 W 48th St,Savannah,GA,31405
Isle of Hope United Methodist,412 Parkersburg Rd,Savannah,GA,31406
Palen United Methodist Church,1907 Burroughs St,Savannah,GA,31415
Robert Mc Intire United Meth,3704 Bull St,Savannah,GA,31405
Skidaway Island Methodist Chr,54 Diamond Cswy,Savannah,GA,31411
Speedwell United Methodist Chr,7259 Skidaway Rd,Savannah,GA,31406
St James Ame Church,1002 6th Ave,Columbus,GA,31901
St Luke United Methodist Chr,5115 Brookwood Dr SW,Mableton,GA,30126
St Paul Cme Church,PO Box 1914,Savannah,GA,31402
Wesley Monumental Umc,429 Abercorn St,Savannah,GA,31401
White Bluff United Methodist,11911 White Bluff Rd,Savannah,GA,31419
Whitefield United Methodist,728 E 55th St,Savannah,GA,31405
Wilmington Island Methodist,195 Wilmington Island Rd,Savannah,GA,31410
Church of Christ-Liberty City,1709 Staley Ave,Savannah,GA,31405
Grace Full Gospel Church,PO Box 1912,Savannah,GA,31402
Sanctuary of Savannah,8912 Whitfield Ave,Savannah,GA,31406
St Paul's Greek Orthodox Chr,14 W Anderson St,Savannah,GA,31401
Bread of Life Church Cogic,2414 Louisiana Ave,Savannah,GA,31404
Coastal Cathedral Ministries,2208 E De Renne Ave,Savannah,GA,31406
Fellowship Assembly of God,PO Box 7168,Savannah,GA,31418
Fhcc Outreach,2501 Waters Ave,Savannah,GA,31404
First United Pentecostal Chr,PO Box 8148,Columbus,GA,31908
Mustard Seed Faith Ctr,9150 Old Montgomery Rd,Savannah,GA,31406
Overcoming By Faith Ministries,PO Box 15789,Savannah,GA,31416
Radiant Life Christian,PO Box 15575,Savannah,GA,31416
Southside Assembly of God,401 Tibet Ave,Savannah,GA,31406
Southside Church of God,50 Al Henderson Blvd,Savannah,GA,31419
United House-Prayer-All People,2301 W Bay St,Savannah,GA,31415
Butler Presbyterian Church,603 W Victory Dr,Savannah,GA,31405
Chapel-in-the-Gardens Pca,93 Main St,Savannah,GA,31408
Grace Church of the Islands,6901 Concord Rd,Savannah,GA,31410
Independent Presbyterian Chr,PO Box 9266,Savannah,GA,31412
Skidaway Island Presbyterian,50 Diamond Cswy,Savannah,GA,31411
White Bluff Presbyterian Chr,10710 White Bluff Rd,Savannah,GA,31406
Wilmington Island Presbyterian,450 N Cromwell Rd,Savannah,GA,31410
Seeds Of Faith Worship Center,774 E Duffy St,Savannah,GA,31401
First Assembly Of God,412 N Main St,Blakely,GA,39823
Episcopal Diocese Of Georgia,611 Bay St,Savannah,GA,31401
Church Of Christ Of Savannah,11808 Middleground Rd,Savannah,GA,31419
Catholic Diocese Of Savannah,6 Dolan Dr,Savannah,GA,31406
Spiritual House Of Lord,1931 E 51st St,Savannah,GA,31404
All Walks Of Life,6 Oglethorpe Professional Blvd,Savannah,GA,31406
Central Church Of Christ,304 E Central Ave,Valdosta,GA,31601
Restoration Praise ,3910 Waters Ave,Savannah,GA,31404
2Nd Mt Calvary Baptist Church,819 Joe St,Savannah,GA,31401
2Nd Mt Pleasant Baptist Church,14022 Coffee Bluff Rd,Savannah,GA,31419
50Th Street Church Of Christ,732 E 50th St,Savannah,GA,31405
Abiding In Word Christian,5504 Montgomery St,Savannah,GA,31405
Abundant Life Deliverance Center,515 Montgomery St,Savannah,GA,31401
Agape Church Of Jesus Christ,1102 Love St,Savannah,GA,31415
Aldersgate United Mthdst Chr,2023 Tennessee Ave,Savannah,GA,31404
Bethesda Baptist Church,5793 Old Augusta Hwy,Harlem,GA,30814
Eureka Baptist Church,668 Eureka Church Rd,Carrollton,GA,30117
Faith Missionary Baptist Chr,406 Newnan Rd,Carrollton,GA,30117
First Baptist Church-Carrolltn,563 Old Bremen Rd,Carrollton,GA,30117
Hillside Baptist Church,3176 Tyus-Carrollton Rd,Carrollton,GA,30117
Pleasant View Baptist Church,3457 N Highway 27,Carrollton,GA,30117
Shiloh Baptist Church,2490 Ross Rd,Snellville,GA,30039
Tyus Baptist Church,4514 Tyus-Carrollton Rd,Carrollton,GA,30117
West Carrollton Baptist Church,905 Maple St,Carrollton,GA,30117
Our Lady-Perpetual Help Church,210 Old Center Point Rd,Carrollton,GA,30117
St Margaret's Episcopal Church,606 Newnan St,Carrollton,GA,30117
Grace Lutheran Church,155 Hanover Cir,Fayetteville,GA,30214
Shiloh United Methodist Church,10 Almon Church Rd,Covington,GA,30014
Christ Fellowship,555 Newnan Rd,Carrollton,GA,30117
Southern Hills Christian Chr,PO Box 1090,Carrollton,GA,30112
Victorius Believer's Ministrie,1800 Bankhead Hwy,Carrollton,GA,30116
Victory Tabernacle Ministries,PO Box 21,Carrollton,GA,30112
Grace Covenant Church,PO Box 127,Carrollton,GA,30112
Mt Holly Church of God,4685 N Highway 27,Carrollton,GA,30117
Sheild Of Faith Worship Center,490 Bankhead Hwy,Carrollton,GA,30117
Bethel Church Of God,3786 S Highway 27,Carrollton,GA,30117
Adairsville Baptist Church,107 Summer St,Adairsville,GA,30103
Oothcalooga Baptist Church,PO Box 269,Adairsville,GA,30103
Pleasant Valley Baptist Church,174 Mostellers Mill Rd NW,Adairsville,GA,30103
Adairsville Church of God,PO Box 363,Adairsville,GA,30103
Adairsville Body Of Christ Chr,255 Saint Elmo Cir,Adairsville,GA,30103
Adairsville Church Of Christ,126 Summer St,Adairsville,GA,30103
Adairsville Church Of God,297 Old Dixie Hwy NW,Adairsville,GA,30103
Adairsville United Mthdst Chr,102 S Main St,Adairsville,GA,30103
Adairsville Sda Church,1193 Highway 140 NW,Adairsville,GA,30103
Alcova Mountain Baptist Church,2680 H D Atha Rd,Monroe,GA,30655
Bold Springs Baptist Church,PO Box 891,Monroe,GA,30655
Center Hill Baptist Church,6372 Highway 20,Loganville,GA,30052
Faith Baptist Church,812 E McIntosh Rd,Griffin,GA,30223
Walker Baptist Church,PO Box 885,Monroe,GA,30655
St Anna's Church,136 Baker St,Monroe,GA,30655
St Alban's Episcopal Church,PO Box 655,Monroe,GA,30655
Campton United Methodist Chr,1345 Shoal Creek Rd NW,Monroe,GA,30656
Union Chapel United Methodist,2625 Pannell Rd,Monroe,GA,30655
Jesus Christ's Eternal,PO Box 986,Monroe,GA,30655
Lighthouse World Outreach Ctr,PO Box 1596,Monroe,GA,30655
Monroe Church of God,PO Box 1330,Monroe,GA,30655
Praise Center,PO Box 721,Monroe,GA,30655
Monroe Church Of God,1204 E Church St,Monroe,GA,30655
Community Church Of Christ,2189 Highway 83,Monroe,GA,30655
Aletheia Baptist Church,1711 Oglesby Pl,Macon,GA,31204
Avondale Baptist Church,6970 Cochran Field Rd,Macon,GA,31216
Bellevue Baptist Church,3805 Napier Ave,Macon,GA,31204
Berean Baptist Church,2843 Rex Rd,Ellenwood,GA,30294
Bibb Mt Zion Baptist Church,3268 Avondale Mill Rd,Macon,GA,31216
Bloomfield Gardens Baptist Chr,5221 Nisbet Dr,Macon,GA,31206
Central Fellowship Baptist Chr,8460 Hawkinsville Rd,Macon,GA,31216
Cherokee Heights Child Dev Ctr,1101 Courtland Ave,Macon,GA,31204
Faith Baptist Temple,1441 Williamson Rd,Macon,GA,31206
Gilead Baptist Church,1931 Rocky Creek Rd,Macon,GA,31206
Glenwood Hills Baptist Church,3225 Rice Mill Rd,Macon,GA,31206
Greater Bellevue Baptist Chr,4041 Mumford Rd,Macon,GA,31204
Greater New Bethel Baptist Chr,726 Edgewood Ave,Macon,GA,31201
High Point Baptist Church,2963 Hollis Rd,Macon,GA,31206
Highland Hills Baptist Church,1370 Briarcliff Rd,Macon,GA,31211
Houston Heights Baptist Church,4439 Tech Dr,Macon,GA,31206
Ingleside Baptist Church,834 Wimbish Rd,Macon,GA,31210
Korean Baptist Church of Macon,511 High Pl,Macon,GA,31201
Lizzie Chapel Baptist Church,1180 Bartlett St,Macon,GA,31204
Log Cabin Baptist Church,3396 Napier Ave,Macon,GA,31204
Macedonia Missionary Baptist,600 Eisenhower Pky,Macon,GA,31206
Mikado Baptist Church,6751 Houston Rd,Macon,GA,31216
Mount Zion Southern Baptist,7015 Rivoli Rd,Macon,GA,31210
New Elim Baptist Church,4368 Hartley Bridge Rd,Macon,GA,31216
New Fellowship Missionary,475 Church St,Macon,GA,31217
New Griswoldville Baptist Chr,3003 Truitt Pl,Macon,GA,31211
New Pilgrim Missionary Baptist,4388 Robinson Rd,Macon,GA,31204
New Piney Grove Baptist Church,258 Straight St,Macon,GA,31204
New Pleasant Grove Missionary,PO Box 6896,Macon,GA,31208
Northridge Baptist Church,2360 Gray Hwy,Macon,GA,31211
Pine Forest Baptist Church,PO Box 3008,Macon,GA,31205
Pleasant Grove Baptist Church,1003 Pleasant Grove Church Rd,Villa Rica,GA,30180
Porterfield Baptist Church,2910 Allen Rd,Macon,GA,31216
Shurlington Baptist Church,2270 Shurling Dr,Macon,GA,31211
Thomaston Road Baptist Church,5710 Thomaston Rd,Macon,GA,31220
Union Baptist Church,2900 Georgia 106,Hull,GA,30646
Unionville Baptist Church,3837 Houston Ave,Macon,GA,31206
Vineville North Baptist Church,5915 Zebulon Rd,Macon,GA,31210
Wesleyan Drive Baptist Church,939 Wesleyan Dr,Macon,GA,31210
West Highland Baptist Church,4505 Mercer University Dr,Macon,GA,31210
Holy Spirit Catholic Church,4074 Chambers Rd,Macon,GA,31206
St Joseph's Catholic Church,134 Prince Ave,Athens,GA,30601
Houston Ave Christian Church,6220 Thomaston Rd,Macon,GA,31220
Northside Christian Church,5024 Northside Dr,Macon,GA,31210
Church of Christ,1947 Watson Blvd,Warner Robins,GA,31093
Thomaston Rd Church of Christ,5859 Thomaston Rd,Macon,GA,31220
St Francis Episcopal Church,432 Forest Hill Rd,Macon,GA,31210
Lutheran Church-the Redeemer,390 Pierce Ave,Macon,GA,31204
Bethel Cme Church,1668 Pio Nono Ave,Macon,GA,31204
Bloomfield United Methodist,PO Box 3936,Macon,GA,31205
Cherokee Heights United Meth,2590 Napier Ave,Macon,GA,31204
Cross Keys United Methodist,1825 Jeffersonville Rd,Macon,GA,31217
Doles United Methodist Church,6258 Thomaston Rd,Macon,GA,31220
East Macon United Methodist,424 Church St,Macon,GA,31217
Ebenezer United Methodist Chr,2533 Stanton Rd SE,Conyers,GA,30094
First Evangelical Church,3601 Fulton Mill Rd,Macon,GA,31206
Forest Hills United Methodist,1217 Forest Hill Rd,Macon,GA,31210
Glenwood Hills United Meth,3357 Rice Mill Rd,Macon,GA,31206
Greater Allen Chapel Ame Chr,269 Pursley St,Macon,GA,31201
Greater Turner Tabernacle,PO Box 6623,Macon,GA,31208
Hillcrest United Methodist Chr,3350 Hillcrest Ave,Macon,GA,31204
Ingleside United Methodist Chr,3187 Ridge Ave,Macon,GA,31204
Liberty United Methodist Chr,2040 Liberty Church Rd,Hephzibah,GA,30815
Lynmore United Methodist Chr,687 Robert Henry St,Macon,GA,31206
Martha Bowman Memorial United,500 Bass Rd,Macon,GA,31210
Mulberry St United Methodist,PO Box 149,Macon,GA,31202
Riverside Childrens Ctr,735 Pierce Ave,Macon,GA,31204
Southside United Methodist Chr,4116 Houston Ave,Macon,GA,31206
Steward Chapel Ame Church,PO Box 4382,Macon,GA,31208
Swift Creek United Methodist,4271 Jeffersonville Rd,Macon,GA,31217
Vineville United Methodist Chr,2045 Vineville Ave,Macon,GA,31204
Wesley United Methodist Church,825 N Belair Rd,Evans,GA,30809
Beulahland Bible Church,1010 Newberg Ave,Macon,GA,31206
Covenant Church-Jesus Christ,PO Box 5033,Macon,GA,31208
Emmanuel Church,498 Prince Ave,Athens,GA,30601
Greater New Beginning Minstry,4019 Chambers Rd,Macon,GA,31206
Harvest Cathedral,2254 Rocky Creek Rd,Macon,GA,31206
Spirit of God Awakening Church,PO Box 189,Macon,GA,31202
Bell Temple Holiness Church,2590 Peacock St,Macon,GA,31206
Christ Chapel,1550 Edna Pl,Macon,GA,31204
Gateway Fellowship Outreach,PO Box 3508,Macon,GA,31205
Living Waters Full Gospel,PO Box 3794,Macon,GA,31205
Overcoming Church of God,PO Box 3564,Macon,GA,31205
World of Faith Inc,5028 Bloomfield Rd,Macon,GA,31206
World Vision Church of God,PO Box 13012,Macon,GA,31208
North Macon Presbyterian Chr,5707 Rivoli Dr,Macon,GA,31210
Northminster Presbyterian,565 Wimbish Rd,Macon,GA,31210
Vineville Presbyterian Church,2193 Vineville Ave,Macon,GA,31204
Lutheran Church Of Holy,1899 Tucker Rd,Macon,GA,31220
Jesus Mission Of Love,1610 Pio Nono Ave,Macon,GA,31204
Trinity Church Of Nazarene,4192 Hartley Bridge Rd,Macon,GA,31216
Southside Church Of God,6140 Highway 42,Rex,GA,30273
Parkway Assembly Of God,5191 Eisenhower Pky,Macon,GA,31206
Cb F Of Georgia,2465 Hillcrest Ave,Macon,GA,31204
Aberlena Baptist Church,1260 Riverside Dr,Macon,GA,31201
Agape Outreach Center Minstries,2671 Gray Hwy,Macon,GA,31211
All Saints' Anglican Church,1694 Wesleyan Dr,Macon,GA,31210
All Things Are Possible Mnstrs,286 Blossom Ave,Macon,GA,31204
Amazing Grace Baptist Church,787 Paden Dr,Lawrenceville,GA,30044
Arcadia Baptist Church,PO Box 3646,Albany,GA,31706
Byne Memorial Baptist Church,2832 Ledo Rd,Albany,GA,31707
First Baptist Church of Albany,PO Box 67,Albany,GA,31702
First Free Will Baptist Church,420 N Westover Blvd,Albany,GA,31707
Friendship Missionary Baptist,PO Box 3546,Albany,GA,31706
Gillionville Baptist Church,4614 Gillionville Rd,Albany,GA,31721
Greater Cutliff Grove,PO Box 4368,Albany,GA,31706
Greater Second Mt Olive Bptst,302 Adkins St,Albany,GA,31705
Jordan Grove Baptist Church,PO Box 813,Albany,GA,31702
Lakeside Baptist Church,2806 N Jefferson St,Albany,GA,31701
Mercedes Baptist Church,115 Moultrie Rd,Albany,GA,31705
Palmyra Baptist Church,610 W 1st Ave,Albany,GA,31701
Pine Bluff Baptist Church,499 Pine Bluff Rd,Albany,GA,31705
Pleasant Hill Missionary Bapt,725 Pleasant Hill St,Roswell,GA,30075
Radium Springs Baptist Church,2402 Roxanna Rd,Albany,GA,31705
Raleigh White Baptist Church,2804 Phillips Dr,Albany,GA,31721
Second Bethesda Baptist Church,PO Box 4782,Albany,GA,31706
Sunnyside Baptist Church,320 S Mock Rd,Albany,GA,31705
Third Kiokee Baptist Church,521 Carver Ave,Albany,GA,31701
Trinity Metropolitian Bapt Chr,PO Box 4719,Albany,GA,31706
Westview Baptist Church,205 S Magnolia St,Albany,GA,31707
Saint Teresa's Catholic Church,421 Edgewood Ln,Albany,GA,31707
Church of Christ Beattie Road,1731 Beattie Rd,Albany,GA,31721
River Road Church of Christ,PO Box 3962,Albany,GA,31706
Avalon United Methodist Church,3018 Gillionville Rd,Albany,GA,31721
Bethel African Methodist Chr,217 S Washington St,Albany,GA,31701
Palmyra Road United Methodist,2411 Temple Ave,Albany,GA,31707
Porterfield Memorial Umc,2200 Dawson Rd,Albany,GA,31707
Church of Jesus Christ of Lds,105 Lisa St,Rincon,GA,31326
First Albany Deliverance,PO Box 4460,Albany,GA,31706
Gethesemane Worship Ctr,529 10th Ave,Albany,GA,31701
Life Christian Ctr Intl,PO Box 1303,Albany,GA,31702
New Covenant Church,PO Box 70549,Albany,GA,31708
New Demension Christian Chr,PO Box 3628,Albany,GA,31706
Trumpet of God Ministries,PO Box 70444,Albany,GA,31708
Faith Deliverance Church,1312 E Tift Ave,Albany,GA,31705
Harvest Temple Church of God,1427 Us 41 Byp S,Griffin,GA,30224
Liberty Parkway Church of God,1501 Schley Ave,Albany,GA,31707
New Jerusalem Pentecostal Chr,PO Box 4938,Albany,GA,31706
Providence Church,2504 Archwood Dr,Albany,GA,31707
Victory Tabernacle,1151 Flat Shoals Rd SE,Conyers,GA,30013
Tabernacle Of David Worship,632 Holloway Ave,Albany,GA,31701
Saints Of God House Of Worship,928 W Oglethorpe Blvd,Albany,GA,31701
Church Of Kingdom Of God,509 Dorsett Ave,Albany,GA,31701
Albany Masjid Of Alabama-islam,831 W Highland Ave,Albany,GA,31701
Abundant Life Fellowship Center,214 East Rd,Albany,GA,31705
Agape Christian Worship Center,3200 Martin Luther King Jr Dr,Albany,GA,31701
Albany Baptist Church,3521 Sylvester Rd,Albany,GA,31705
Albany Bible Church,100 Grand Island Dr,Albany,GA,31707
Albany Christian Church,1501 Whispering Pines Rd,Albany,GA,31707
Albany Gospel Chapel,2556 N Slappey Blvd,Albany,GA,31701
Albany Hebrew Congregation,3917 Gillionville Rd,Albany,GA,31721
Albany Grace Church-nazarene,3000 Gillionville Rd,Albany,GA,31721
Albany Ob-gyn,1001 N Monroe St,Albany,GA,31701
Anchor Church,PO Box 549,Grayson,GA,30017
Chestnut Grove Baptist Church,PO Box 370,Grayson,GA,30017
First Baptist Church-Grayson,PO Box 965,Grayson,GA,30017
Grayson United Methodist Chr,PO Box 361,Grayson,GA,30017
Northview Christian Church,"2255 Loganville Hwy, #c",Grayson,GA,30017
Jehovah's Witnesses,4400 Sugarloaf Pky,Lawrenceville,GA,30044
Highlands Presbyterian Church,830 Grayson Pky,Grayson,GA,30017
Faith Community Church,800 Grayson Pky,Grayson,GA,30017
Grayson Methodist Preschool,555 Grayson Pky,Grayson,GA,30017
Community Of Grace,1200 Athens Hwy,Grayson,GA,30017
Anchor of Hope Baptist Church,2613 Lakeview Dr,Rossville,GA,30741
Elizabeth Terrace Baptist Chr,600 Mohawk St,Rossville,GA,30741
Fairview Baptist Church,2913 Reese Rd,Columbus,GA,31907
First Baptist Church-Rossville,PO Box 204,Rossville,GA,30741
Gethsemane Baptist Church,68 Vandiver Rd,Rossville,GA,30741
Lakeview First Baptist Church,10 Hudson St,Rossville,GA,30741
Lighthouse Baptist Church,1201 Lafayette Rd,Rossville,GA,30741
Memorial Baptist Tabernacle,905 Hogan Rd,Rossville,GA,30741
Mission Glen Baptist Church,PO Box 277,Rossville,GA,30741
Mission Ridge Baptist Church,337 Mission Ridge Rd,Rossville,GA,30741
South Rossville Baptist Church,101 E Peachtree St,Rossville,GA,30741
Victory Baptist Church,PO Box 578,Loganville,GA,30052
Westside Baptist Church,4900 Floyd Rd SW,Mableton,GA,30126
Rossville Church of Christ,1100 McFarland Ave,Rossville,GA,30741
Mc Farland United Methodist,101 E Gordon Ave,Rossville,GA,30741
Newnan Springs United Meth Chr,78 Monanaw Ave,Rossville,GA,30741
Simpson Memorial United Meth,601 McFarland Ave,Rossville,GA,30741
River of Life Church,377 Direct Connection Dr,Rossville,GA,30741
Harbor of Faith Church of God,2290 Cloud Springs Rd,Rossville,GA,30741
Rossville Church of God,307 Andrews St,Rossville,GA,30741
Allen Carroll,140 Courtney Ln,Rossville,GA,30741
Annistown Road Baptist Church,4554 Annistown Rd,Snellville,GA,30039
First Baptist Snellville,PO Box 647,Snellville,GA,30078
Park Place Baptist Church,PO Box 390596,Snellville,GA,30039
St Oliver Catholic Church,3200 Brooks Dr,Snellville,GA,30078
Snellville Christian Church,2485 Scenic Hwy S,Snellville,GA,30078
Church of Christ at Snellville,PO Box 458,Snellville,GA,30078
Cannon United Methodist Church,2424 Webb Gin House Rd,Snellville,GA,30078
Snellville United Methodist,2428 Main St E,Snellville,GA,30078
Zoar United Methodist Church,3895 Zoar Church Rd,Snellville,GA,30039
Grace Fellowship Church,1447 Dogwood Rd,Snellville,GA,30078
Hope ,3594 Centerville Hwy,Snellville,GA,30039
New Life Assembly,3755 Centerville Hwy,Snellville,GA,30039
Evangel Community Church,3857 Centerville Rosebud Rd,Snellville,GA,30039
Presbyterian Church-Redeemer,3750 Zoar Church Rd,Snellville,GA,30039
Voices Of Worship Ministry,3416 Centerville Hwy,Snellville,GA,30039
Snellville Church Of God,2720 Centerville Hwy,Snellville,GA,30078
Islamic Community Of Bosniaks,2755 Centerville Hwy,Snellville,GA,30078
Underwood J Roland Rev,1328 Highpoint Rd,Snellville,GA,30078
Point Church,1465 Highpoint Rd,Snellville,GA,30078
Brookwood Presbyterian Church,1551 Oak Rd,Snellville,GA,30078
Community Baptist Church,1584 Highpoint Rd,Snellville,GA,30078
Calvary Praise Center,1905 Highpoint Rd,Snellville,GA,30078
Mountain View Bapt Tabernacle,2849 Mountain View Rd,Snellville,GA,30078
St Thomas Evangelical Church,2902 Oak Meadow Ln,Snellville,GA,30078
Temple Beth David,1885 McGee Rd,Snellville,GA,30078
Word Aflame Tabernacle,2035 Westside Ct,Snellville,GA,30078
New Jerusalem Baptist Church,5300 Williams Rd,Norcross,GA,30093
Victory Christian Center,2260 Hewatt Rd,Snellville,GA,30039
Mt Zion Baptist Chr Preschool,1525 Scenic Hwy N,Snellville,GA,30078
Thru Week School,2400 Main St E,Snellville,GA,30078
Atlanta Nam Yang Church,4138 Leach Rd,Snellville,GA,30039
Calvary Chapel,1969 McDaniels Bridge Rd SW,Lilburn,GA,30047
Sisters Of Visitation,2055 Ridgedale Dr,Snellville,GA,30078
Snellville Biblical Dlvrnc,2505 Eastgate Pl,Snellville,GA,30078
New Christian Center,4210 Shiloh Rd,Snellville,GA,30039
Centro De Adoraction A Dios,2606 Bethany Church Rd,Snellville,GA,30039
Church Of Christ At Snellville,3005 Lenora Church Rd,Snellville,GA,30078
Church Of Hope,2240 Springdale Dr,Snellville,GA,30078
Canaan Land Christian Center,3205 Industrial Way,Snellville,GA,30039
Regeneration World Church,3220 Industrial Way,Snellville,GA,30039
First Slavic Pentecostal Chr,4460 Annistown Rd,Snellville,GA,30039
Wat Buddha Khanti Of Atlanta,4052 Zoar Church Rd,Snellville,GA,30039
Raymond Hill Baptist Church,1495 S Crestview Dr,Snellville,GA,30078
Beallwood Baptist Church,4519 Hamilton Rd,Columbus,GA,31904
Benning Hills Baptist Church,8 Esquiline Dr,Columbus,GA,31903
Billings Road Baptist Church,5826 Cobble Trl,Columbus,GA,31907
Canaan Baptist Church,5581 Salem Rd,Covington,GA,30016
Cascade Hills Church,727 54th St,Columbus,GA,31904
Christ Temple Missionary Bapt,604 Coolidge Ave,Columbus,GA,31906
Crystal Valley Baptist Church,6200 Macon Rd,Columbus,GA,31907
Edgewood Baptist Church,PO Box 370,Trenton,GA,30752
First Baptist Church-Columbus,PO Box 828,Columbus,GA,31902
Gentian Baptist Church,3853 Gentian Blvd,Columbus,GA,31907
Glenn Anthony Baptist Church,PO Box 4097,Columbus,GA,31914
Grace Baptist Church,4798 Hardy McManus Rd,Evans,GA,30809
Greater Beulah Baptist Church,613 6th Ave,Columbus,GA,31901
Greater Shady Grove Baptist,1901 2nd Ave,Columbus,GA,31901
Green Hills Baptist Church,4177 Milgen Rd,Columbus,GA,31907
Hilton Terrace Baptist Church,2236 Warm Springs Rd,Columbus,GA,31904
Lewis Memorial Baptist Church,1022 Adair Ave,Columbus,GA,31906
Liberty Hill Baptist Church,6804 Forest Rd,Columbus,GA,31907
Metropolitan Baptist Church,1633 5th Ave,Columbus,GA,31901
Mount Pleasant Baptist Church,PO Box 6121,Columbus,GA,31917
Mt Pilgrim Baptist Church,4400 Old Cusseta Rd,Columbus,GA,31903
Nazareth Baptist Church,526 Radcliff Ave,Columbus,GA,31906
New Providence Baptist Church,PO Box 98,Guyton,GA,31312
Northside Baptist Church,1013 Carl Vinson Pky,Centerville,GA,31093
Oates Avenue Baptist Church,4119 Oates Ave,Columbus,GA,31904
Pinehurst Baptist Church,4217 Saint Marys Rd,Columbus,GA,31907
Porter Memorial Baptist Church,90 40th St,Columbus,GA,31904
Revelation Missionary Baptist,203 Bogart Ct,Columbus,GA,31907
Rose Hill Baptist Church,2100 Hamilton Rd,Columbus,GA,31904
Second Baptist Church,PO Box 542,LaFayette,GA,30728
Temple Baptist Church,4311 2nd Ave,Columbus,GA,31904
Twenty-Fourth Street Baptist,400 24th St,Columbus,GA,31904
Waldrop Memorial Baptist Chr,2308 Hilton Ave,Columbus,GA,31906
Wynnbrook Baptist Church,500 River Knoll Way,Columbus,GA,31904
Wynnton Hill Baptist Church,2620 Buena Vista Rd,Columbus,GA,31906
Our Lady of Lourdes Church,PO Box 4056,Port Wentworth,GA,31407
St Anne Catholic Church,2000 Kay Cir,Columbus,GA,31907
St Benedict the Moor,PO Box 5705,Columbus,GA,31906
Chattahoochee Vly Chr-Christ,122 Bascom Ct,Columbus,GA,31909
Church of Christ Cusseta Road,3013 Cusseta Rd,Columbus,GA,31903
Church-Christ-Edgewood,PO Box 6282,Columbus,GA,31917
Words of Wisdom Christian Ctr,PO Box 6545,Columbus,GA,31917
St Mary Magdalene Episcopal,4244 Saint Marys Rd,Columbus,GA,31907
Trinity Episcopal Church,PO Box 1146,Columbus,GA,31902
Peaceful Holiness Church,4944 Buena Vista Rd,Columbus,GA,31907
Lutheran Church-Redeemer,4700 Armour Rd,Columbus,GA,31904
East Highland United Methodist,1301 17th St,Columbus,GA,31901
Edgewood United Methodist Chr,PO Box 6099,Columbus,GA,31917
Greater St Mark Ame Church,546 2nd Ave,Columbus,GA,31901
South Columbus United Church,1213 Benning Dr,Columbus,GA,31903
Spirit Filled Methodist Chr,PO Box 12323,Columbus,GA,31917
St James Cme Church,380 Northstar Dr,Columbus,GA,31907
St John Ame Church,305 W Campbellton St,Fairburn,GA,30213
St Mary's Rd United Methodist,3993 Saint Marys Rd,Columbus,GA,31907
Wynnton United Methodist Chr,PO Box 5469,Columbus,GA,31906
Faith Tabernacle Community Chr,1603 Floyd Rd,Columbus,GA,31907
New Life Christian Outreach,1858 Midtown Dr,Columbus,GA,31906
New Testament Christian Ctr,PO Box 5097,Columbus,GA,31906
Victorious Living Chapel,PO Box 4593,Columbus,GA,31914
Cornerstone Church of God,7701 Lloyd Rd,Columbus,GA,31909
Edgewood Assembly of God,PO Box 6446,Columbus,GA,31917
Evangel Temple,5350 Veterans Pky,Columbus,GA,31904
North Highland Assembly of God,7300 Whittlesey Blvd,Columbus,GA,31909
Northside Chapel,1901 Whittlesey Rd,Columbus,GA,31904
Tabernacle of Praise,2403 Cusseta Rd,Columbus,GA,31903
Trinity Temple Assembly of God,PO Box 4298,Columbus,GA,31914
Walker Temple Church of God,PO Box 8906,Columbus,GA,31908
Edgewood Presbyterian Church,3617 Macon Rd,Columbus,GA,31907
Morningside Presbyterian Chr,PO Box 7636,Columbus,GA,31908
Rock Presbyterian Church,1728 Floyd Rd,Columbus,GA,31907
Body Of Christ Worship Center,1500 13th Ave,Columbus,GA,31901
Central Assembly Of God,1219 15th St,Columbus,GA,31901
Northside Church Of Christ,611 Gilbert Rd,Sparta,GA,31087
Beallwood Church Of God,1113 43rd St,Columbus,GA,31904
Grace Church Of Nazarene,1111 Nelson St,Dalton,GA,30721
Bethsaida House Of Columbus,1820 Wynnton Rd,Columbus,GA,31906
Philippians Church Of God,301 35th St,Columbus,GA,31904
South Congregation Of Jehovahs,2742 N Lumpkin Rd,Columbus,GA,31903
Abiding Faith Baptist Church,2719 9th St,Columbus,GA,31906
Abundant Life Full Gospel,6001 Buena Vista Rd,Columbus,GA,31907
Acute Care Express,7901 Veterans Pky,Columbus,GA,31909
Aleander James A Sr Rev,417 Oakley Dr,Columbus,GA,31906
Alive With Christ Ministries,2810 Dawson St,Columbus,GA,31903
All Souls Christian Church,2700 Spenola St,Columbus,GA,31906
Bethel Baptist Church,74 Williams Rd,Taylorsville,GA,30178
Corinth Baptist Church,PO Box 213,Social Circle,GA,30025
First Baptist Chr of Jonesboro,PO Box 773,Jonesboro,GA,30237
Harvest Baptist Church,3460 Kellogg Creek Rd,Acworth,GA,30102
Poston Road Baptist Church,9701 Poston Rd,Jonesboro,GA,30238
St Philip Benizi Catholic Chr,591 Flint River Rd,Jonesboro,GA,30238
Andrew Chapel United Methodist,PO Box 1437,Jonesboro,GA,30237
Jonesboro United Methodist Chr,142 S Main St,Jonesboro,GA,30236
St Peter Ame Church,PO Box 594,Camilla,GA,31730
Berachah Bible Church,310 Corinth Rd,Jonesboro,GA,30238
Church of Harvest Intl,PO Box 68,Jonesboro,GA,30237
Oak Park Church,2613 Highway 138 E,Jonesboro,GA,30236
Strong Tower Church of God,9671 Thomas Rd,Jonesboro,GA,30238
God's House Of Worship,748 Veterans Pky,Jonesboro,GA,30238
Churches,10335 Tara Blvd,Jonesboro,GA,30236
Impact Ministry Family Worship,7833 Old Morrow Rd,Jonesboro,GA,30236
Tara Church Of Christ,1820 Highway 138 E,Jonesboro,GA,30236
Albayyinah,7962 Woods Ln,Jonesboro,GA,30236
Oakwood Baptist Church,115 Oakwood St,Chickamauga,GA,30707
Elizabeth Lee United Methodist,PO Box 126,Chickamauga,GA,30707
Covenant Life Worship Ctr,1476 U.S. 27,Chickamauga,GA,30707
Chickamauga Church Of God,7001 Lafayette Rd,Chickamauga,GA,0
Antioch Baptist Church-Harris,275 Antioch Church Rd,Fortson,GA,31808
Ash Street Baptist Church,5370 Ash St,Forest Park,GA,30297
Forest Chapel Baptist Church,PO Box 159,Forest Park,GA,30298
Church of Christ Forest Park,PO Box 1405,Forest Park,GA,30298
St Timothy Lutheran Church,5241 Ash St,Forest Park,GA,30297
Forest Park United Methodist,PO Box 1632,Forest Park,GA,30298
Living Faith Tabernacle,5880 Old Dixie Hwy,Forest Park,GA,30297
Atco Baptist Church,20 Parmenter St,Cartersville,GA,30120
Greater Mount Olive Bapt Chr,1 Mt Olive St,Cartersville,GA,30120
Oakland Heights Baptist Church,PO Box 200904,Cartersville,GA,30120
Rowland Springs Baptist Church,79 Rowland Springs Rd SE,Cartersville,GA,30121
St Francis Catholic Church,PO Box 2048,Cartersville,GA,30120
Episcopal Church of Ascension,205 W Cherokee Ave,Cartersville,GA,30120
Douglas Street United Meth Chr,219 Douglas St,Cartersville,GA,30120
First Congregational Meth Chr,PO Box 961,Cartersville,GA,30120
Sam Jones Meml United Meth Chr,100 W Church St,Cartersville,GA,30120
Breath of God Life Ministry,32 Branton Rd SE,Cartersville,GA,30121
Christian Fellowship Church,PO Box 1066,Warner Robins,GA,31099
Cartersville Church of God,PO Box 668,Cartersville,GA,30120
Global Harvest Church of God,17 Cedar Creek Rd NW,Cartersville,GA,30121
City Of Praise Worship Center,406 S Tennessee St,Cartersville,GA,30120
Cartersville Church Of Christ,1319 Joe Frank Harris Pky SE,Cartersville,GA,30120
Sunrise Community Of Georgia,6 Clarendon Pl NW,Rome,GA,30165
Alexander Chapel United Mthdst,609 Martin Luther King Jr Dr,Cartersville,GA,30121
Atkinson Road Baptist Church,1724 Atkinson Rd,Lawrenceville,GA,30043
Believers Baptist Church,742 Bethesda School Rd,Lawrenceville,GA,30044
Brookwood Baptist Church,2516 Five Forks Trickum Rd,Lawrenceville,GA,30044
Collins Hill Baptist Church,1612 Collins Hill Rd,Lawrenceville,GA,30043
Colonial Woods Baptist Church,371 Lester Rd SW,Lawrenceville,GA,30044
Cross Roads Baptist Church,1391 Braselton Hwy,Lawrenceville,GA,30043
Galilean Baptist Church,1390 Monfort Rd,Lawrenceville,GA,30046
North Metro First Baptist Chr,1026 Old Peachtree Rd NE,Lawrenceville,GA,30043
Oak Hill Baptist Church,PO Box 91,Griffin,GA,30224
Pleasant Hill Baptist Church,2433 Brownsville Rd,Powder Springs,GA,30127
Sunrise Baptist Church,3000 Sugarloaf Pky,Lawrenceville,GA,30045
St Lawrence Catholic Church,319 Grayson Hwy,Lawrenceville,GA,30046
St Marguerite D'Youville,85 Gloster Rd NW,Lawrenceville,GA,30044
New Hope Christian Church,1982 Old Norcross Rd,Lawrenceville,GA,30044
Crossroads Community Church,1625 Collins Hill Rd,Lawrenceville,GA,30043
Grace Bible Church,325 Simonton Rd SW,Lawrenceville,GA,30046
Christ the Lord Lutheran Chr,1001 Duluth Hwy,Lawrenceville,GA,30043
Bethesda United Methodist Ch,444 Bethesda Church Rd,Lawrenceville,GA,30044
Mc Kendree United Methodist,1570 Lawrenceville Suwanee Rd,Lawrenceville,GA,30043
Prospect United Methodist Chr,6752 Highway 212,Covington,GA,30016
Rock Springs United Methodist,PO Box 117,Rock Spring,GA,30739
Gwinnett Community Church,455 Arnold Rd SW,Lawrenceville,GA,30044
Tabernacle International,PO Box 41,Lawrenceville,GA,30046
Tabernacle of Christ Church,PO Box 1567,Lawrenceville,GA,30046
Trinity Christian Fellowship,1985 Old Fountain Rd,Lawrenceville,GA,30043
Calvary Chapel Gwinnett,PO Box 233,Lawrenceville,GA,30046
Lawrenceville Church of God,PO Box 367,Lawrenceville,GA,30046
Northeast Christian Fellowship,779 Glenspring Dr,Lawrenceville,GA,30043
Vineyard Christian Fellowship,"6920 Jimmy Carter Blvd, #200",Norcross,GA,30071
Woodland Hills Assembly of God,1670 Sever Rd,Lawrenceville,GA,30043
Fairview Presbyterian Church,857 Duluth Hwy,Lawrenceville,GA,30043
Ingleside Presbyterian Church,1001 Old Snellville Hwy,Lawrenceville,GA,30044
Lawrenceville Presbyterian Chr,800 Lawrenceville Hwy,Lawrenceville,GA,30046
Lawrenceville Church Of Christ,2565 Sugarloaf Pky,Lawrenceville,GA,30045
Gwinnett Church Of Christ,1736 Sever Rd,Lawrenceville,GA,30043
Lawrenceville Church Of God,329 Grayson Hwy,Lawrenceville,GA,30046
Uu Congregation Of Gwinnett,12 Bethesda Church Rd,Lawrenceville,GA,30044
"Arikatla, Haritha, MD - Reagan Medical Center",2878 Five Forks Trickum Rd,Lawrenceville,GA,30044
St Marguerite D'youville Catholic Church,83 Gloster Rd NW,Lawrenceville,GA,30044
Church-all Nations Greater,120 Gloster Rd NW,Lawrenceville,GA,30044
Amazing Grace Lutheran Church Elca,3305 Lawrenceville Hwy,Lawrenceville,GA,30044
Abundant Life Christian Wrshp,2973 Viero Ct,Lawrenceville,GA,0
Church Of Jesus Christ Of Lds,703 Park Crossing Way NW,Lilburn,GA,30047
Revelation Of Word Church,3865 Lawrenceville Hwy,Lawrenceville,GA,30044
Grace Community Evangelical Church,850 James Path Ct,Lawrenceville,GA,30044
Masjid Darus Salam LLC,3122 Cruse Rd,Lawrenceville,GA,30044
Love Fellowship Tabernacle,2337 Longmont Dr,Lawrenceville,GA,30044
Wrecking Crew Ministry Corp,3169 Meadow Wood Ct,Lawrenceville,GA,30044
Church Of Jesus Christ Of Latter-day Saints,1150 Cole Rd SW,Lilburn,GA,30047
Glory To Lord,1496 Flagler Ct,Lawrenceville,GA,30044
Kingdomizer Mission Alliance,3565 Greenview Dr,Lawrenceville,GA,30044
Startchurch.Com,1401 Arbor Hill Ct,Lawrenceville,GA,30045
New Bethel Deliverence,875 Scenic Hwy,Lawrenceville,GA,30045
Sola Fide Evangelical School,1307 Webb Gin House Rd,Lawrenceville,GA,30045
Romanian Sda Church,1207 Oakland Rd,Lawrenceville,GA,30044
Restoration Christian,1154 Lawrenceville Hwy,Lawrenceville,GA,30046
Spirit-truth ,1211 Dayspring Trce,Lawrenceville,GA,30045
Questview Sda Church,1000 Laval Blvd,Lawrenceville,GA,30043
Biblical Ministries Worldwide,1595 Herrington Rd,Lawrenceville,GA,30043
Fortaleza Ministerio,1885 Beaver Ridge Cir,Norcross,GA,30071
St Edward's Episcopal Church,737 Moon Rd,Lawrenceville,GA,30046
Bridge Church Atlanta,2105 Newpoint Pl,Lawrenceville,GA,30043
North River Community Church,1725 Spectrum Dr,Lawrenceville,GA,30043
Good Sumaritan Haitian,711 Davis Rd,Lawrenceville,GA,30046
Ebenezer Romanian Bapt Chr,250 Gwinnett Dr,Lawrenceville,GA,30046
New Life Praise Center,587 Webb Gin House Rd,Lawrenceville,GA,30045
New Beginnings Baptist Church,2070 Sugarloaf Pky,Lawrenceville,GA,30045
"Kesavan, C R, MD - Kidney-hypertension Clinic",605 Old Norcross Rd,Lawrenceville,GA,30046
Church Of God State Office,962 Parkside Walk Ln,Lawrenceville,GA,30043
Simmons Chapel,245 Nash St,Lawrenceville,GA,30046
New Harvest Baptist Church,501 Crownpointe Way,Lawrenceville,GA,30046
Full Gospel Atlanta Grace Chr,940 Misty Creek Ct,Lawrenceville,GA,30043
Kingdom Destiny Ministries,259 Langley Dr,Lawrenceville,GA,30046
Freedom Christian Ministry,420 Grayson Hwy,Lawrenceville,GA,30046
Christ Temple International ,421 Pike Blvd,Lawrenceville,GA,30046
Universe Baptist,495 S Perry St,Lawrenceville,GA,30046
Tabernacle International Chr,270 Simonton Rd SW,Lawrenceville,GA,30046
Kehilat Hadavar,510 Maltbie St,Lawrenceville,GA,30046
Mount Calvary United Methodist Church,145 Neal Blvd,Lawrenceville,GA,30046
Georgia Islamic Institute,177 Simonton Rd SW,Lawrenceville,GA,30046
Christian City Church,1065 Walther Blvd,Lawrenceville,GA,30043
Tabernacle-christ Church International,161 S Perry St,Lawrenceville,GA,30046
First Century Fellowship,120 S Perry St,Lawrenceville,GA,30046
12 Stone Church,4256 Martin Rd,Flowery Branch,GA,30542
Atlanta Street Baptist Church,340 S Atlanta St,Roswell,GA,30075
Crosspointe Community Church,"77 E Crossville Rd, #Rd-203",Roswell,GA,30075
First Baptist Church-Roswell,710 Mimosa Blvd,Roswell,GA,30075
Lebanon Baptist Church,11250 Crabapple Rd,Roswell,GA,30075
North River Baptist Church,12090 Hardscrabble Rd,Roswell,GA,30075
Willeo Baptist Church Sbc,990 Willeo Rd,Roswell,GA,30075
Zion Missionary Baptist Church,PO Box 970,Roswell,GA,30077
First Christian Church-Roswell,PO Box 1807,Roswell,GA,30077
St David's Episcopal Church,1015 Old Roswell Rd,Roswell,GA,30076
Temple Beth Tikvah,9955 Coleman Rd,Roswell,GA,30075
Temple Kehillat Chaim,1145 Green St,Roswell,GA,30075
Cross of Life Lutheran Church,1000 Hembree Rd,Roswell,GA,30076
Lutheran Church of St Thomas,1765 Woodstock Rd,Roswell,GA,30075
Christ United Methodist Church,511 Russell Pky,Warner Robins,GA,31088
Roswell United Methodist Chr,"814 Mimosa Blvd, #c",Roswell,GA,30075
Fellowship Bible Church,480 W Crossville Rd,Roswell,GA,30075
World Harvest Church,PO Box 750,Ball Ground,GA,30107
Epiphany Byzantine Catholic,2030 Old Alabama Rd,Roswell,GA,30076
St Mary Coptic Orthodox Church,11450 Houze Rd,Roswell,GA,30076
Northminster Presbyterian Chr,2400 Old Alabama Rd,Roswell,GA,30076
Roswell Presbyterian Church,755 Mimosa Blvd,Roswell,GA,30075
Abundant Life Assisted Service,200 Enclave Ct,Roswell,GA,30076
Abundant Life Community Church,4206 N Arnold Mill Rd,Woodstock,GA,30188
Avondale Estates First Baptist,47 Covington Rd,Avondale Estates,GA,30002
Baker Woods Baptist Church,470 Furys Ferry Rd,Martinez,GA,30907
Martinez Baptist Church,3632 Lynnwood Dr,Martinez,GA,30907
Central Church of Christ,3650 Old Petersburg Rd,Martinez,GA,30907
Church of the Holy Comforter,1105 Furys Ln,Martinez,GA,30907
Prince of Peace Evangelical,3703 Old Petersburg Rd,Martinez,GA,30907
Stevens Creek Community Church,600 Stevens Creek Rd,Martinez,GA,30907
Vineyard Church-Augusta,3126 Parrish Rd,Martinez,GA,30907
Ball Ground Baptist Church,PO Box 328,Ball Ground,GA,30107
Baptist Student Union,450 S Lumpkin St,Athens,GA,30605
Beech Haven Baptist Church,2390 W Broad St,Athens,GA,30606
Compass Community Church,525 Calhoun Dr,Athens,GA,30601
Crooked Creek Baptist Church,6202 Jefferson River Rd,Athens,GA,30607
Edwards Chapel Baptist Church,105 Timothy Pl,Athens,GA,30606
Forest Heights Baptist Church,1155 Oglethorpe Ave,Athens,GA,30606
Hill Chapel Baptist Church,PO Box 5231,Athens,GA,30604
Milledge Avenue Baptist Church,1690 S Milledge Ave,Athens,GA,30605
Oconee Heights Baptist Church,4180 Jefferson Rd,Athens,GA,30607
Prince Avenue Baptist Church,PO Box 1112,Athens,GA,30603
West End Baptist Church,890 Boulevard,Athens,GA,30601
Campus View Church of Christ,1360 S Lumpkin St,Athens,GA,30605
St Gregory the Great,3195 Barnett Shoals Rd,Athens,GA,30605
St Stephen's Church,PO Box 5223,Athens,GA,30604
University-Georgia-Hillel,1155 S Milledge Ave,Athens,GA,30605
Holy Cross Lutheran Church,800 W Lake Dr,Athens,GA,30606
Chapelwood United Methodist,100 Janice Dr,Athens,GA,30606
Oconee Street United Methodist,717 Oconee St,Athens,GA,30605
Princeton United Methodist Chr,2390 S Lumpkin St,Athens,GA,30606
Tuckston United Methodist,4175 Lexington Rd,Athens,GA,30605
Young Harris Methodist Church,973 Prince Ave,Athens,GA,30606
Church of the Nations,8780 Macon Hwy,Athens,GA,30606
New Covenant Worship Ctr,1425 Newton Bridge Rd,Athens,GA,30607
Rhema Christian Fellowship,PO Box 80063,Athens,GA,30608
Cornerstone Christian Prschl,2150 Lexington Rd,Athens,GA,30605
Crossroads Church,2564 Sharpsburg McCullum Rd,Newnan,GA,30265
Timothy Baptist Church,380 Timothy Rd,Athens,GA,30606
Redeemer Presbyterian,165 Pulaski St,Athens,GA,30601
Islamic Center Of Athens,2022 S Milledge Ave,Athens,GA,30605
Abundance Of Love Church,110 Anna Dr,Athens,GA,30606
Baptist Tabernacle,10119 Access Rd,Covington,GA,30014
County Line Baptist Church,1814 N County Line Rd,Lithia Springs,GA,30122
East Newton Baptist Mission,11290 Highway 278 E,Covington,GA,30014
Solid Rock Baptist Church,PO Box 1144,Covington,GA,30015
Springfield Baptist Church,PO Box 276,Thomson,GA,30824
Zion Baptist Church,PO Box 520,Hampton,GA,30228
St Augustine's Catholic Church,11524 Highway 278 E,Covington,GA,30014
Gaithers United Meth Church,1375 Newton Factory Bridge Rd,Covington,GA,30014
Red Oak United Methodist,15105 Highway 36,Covington,GA,30014
Salem United Methodist Church,3962 Salem Rd,Covington,GA,30016
Church at Covington,PO Box 2539,Covington,GA,30015
Eastridge Community Church,863 Highway 142,Covington,GA,30014
Abiding Grace Lutheran Church,5510 Highway 212,Covington,GA,30016
Alcovy Methodist Church,12521 Alcovy Rd,Covington,GA,30014
Alcovy United Methodist Church,12541 Alcovy Rd,Covington,GA,30014
Alcovy Mountain Baptist Church,3100 H D Atha Rd,Covington,GA,30014
Beaver Ruin Road Baptist Chr,1200 Beaver Ruin Rd NW,Norcross,GA,30093
First Baptist Church-Norcross,706 N Peachtree St,Norcross,GA,30071
Hopewell Baptist Church,75 Ridge Rd,Canton,GA,30114
Peachtree Corners Baptist Chr,4480 Peachtree Corners Cir,Norcross,GA,30092
Mary Our Queen Church,6260 The Corners Pky,Norcross,GA,30092
Kirk of the Corners Christian,6060 Spalding Dr,Norcross,GA,30092
Campus Church of Christ,PO Box 303,Norcross,GA,30091
Church of Christ-Peachtree Cor,3700 Medlock Bridge Rd,Norcross,GA,30092
Christ Episcopal Church,1210 Wooten Lake Rd NW,Kennesaw,GA,30144
Christ the King Lutheran Chr,1125 Bettis-Tribble Gap Rd,Cumming,GA,30040
John Wesley United Methodist,5320 Jimmy Carter Blvd,Norcross,GA,30093
Norcross First United Meth Chr,2500 Beaver Ruin Rd,Norcross,GA,30071
Simpsonwood United Methodist,4500 Jones Bridge Cir,Norcross,GA,30092
God First Breakthrough Mnstry,7095 Peachtree Industrial Blvd,Norcross,GA,30092
Victory World Church,5905 Brook Hollow Pky,Norcross,GA,30071
Christ Fellowship of Atlanta,5900 Brook Hollow Pky,Norcross,GA,30071
Landmark Church,3737 Holcomb Bridge Rd,Norcross,GA,30092
Norcross Presbyterian Church,3324 Medlock Bridge Rd,Norcross,GA,30092
Peachtree Corners Presbyterian,5918 Spalding Dr,Norcross,GA,30092
Siloam Korean Church-Atlanta,1870 Willow Trail Pky,Norcross,GA,30093
Gilead Institute Of America,6000 Live Oak Pky,Norcross,GA,30093
St Mary Of Egypt Orthodox Chr,925 Beaver Ruin Rd NW,Norcross,GA,30093
Iglesia Pentecostal La Vid Verdadera,4225 Phil Niekro Pky,Norcross,GA,30093
First Baptist Church Atlanta,1038 Evangeline Way,Norcross,GA,30093
Norcross-bethesda Hispanic Sda,4275 Phil Niekro Pky,Norcross,GA,30093
Beaver Ruin Road Baptist Church,1200 Beaver Ruin Rd,Norcross,GA,30093
New Bethel Ame,8304 Dunleaf Arc Way,Norcross,GA,30093
Wicks Evangel,6304 Muirfield Run,Norcross,GA,30093
World Reach Ministries,4325 Steve Reynolds Blvd,Norcross,GA,30093
Jesus Power Assembly Of God,1480 Beaver Ruin Rd,Norcross,GA,30093
Women About God's Business,1013 Wiltshire Way,Norcross,GA,30093
Wheat Mission In Atlanta,4281 Steve Reynolds Blvd,Norcross,GA,30093
Hanmaum Presbyterian Church,4405 International Blvd,Norcross,GA,30093
Church Of Gwinnett,1770 Corporate Dr,Norcross,GA,30093
Holy Vietnamese Martyrs Mssns,4545 Shackleford Rd,Norcross,GA,30093
Kingdom Now Ministries,1805 Shackleford Ct,Norcross,GA,30093
Salvation ,5220 Singleton Rd,Norcross,GA,30093
All Nations Church,5511 Williams Rd,Norcross,GA,30093
Campus Church Children Center,1525 Indian Trail Lilburn Rd,Norcross,GA,30093
Centro Cristiano Monte Sinai,1 Clyde Orr Dr,Norcross,GA,0
Atlanta Chin Baptist Church,1290 Harbins Rd,Norcross,GA,30093
Rock Bridge Baptist Church,1012 Rockbridge Rd NW,Norcross,GA,30093
First Family Chapel,5151 Brook Hollow Pky,Norcross,GA,30071
Atlanta Emory District Of United Methodist Church,5161 Brook Hollow Pky,Norcross,GA,30071
Acts Church,5985 Oakbrook Pky,Norcross,GA,30093
Ahmadiyya Muslim Community,6113 Oakbrook Pky,Norcross,GA,30093
Belmont Baptist Church,3241 Iris Dr SE,Conyers,GA,30013
First Baptist Church-Conyers,2100 Georgia 138,Conyers,GA,30012
Grace Tabernacle,3130 Salem Rd SE,Conyers,GA,30013
Heritage Hills Baptist Church,2987 Highway 212 SW,Conyers,GA,30094
Highland Park Baptist Church,PO Box 82949,Conyers,GA,30013
Milstead Baptist Church,1613 Main St NE,Conyers,GA,30012
Northminster Baptist Church,300 W Hightower Trl,Conyers,GA,30012
Peeks Chapel Baptist Church,3185 Old Salem Rd SE,Conyers,GA,30013
Rockdale Baptist Church,1295 Smyrna Rd SW,Conyers,GA,30094
Way of the Cross Baptist Chr,646 Sigman Rd NW,Conyers,GA,30012
St Pius X Church,2621 Highway 20 SE,Conyers,GA,30013
Conyers Christian Church,4550 Highway 20 SE,Conyers,GA,30013
Conyers Church of Christ,1410 Flat Shoals Rd SE,Conyers,GA,30013
St Simon's Episcopal Church,PO Box 102,Conyers,GA,30012
Epiphany Lutheran Church,3641 McGinnis Park Dr,Suwanee,GA,30024
Conyers First United Methodist,921 N Main St NW,Conyers,GA,30012
Crossroads United Methodist,1600 Main St,Perry,GA,31069
Whites Chapel United Methodist,2020 Whites Chapel Rd SW,Conyers,GA,30094
Church in the Now,1873 Iris Dr SE,Conyers,GA,30013
East Gate Community Church,1680 Dogwood Dr SE,Conyers,GA,30013
Glenwood Hills Bible Church,3001 Old Salem Rd SE,Conyers,GA,30013
Haven Fellowship Church,2240 Smyrna Rd SW,Conyers,GA,30094
Conyers Church of God,1825 Highway 138 NE,Conyers,GA,30013
Emmanuel Church of God,1615 Old McDonough Hwy SE,Conyers,GA,30094
Faith Tabernacle,631 Ralph Rd SE,Conyers,GA,30094
Conyers Presbyterian Church,PO Box 39,Conyers,GA,30012
Grace Covenant Presbyterian,2900 Salem Rd SE,Conyers,GA,30013
Unity Church Of Rockdale,933 Commercial St NE,Conyers,GA,30012
Living Water Of Christ,1806 Grimes St NW,Conyers,GA,30012
Rockdale Church Of Christ,705 Smyrna Rd SW,Conyers,GA,30094
Abbey Store,2625 Highway 212 SW,Conyers,GA,30094
Agape Fellowship Christian Center,2113 Torbay Dr,Conyers,GA,30013
All Nations Temple Comm Chr,2111 Flat Shoals Rd SW,Conyers,GA,30094
Calvary Baptist Church-Lilburn,5255 Old US Highway 29 NW,Lilburn,GA,30047
First Baptist Church-Lilburn,285 Main St NW,Lilburn,GA,30047
Iglesia Bau Hispanic American,4109 Burns Rd NW,Lilburn,GA,30047
Lucerne Baptist Church,4805 Stone Mountain Hwy,Lilburn,GA,30047
Maranatha Baptist Church,3340 Five Forks Trickum Rd SW,Lilburn,GA,30047
White Oak Baptist Church,1352 Martin Nash Rd SW,Lilburn,GA,30047
Yellow River Baptist Tbrncl,3650 Five Forks Trickum Rd SW,Lilburn,GA,30047
Harvest Community Church,701 Cole Rd SW,Lilburn,GA,30047
Lilburn Alliance Church,PO Box 61,Lilburn,GA,30048
All Saints Lutheran Church,1801 Earl Shelton Rd,Blairsville,GA,30512
Oak Road Lutheran Church,1004 Oak Rd SW,Lilburn,GA,30047
Berkmar United Methodist Chr,675 Pleasant Hill Rd NW,Lilburn,GA,30047
Harmony Grove United Meth Chr,50 Harmony Grove Rd,Lilburn,GA,30047
Cornerstone Bible Church,869 Cole Rd SW,Lilburn,GA,30047
Lilburn Christian Church,314 Arcado Rd NW,Lilburn,GA,30047
Good Shepherd Presbyterian Chr,1400 Killian Hill Rd SW,Lilburn,GA,30047
Parkview Church,4875 Lilburn Stone Mountain Rd SW,Lilburn,GA,30047
Pilgrimage Presbyterian Church,4525 Wynne Russell Dr NW,Lilburn,GA,30047
Lilburn Church Of Christ,485 Killian Hill Rd SW,Lilburn,GA,30047
Peace Celebrations,3765 Tamer Ln SW,Lilburn,GA,30047
Gwinnett Bible Chapel,3729 Five Forks Trickum Rd SW,Lilburn,GA,30047
St John Neumann Catholic Church,801 Tom Smith Rd SW,Lilburn,GA,30047
New Mercie's Christian Church,4000 Five Forks Trickum Rd SW,Lilburn,GA,30047
Killian Hill Baptist School,151 Arcado Rd SW,Lilburn,GA,30047
Christian Science Church,1627 Hewatt Rd SW,Lilburn,GA,30047
Luxomni Baptist Church,175 Luxomni Rd NW,Lilburn,GA,30047
A Date With Destiny Ministries,465 Pleasant Hill Rd NW,Lilburn,GA,30047
Sufficient Grace Tabernacle,4296 Lawrenceville Hwy NW,Lilburn,GA,30047
Kingdom Culture Ministries,2156 PO Box,Lilburn,GA,0
Kairos Transformation Mnstrs,2116 PO Box,Lilburn,GA,0
Iglesia Evangelica,654 Beaver Ruin Rd NW,Lilburn,GA,30047
Contemporary Christian Center,1529 Rangewood Dr SW,Lilburn,GA,30047
Love Fellowship,4485 Lawrenceville Hwy NW,Lilburn,GA,30047
Afci,4574 Lawrenceville Hwy NW,Lilburn,GA,30047
Salem Baptist Chr Family Life,4700 Church St NW,Lilburn,GA,30047
Abundant Life Church For All Nations,345 Killian Hill Rd NW,Lilburn,GA,30047
Mision Catolica Nuestra Sra De Las America,4603 Lawrenceville Hwy NW,Lilburn,GA,30047
Salem Baptist Church Family Life Center,351 Killian Hill Rd NW,Lilburn,GA,30047
Jun Dung Sa Buddhist Temple,900 Beaver Ruin Rd NW,Lilburn,GA,30047
Full Gospel Seventh Day,103 Stoneview Dr SW,Lilburn,GA,30047
Lilburn Oaks Baptist Church,4513 Burns Rd NW,Lilburn,GA,30047
Everlasting Covenant Mnstrs,4986 Lawrenceville Hwy NW,Lilburn,GA,30047
New Days Church,670 Exchange Pl NW,Lilburn,GA,30047
Imani Christian Center,5238 Ashley Dr SW,Lilburn,GA,30047
Atlanta Assembly Of God Church,5174 Bowers Brook Dr SW,Lilburn,GA,30047
Mountain Park Baptist Church,5281 Enchanted Cv SW,Lilburn,GA,30047
City Harvest Worship Center,750 Indian Trail-Lilburn Rd NW,Lilburn,GA,30047
St Stephen Martyr,5373 Wydella Rd SW,Lilburn,GA,30047
Mountain East Community Church,5365 Five Forks Trickum Rd SW,Lilburn,GA,30047
Usdirectory.Com,5404 Five Forks Trickum Rd SW,Lilburn,GA,30047
All About Worship,5411 E Wind Dr SW,Lilburn,GA,30047
Calvary Baptist Church-lilburn,5255 Us-29 NW,Lilburn,GA,30047
Calvary Baptist Church Of Lilburn,5255 Lawrenceville Hwy NW,Lilburn,GA,30047
Praise In Motion,5334 Lawrenceville Hwy NW,Lilburn,GA,30047
All Things New Ministry,5555 Grove Place Xing SW,Lilburn,GA,30047
Ken Mcnatt World Outreach,206 Northwind Ct SW,Lilburn,GA,30047
First Spanish Assembly Of God,795 Dickens Rd NW,Lilburn,GA,30047
Romanian Orthodox Church,664 Dickens Rd NW,Lilburn,GA,30047
New Mercie's Worship ,591 Rockbridge Rd NW,Lilburn,GA,30047
Coal Mountain Baptist Church,6420 Corn Dr,Cumming,GA,30028
Concord Baptist Church,6905 Concord Rd,Cumming,GA,30028
Cumming Baptist Church,115 Church St,Cumming,GA,30040
First Redeemer Church,2135 Old Alpharetta Rd,Cumming,GA,30041
Harmony Grove Baptist Church,5470 Keith Bridge Rd,Cumming,GA,30041
Haw Creek Baptist Church,1098 Haw Creek Cir,Cumming,GA,30041
Lakeland Baptist Church,2110 Sharon Rd,Cumming,GA,30041
Mt Tabor Baptist Church,6343 Elmo Rd,Cumming,GA,30028
North Lanier Baptist Church,829 Atlanta Rd,Cumming,GA,30040
Roanoke Baptist Church,2890 Hitt Rd,Cumming,GA,30041
Settendown Baptist Church,3995 Spot Rd,Cumming,GA,30040
Grace Chapel Church of Christ,1390 Weber Industrial Dr,Cumming,GA,30041
Southside Christian Church,PO Box 10,Cumming,GA,30028
Episcopal Church of the Holy,PO Box 1010,Cumming,GA,30028
Bethelview United Methodist,4525 Bethelview Rd,Cumming,GA,30040
Creekside United Methodist,673 Peachtree Pky,Cumming,GA,30041
Cumming United Methodist Chr,PO Box 606,Cumming,GA,30028
Lanier United Methodist Church,1979 Buford Hwy,Cumming,GA,30041
Cumming New Life Church,PO Box 1654,Cumming,GA,30028
Trinity Worship Ctr Church-God,PO Box 69,Cumming,GA,30028
Chalcedon Presbyterian Church,302 Pilgrim Mill Rd,Cumming,GA,30040
Deer Creek Shores Presbyterian,7620 Lanier Dr,Cumming,GA,30041
Parkway Presbyterian Church,5830 Bethelview Rd,Cumming,GA,30040
1St United Pentecostal Church,203 E Main St,Cumming,GA,30040
Abundant Life Church Cumming,1205 Samples Industrial Dr,Cumming,GA,30041
Bouldercrest Baptist Church,3200 Bouldercrest Rd,Ellenwood,GA,30294
First Baptist Church-Ellenwood,1234 Panola Rd,Ellenwood,GA,30294
Poplar Spring Baptist Church,3796 River Rd,Ellenwood,GA,30294
Tanner's Baptist Church,PO Box 93,Ellenwood,GA,30294
County Line United Methodist,1183 County Line Rd NW,Acworth,GA,30101
Bethabra Baptist Church,1054 Old Thompson Mill Rd,Winder,GA,30680
East Side Baptist Church,4010 Highway 138 SW,Stockbridge,GA,30281
St Matthew's Catholic Church,25 Wilkins Rd,Winder,GA,30680
Chapel Christian Church,776 Chapel Church Rd,Winder,GA,30680
Midway Christian Church,1406 Hog Mountain Rd,Winder,GA,30680
Whistleville Christian Church,83 Patrick Mill Rd,Winder,GA,30680
Hebron Christian Church,2461 Hebron Church Rd,Winder,GA,30680
Church at Winder,PO Box 1258,Winder,GA,30680
Emmanuel Worship Ctr,PO Box 207,Winder,GA,30680
Eagles Landing First Baptist,2400 Highway 42 N,McDonough,GA,30253
First Baptist Church-Mcdngh,101 Macon St,McDonough,GA,30253
Glen Haven Baptist Church,345 E Lake Rd,McDonough,GA,30252
Henry Baptist Church,4035 Jodeco Rd,McDonough,GA,30253
Kelley Chapel Baptist Church,3351 Airline Rd,McDonough,GA,30252
Mc Donough Baptist Tabernacle,425 Lake Dow Rd,McDonough,GA,30252
Shiloh Baptist Church Ed Ctr,253 Macon St,McDonough,GA,30253
Southern Crescent Baptist Chr,334 Lake Dow Rd,McDonough,GA,30252
Union Grove Baptist Church,6517 Union Grove Rd,Lithia Springs,GA,30122
Mc Donough Christian Church,2000 Jonesboro Rd,McDonough,GA,30253
St Joseph's Episcopal Church,1865 Highway 20 E,McDonough,GA,30252
Saint Luke Lutheran Chr,1123 McDonough Pl,McDonough,GA,30253
Mc Donough United Methodist,151 Macon St,McDonough,GA,30253
Southside Christian Fellowship,PO Box 971,McDonough,GA,30253
New Covenant Church of God,PO Box 3476,McDonough,GA,30253
Mc Donough Presbyterian Church,PO Box 652,McDonough,GA,30253
Cathedral Of Praise Worship,60 Lincoln Rd,McDonough,GA,30253
Acts Church Of Henry County,1181 Highway 42 N,McDonough,GA,30253
Clear Springs Baptist Church,PO Box 2363,Alpharetta,GA,30023
Crabapple First Baptist Church,12760 Birmingham Hwy,Alpharetta,GA,30004
Johns Creek Baptist Church,7500 McGinnis Ferry Rd,Alpharetta,GA,30005
Union Hill Baptist Church,PO Box 921,Alpharetta,GA,30009
St Brigid Catholic Church,3400 Old Alabama Rd,Alpharetta,GA,30022
St Thomas Aquinas Catholic Chr,535 Rucker Rd,Alpharetta,GA,30004
St Aidan's Episcopal Church,13560 Cogburn Rd,Alpharetta,GA,30004
Christ the Shepherd Lutheran,4655 Webb Bridge Rd,Alpharetta,GA,30005
Messiah Lutheran Church,4765 Kimball Bridge Rd,Alpharetta,GA,30005
Midway Church,5025 Ga-9 N,Alpharetta,GA,30004
Mt Pisgah United Methodist Chr,9820 Nesbit Ferry Rd,Alpharetta,GA,30022
St James United Meth Chr,PO Box 951,Alpharetta,GA,30009
Life Point Christian Church,5000 McGinnis Ferry Rd,Alpharetta,GA,30005
North Point Community Church,4350 N Point Pky,Alpharetta,GA,30022
Roswell Church of God,410 Rucker Rd,Alpharetta,GA,30004
Alpharetta Presbyterian Church,180 Academy St,Alpharetta,GA,30009
Alpharetta Church Of God,1460 Mid Broadwell Rd,Alpharetta,GA,30004
Baha'i Center Of Alpharetta,10690 Jones Bridge Rd,Alpharetta,GA,30022
First Baptist Church-Richmond,PO Box 1390,Richmond Hill,GA,31324
St Anne's Catholic Church,PO Box 648,Richmond Hill,GA,31324
Richmond Hill United Meth Chr,PO Box 1480,Richmond Hill,GA,31324
Richmond Hill Presbyterian Chr,PO Box 1419,Richmond Hill,GA,31324
Harlem Baptist Church,PO Box 790,Harlem,GA,30814
Old Union Baptist Church,PO Box 1270,Harlem,GA,30814
Powell Baptist Church,1577 Old Appling Harlem Hwy,Harlem,GA,30814
United Methodist Church,PO Box 39,Harlem,GA,30814
Bible Baptist Temple,2601 Watson Blvd,Warner Robins,GA,31093
Fellowship Bible Baptist Chr,431 Dunbar Rd,Warner Robins,GA,31093
First Baptist Church-Garmon St,210 Garmon St,Warner Robins,GA,31088
Oakland Baptist Church,1509 Russell Pky,Warner Robins,GA,31088
Sandy Valley Baptist Church,1124 S Houston Lake Rd,Warner Robins,GA,31088
Shirley Hills Baptist Church,615 Corder Rd,Warner Robins,GA,31088
Sacred Heart Catholic Church,PO Box 5052,Warner Robins,GA,31099
Faith Evangelical Lutheran Chr,301 N Pleasant Hill Rd,Warner Robins,GA,31093
Mt Calvary Lutheran Church,336 Carl Vinson Pky,Warner Robins,GA,31088
Northview United Methodist Chr,90 Tabor Dr,Warner Robins,GA,31093
Warner Robins Cme Church,200 Othal H Lakey Cir,Warner Robins,GA,31088
Church of Jesus Christ-Lds,"207 Mimosa Dr, #b",Warner Robins,GA,31093
End Time Harvest Church,PO Box 2264,Warner Robins,GA,31099
Church of God-Southside,PO Box 7137,Warner Robins,GA,31095
International City Church-God,2520 Moody Rd,Warner Robins,GA,31088
International Bread Of Life,105 Dunbar Rd,Warner Robins,GA,31093
Westside Church Of Christ,158 Willow Ave,Warner Robins,GA,31093
A New Beginning Church Of God,425 S Houston Rd,Warner Robins,GA,31088
Adams-smith Tabernacle Ame,304 Green St,Warner Robins,GA,31093
Agape Outreach Ministries,295 N Davis Dr,Warner Robins,GA,31093
First Baptist Chr Locust Grove,10 Cleveland St,Locust Grove,GA,30248
Campbellton Baptist Church,8660 Campbellton Fairburn Rd,Fairburn,GA,30213
Fairburn United Methodist Chr,5 Washington St,Fairburn,GA,30213
Atlanta City Church,3355 Old Jonesboro Rd,Fairburn,GA,30213
Temple of Prayer,PO Box 116,Fairburn,GA,30213
Free Spirit Ministries Worship,7880 Woods Rd,Fairburn,GA,30213
Bible Baptist Church,1608 Highway 29 N,Newnan,GA,30263
First Baptist Church-Hampton,85 McDonough St,Hampton,GA,30228
Hampton United Methodist Chr,10 W Main St,Hampton,GA,30228
Berea Christian Church,PO Box 746,Hampton,GA,30228
East Newnan Baptist Church,577 E Gordon Rd,Newnan,GA,30263
Heatherwood Baptist Church,2195 Georgia 138,Riverdale,GA,30296
Mills Chapel Baptist Church,4 Herring Rd,Newnan,GA,30265
New Lebanon Baptist Church,157 Dyer Rd,Newnan,GA,30263
Oakgrove Baptist Church,379 Westside School Rd,Newnan,GA,30263
Royal Baptist Church,70 Mayo Royal Industrial Blvd,Newnan,GA,30263
Sonrise Baptist Church,6 Shenandoah Blvd,Newnan,GA,30265
South Crest Baptist Church,2826 Highway 154,Newnan,GA,30265
Unity Baptist Church,479 Ga Highway 96,Bonaire,GA,31005
St George Catholic Church,771 Roscoe Rd,Newnan,GA,30263
Newnan Church of Christ,2675 Highway 34 E,Newnan,GA,30265
Resurrection Lutheran Church,1250 Lora Smith Rd,Newnan,GA,30265
Cornerstone United Methodist,2956 Sharpsburg McCullum Rd,Newnan,GA,30265
Emmanuel Outreach Ministries,102 E Freeman St,Newnan,GA,30263
Newnan Presbyterian Church,PO Box 1107,Newnan,GA,30264
7Th Day Adventist Of Peachtree City,150 Main St,Sharpsburg,GA,30277
A Place Of Refuge,407 S Bethel St,Thomaston,GA,30286
Abundant Life Faith Center,10 Forest Rd,Newnan,GA,30265
All Souls Church-god In Christ,688 Highway 29 N,Newnan,GA,30263
Big Miller Grove Bapt Church,3800 Big Miller Grove Way,Lithonia,GA,30038
First Baptist Church-Lithonia,PO Box 378,Lithonia,GA,30058
New Birth Missionary Baptist,PO Box 1019,Lithonia,GA,30058
Union Missionary Baptist Chr,PO Box 417,Lithonia,GA,30058
Christ Our Hope Catholic Chr,1786 Wellborn Rd,Lithonia,GA,30058
Lithonia First United Meth Chr,PO Box 6,Lithonia,GA,30058
New Bethel Ame Church,8350 Rockbridge Rd,Lithonia,GA,30058
Ousley United Methodist Church,3261 Panola Rd,Lithonia,GA,30038
St Paul Ame,1704 Stone Mountain Lithonia Rd,Lithonia,GA,30058
Abundant Life Church,1541 Ga Highway 21 S,Springfield,GA,31329
Canaan Land Christian Ctr,1450 S Deshon Rd,Lithonia,GA,30058
Word of Deliverance Outreach,2524 Hollingsworth St,Lithonia,GA,30058
Anointed Word Evangelistic,2418 Panola Rd,Lithonia,GA,30058
Celebration Church Assembly,PO Box 839,Lithonia,GA,30058
First African Presbyterian Chr,5197 Salem Rd,Lithonia,GA,30038
Bishop Baptist Church,PO Box 9,Bishop,GA,30621
Blythe Baptist Church,PO Box 300,Blythe,GA,30805
Hephzibah Church of God,2228 Ga Highway 88,Blythe,GA,30805
Bogart First Baptist Church,PO Box 400,Bogart,GA,30622
Bogart Church Of Christ,193 N Church St,Bogart,GA,30622
Bonnybridge Baptist Church,811 Bonnybridge Rd,Port Wentworth,GA,31407
Mount Moriah Baptist Church,1983 Brockett Rd,Tucker,GA,30084
North Salem Baptist Church,955 GA-30,Port Wentworth,GA,31407
Port Wentworth First Baptist,PO Box 4066,Port Wentworth,GA,31407
Port Wentworth Methodist Chr,201 Turnberry St,Port Wentworth,GA,31407
Bowdon Baptist Church,PO Box 250,Bowdon,GA,30108
Community Church,1421 E Highway 166,Bowdon,GA,30108
Boynton Baptist Church,4093 Boynton Dr,Ringgold,GA,30736
Briarwood Baptist Church,PO Box 122,Watkinsville,GA,30677
Burning Bush Baptist Church,2195 Burning Bush Rd,Ringgold,GA,30736
Cedar Hill Baptist Church,60 Dyer Bridge Pl,Ringgold,GA,30736
First Baptist Church-Ringgold,7611 Nashville St,Ringgold,GA,30736
Hickory Grove Baptist Church,5010 Houston Valley Rd,Ringgold,GA,30736
Mt Pisgah Baptist Church,851 South Gordon Rd SW,Austell,GA,30168
New Heights Baptist Church,158 Ooltewah Ringgold Rd,Ringgold,GA,30736
New Liberty Baptist Church,923 Graysville Rd,Ringgold,GA,30736
Pine Grove Baptist Church,2800 Pine Grove Dr,Powder Springs,GA,30127
Poplar Springs Baptist Church,184 Hiram Douglasville Hwy,Hiram,GA,30141
Boynton United Methodist Chr,4246 Boynton Dr,Ringgold,GA,30736
Ringgold United Methodist Chr,PO Box 99,Ringgold,GA,30736
Woodstation United Methodist,13198 Alabama Hwy,Ringgold,GA,30736
Ringgold Church Of Christ,7099 Nashville St,Ringgold,GA,30736
Braelinn Baptist Church,777 Robinson Rd,Peachtree City,GA,30269
Line Creek Baptist Church,PO Box 2472,Peachtree City,GA,30269
Holy Trinity Catholic Church,101 Walt Banks Rd,Peachtree City,GA,30269
Peachtree City Church-Christ,201 S Peachtree Pky,Peachtree City,GA,30269
St Andrew's Episcopal Church,PO Box 2443,Peachtree City,GA,30269
Christ Our Shepherd Lutheran,PO Box 2189,Peachtree City,GA,30269
Peachtree City United Meth Chr,400 Windgate Rd,Peachtree City,GA,30269
Peachtree City Christian Chr,500 Kedron Dr,Peachtree City,GA,30269
Carriage Lane Presbyterian Chr,101 Carriage Ln,Peachtree City,GA,30269
All Saints Anglican Church,102 Turner Chapel Rd SE,Rome,GA,30161
Flat Rock Baptist Church,961 Flat Rock Rd,Villa Rica,GA,30180
Mars-Hill Baptist Church,2661 Mars Hill Rd,Watkinsville,GA,30677
Antioch Christian Church,3595 Sugar Pike Rd,Canton,GA,30115
Watkinsville First Chrstn Chr,PO Box 287,Watkinsville,GA,30677
Ashford Memorial Methodist Chr,PO Box 344,Watkinsville,GA,30677
Watkinsville First Methodist,PO Box 87,Watkinsville,GA,30677
Grace Fellowship Church of God,PO Box 1062,Watkinsville,GA,30677
New Life Apostolic,2050 Hog Mountain Rd,Watkinsville,GA,30677
Faith Presbyterian Church,2191 Mars Hill Rd,Watkinsville,GA,30677
Oconee Presbyterian Church,PO Box 1377,Watkinsville,GA,30677
Athens Church Of Christ,3720 Mars Hill Rd,Watkinsville,GA,30677
Byron Baptist Church,PO Box 130,Byron,GA,31008
Byron United Methodist Church,PO Box 6,Byron,GA,31008
New Life Worship Ctr,120 Walker Rd,Byron,GA,31008
Bread Of Life Worship Center,302 Athens Rd,Winterville,GA,30683
Byron Church Of Christ,932 Ga Highway 42,Byron,GA,31008
Davis Chapel Baptist Church,5717 S Gordon Rd SW,Austell,GA,30168
Ewing Road Baptist Church,4699 Ewing Rd,Austell,GA,30106
First Baptist Church-Austell,5991 Love St,Austell,GA,30168
Floyd Road Baptist Church,3996 Floyd Rd,Austell,GA,30106
Orange Hill Baptist Church,4293 Austell Rd,Austell,GA,30106
Lutheran Church of Nativity,2450 Clay Rd,Austell,GA,30106
Austell First United Methodist,5705 Mulberry St,Austell,GA,30106
Milford Church of God,3950 Hicks Rd,Austell,GA,30106
Tabernacle Church Of God,6098 Causey Chapel Rd,Austell,GA,30106
,2505 Veterans Memorial Hwy,Austell,GA,30168
Agan Mark Rev,1273 Dillon Rd,Austell,GA,30168
First Baptist Church of Morrow,1647 Lake Harbin Rd,Morrow,GA,30260
Pinecrest Baptist Church,6021 Maddox Rd,Morrow,GA,30260
Rock Springs Baptist Church,PO Box 367,Morrow,GA,30260
Travelers Rest Baptist Church,2112 Rex Rd,Morrow,GA,30260
St Augustine'S-Canterbury,PO Box 169,Morrow,GA,30260
Jones Memorial United Meth Chr,5320 Phillips Dr,Morrow,GA,30260
Morrow First United Methodist,PO Box 143,Morrow,GA,30260
New Birth South,PO Box 870307,Morrow,GA,30287
Morrow Presbyterian Church,PO Box 316,Morrow,GA,30260
Faith Church Of God,2030 3rd Ave,Morrow,GA,30260
Calvary Baptist Church-Acworth,PO Box 355,Acworth,GA,30101
First Baptist Church-Acworth,4583 Church St,Acworth,GA,30101
Mount Olivet Baptist Church,2385 Acworth Due West Rd NW,Acworth,GA,30101
Northwest Baptist Church,3575 Acworth Due West Rd NW,Acworth,GA,30101
Summit Baptist Church,4310 Moon Station Ln NW,Acworth,GA,30101
Wildwood Baptist Church,950 County Line Church Rd,Griffin,GA,30223
St Teresa Episcopal Church,5725 Fords Rd NW,Acworth,GA,30101
Acworth United Methodist Chr,4340 Collins Cir,Acworth,GA,30101
Christ the King Church,6464 Highway 92,Acworth,GA,30102
Heritage Presbyterian Church,PO Box 2345,Acworth,GA,30102
Mars Hill Presbyterian Church,3385 Mars Hill Rd NW,Acworth,GA,30101
Acworth Church Of God-prophecy,3891 Nance Rd NW,Acworth,GA,30101
Acworth Christian Church,4476 Northside Dr,Acworth,GA,30101
Acworth Presbyterian Church,4561 Church St,Acworth,GA,30101
Calvary Grove Baptist Church,3167 Zion St,Scottdale,GA,30079
Church of God,319 Aldridge Ave,Scottdale,GA,30079
Carver Rd Baptist Church,334 Carver Rd,Griffin,GA,30224
Dayspring Community Church,1820 S 6th Street Ext,Griffin,GA,30224
Eighth Street Baptist Church,PO Box 950,Griffin,GA,30224
Hammond Drive Baptist Church,475 Hammond Dr,Griffin,GA,30224
Highland Baptist Church,100 E McIntosh Rd,Griffin,GA,30223
New Salem Baptist Church,836 New Salem Rd NW,Kennesaw,GA,30152
Rehoboth Baptist Church,2997 Lawrenceville Hwy,Tucker,GA,30084
Rising Star Baptist Church,132 W Cherry St,Griffin,GA,30223
Teamon Baptist Church,2567 Teamon Rd,Griffin,GA,30223
Vineyard Baptist Church,126 Vineyard Rd,Griffin,GA,30223
St George's Episcopal Church,132 N 10th St,Griffin,GA,30223
St John Lutheran Church,1689 Us 41 Byp S,Griffin,GA,30224
Hanleiter United Methodist Chr,PO Box 474,Griffin,GA,30224
St Phillips Ame Church,837 N Hill St,Griffin,GA,30223
Church On Fire,2921 N Expressway,Griffin,GA,30223
Eagles Way Church,100 Hudson Rd,Griffin,GA,30224
Gospel Tabernacle South,PO Box 942,Griffin,GA,30224
First Assembly of God Day Care,2000 W McIntosh Rd,Griffin,GA,30223
Living Waters Congregational,2290 Fayetteville Rd,Griffin,GA,30223
Cornerstone Assembly Of God,1630 Zebulon Rd,Griffin,GA,30224
Achaia Baptist Church,336 E Solomon St,Griffin,GA,30223
Agape Restoration Family Center,1315 Meriwether St,Griffin,GA,30224
Center Grove Baptist Church,68 Center Grove Church Rd,Rock Spring,GA,30739
Peavine Baptist Church,PO Box 40,Rock Spring,GA,30739
First Baptist Church-Lgnvl,680 Tom Brewer Rd,Loganville,GA,30052
New Testament Baptist Church,PO Box 897,Loganville,GA,30052
Summit Baptist,3080 Highway 81,Loganville,GA,30052
Corinth Christian Church,1635 Highway 81,Loganville,GA,30052
Grace Pointe Nazarene Church,2900 Rosebud Rd,Loganville,GA,30052
Loganville Methodist Church,221 Main St,Loganville,GA,30052
Walnut Grove United Methodist,915 Church Way,Loganville,GA,30052
Bethany Christian Ctr,781 Athens Hwy,Loganville,GA,30052
Loganville Church Of God,168 Church St,Loganville,GA,30052
Center Point Baptist Church,118 Center Point Rd,La Fayette,GA,30728
Ridgeway Baptist Church,1594 Ridgeway Rd,La Fayette,GA,30728
Woodstation Baptist Church,42 Round Pond Rd,La Fayette,GA,30728
First Church Of God,501 S Russ St,Bainbridge,GA,39819
Chamlee Memorial Baptist Chr,1502 Knoxville St,Fort Valley,GA,31030
Fort Valley United Methodist,PO Box 1258,Fort Valley,GA,31030
Usher's Temple Cme Church,PO Box 893,Fort Valley,GA,31030
Temple Of Miracle Worship Center,2758 Us Highway 41 S,Perry,GA,31069
Allen Chapel Ame Church,132 Bumphead Rd,Americus,GA,31719
Chapel By the Sea Baptist Chr,PO Box 235,Tybee Island,GA,31328
St Michael's Catholic Church,PO Box 38,Tybee Island,GA,31328
Cherokee Baptist Church,7770 Hickory Flat Hwy,Woodstock,GA,30188
First Baptist Woodstock,777 Neese Rd,Woodstock,GA,30188
Stonecrest Baptist Church,485 Arnold Mill Rd,Woodstock,GA,30188
St Michael the Archangel,490 Arnold Mill Rd,Woodstock,GA,30188
Woodstock Christian Church,7700 Highway 92,Woodstock,GA,30189
Good Shepherd Lutheran Church,1208 Rose Creek Dr,Woodstock,GA,30189
Allen Temple Ame,205 Arnold Mill Rd,Woodstock,GA,30188
Bascomb United Methodist Chr,2299 Bascomb Carmel Rd,Woodstock,GA,30189
Hillside United Methodist Chr,4474 Towne Lake Pky,Woodstock,GA,30189
Little River United Methodist,12455 Highway 92,Woodstock,GA,30188
Woodstock United Methodist Chr,109 Towne Lake Pky,Woodstock,GA,30188
Calvary Chapel Northwest,PO Box 1936,Woodstock,GA,30188
Woodstock Community Church,8534 Main St,Woodstock,GA,30188
Cherokee Presbyterian Church,155 Hames Rd,Woodstock,GA,30188
Sunnyside Church Of God,2510 E Cherokee Dr,Woodstock,GA,30188
Christian Family Fellowship,340 Community Rd,Mableton,GA,30126
First Baptist Church-Mableton,5385 Church St SW,Mableton,GA,30126
Glen Forest Baptist Church,1337 Old Alabama Rd SW,Mableton,GA,30126
Mt Harmony Baptist Church,561 Veterans Memorial Hwy SE,Mableton,GA,30126
Pebblebrook Baptist Church,5499 Burdette Rd SE,Mableton,GA,30126
South Cobb Church of Christ,PO Box 3,Mableton,GA,30126
Leland United Methodist Chr,81 Veterans Memorial Hwy SW,Mableton,GA,30126
I AM Faith Christian Mnstrs,PO Box 672,Mableton,GA,30126
Visions for Souls Church,6519 Factory Shoals Rd SW,Mableton,GA,30126
Church of Pentecost,6140 Queen Mill Rd SE,Mableton,GA,30126
Lifeline International Mnstrs,PO Box 2092,Mableton,GA,30126
Mableton Assembly Of God,6601 Mableton Pky SW,Mableton,GA,30126
Christians for Change Baptist,2110 Bethsaida Rd,Riverdale,GA,30296
Emmanuel Baptist Church,2980 Us Highway 27,Cataula,GA,31804
First Baptist Church-Riverdale,6805 Church St,Riverdale,GA,30274
Pinetree Park Baptist Church,2855 Bethsaida Rd,Riverdale,GA,30296
Pointe South Community Church,8049 Webb Rd,Riverdale,GA,30274
Riverdale Second Baptist Chr,492 Roy Huie Rd,Riverdale,GA,30274
Valley Hill Baptist Church,351 Valley Hill Rd SE,Riverdale,GA,30274
Timberlake Church-the Nazarene,PO Box 741270,Riverdale,GA,30274
Christ Our Hope Lutheran Chr,2165 Georgia 138,Riverdale,GA,30296
Upper Room Church,6538 Church St,Riverdale,GA,30274
Harvesttime Apostolic Ministry,5898 Highway 85,Riverdale,GA,30274
Living Waters Assembly of God,PO Box 961194,Riverdale,GA,30296
Riverdale Church of God,345 Scott Rd,Riverdale,GA,30296
Hindu Temple Of Atlanta,5851 Highway 85,Riverdale,GA,30274
Church Mac Land Baptist,3732 MacLand Rd,Powder Springs,GA,30127
West Cobb Baptist Church,1235 Friendship Church Rd,Powder Springs,GA,30127
Youth Baptist Church,4967 Brownsville Rd,Powder Springs,GA,30127
Mc Eachern Methodist Church,4075 MacLand Rd,Powder Springs,GA,30127
Powder Springs First Mthdst,4294 Atlanta St,Powder Springs,GA,30127
Praise Tabernacle,PO Box 13,Powder Springs,GA,30127
Powder Springs Church of God,PO Box 389,Powder Springs,GA,30127
Spirit Life Church of God,PO Box 762,Powder Springs,GA,30127
Trinity Chapel Church of God,4665 MacLand Rd,Powder Springs,GA,30127
Mac Land Presbyterian Church,3615 MacLand Rd,Powder Springs,GA,30127
Midway Presbyterian Church,4635 Dallas Hwy,Powder Springs,GA,30127
Riverside Church Of God,3470 Florence Rd,Powder Springs,GA,30127
1723 Initiative,345 Wimberly Way,Powder Springs,GA,30127
Clarkston Baptist Church,3895 Church St,Clarkston,GA,30021
Clarkston First Baptist Church,3999 Church St,Clarkston,GA,30021
Clarkston United Methodist Chr,3919 Church St,Clarkston,GA,30021
Cloud Springs Baptist Church,210 Cloud Springs Rd,Fort Oglethorpe,GA,30741
New Life Church,PO Box 1973,Fort Oglethorpe,GA,30742
Parkway Baptist Temple,65 Stuart Rd,Fort Oglethorpe,GA,30742
Battlefield Parkway Church,3220 Battlefield Pky,Fort Oglethorpe,GA,30736
Fort Oglethorpe United Meth,PO Box 2366,Fort Oglethorpe,GA,30742
Colbert Baptist Church,PO Box 237,Colbert,GA,30628
Moons Grove Baptist Church,2304 Moons Grove Church Rd,Colbert,GA,30628
Collard Valley Baptist Church,87 Youngs Mill Rd,Kingston,GA,30145
Colonial Hills Baptist Church,7131 Mt Vernon Rd,Lithia Springs,GA,30122
Lithia Heights Baptist Church,7167 S Sweetwater Rd,Lithia Springs,GA,30122
Lithia Springs First Baptist,3566 Veterans Memorial Hwy,Lithia Springs,GA,30122
St John Vianney Catholic Chr,1920 Skyview Dr,Lithia Springs,GA,30122
Lithia Springs United Meth,PO Box 627,Lithia Springs,GA,30122
Victory Family Life Church,PO Box 1106,Lithia Springs,GA,30122
Atlanta West Pentecostal Chr,PO Box 899,Lithia Springs,GA,30122
Lithia Springs Church of God,PO Box 416,Lithia Springs,GA,30122
Comer First Baptist Church,PO Box 208,Comer,GA,30629
Vineyard Creek Baptist Church,PO Box 183,Comer,GA,30629
Compass Centre,PO Box 2349,Kennesaw,GA,30156
First Baptist Church-Kennesaw,2958 N Main St NW,Kennesaw,GA,30144
Shiloh Hills Baptist Church,75 Hawkins Store Rd NE,Kennesaw,GA,30144
Western Hills Baptist Church,700 Mars Hill Rd NW,Kennesaw,GA,30152
East Marietta Christian Church,6997 Keene St NW,Kennesaw,GA,30144
Northwest Christian Church,2920 Moon Station Rd NW,Kennesaw,GA,30144
Church of Christ North Cobb,PO Box 2966,Kennesaw,GA,30156
First United Lutheran Church,3481 Frey Lake Rd NW,Kennesaw,GA,30144
Living Hope Lutheran Church,3450 Stilesboro Rd NW,Kennesaw,GA,30152
Kennesaw United Methodist Chr,1801 Ben King Rd NW,Kennesaw,GA,30144
Mt Zion Ame,4163 Wade Green Rd NW,Kennesaw,GA,30144
Crossway Church,3446 Bells Ferry Rd NW,Kennesaw,GA,30144
Cobb Vineyard Fellowship,3206 Old 41 Hwy NW,Kennesaw,GA,30144
Kirkwood Presbyterian Church,618 Acworth Due West Rd NW,Kennesaw,GA,30152
Alfa Insurance Co,1050 Shiloh Rd NW,Kennesaw,GA,30144
Connally Drive Baptist,2090 Connally Dr,East Point,GA,30344
Jefferson Avenue Baptist Chr,1150 Jefferson Ave,East Point,GA,30344
Neriah Baptist Church,PO Box 90459,East Point,GA,30364
New Jerusalem Missionary Bapt,1385 Gus Thornhill Jr Dr,East Point,GA,30344
Siloam Baptist Church,1332 Holcomb Ave,East Point,GA,30344
East Point First-Mallalieu,2651 Church St,East Point,GA,30344
Headland Heights United Meth,2147 Dodson Dr,East Point,GA,30344
Southwest Christian Church,4330 Washington Rd,East Point,GA,30344
East Point Church of God,1857 Connally Dr,East Point,GA,30344
New Horizons Chr-God in Christ,2822 Randall St,East Point,GA,30344
East Point Presbyterian Church,2810 Church St,East Point,GA,30344
Women's Institute Of Ministry,3168 Washington Rd,East Point,GA,30344
Social Circle United Meth Chr,PO Box 296,Social Circle,GA,30025
Damascus Baptist Church,6375 Ridge Rd,Appling,GA,30802
Kiokee Baptist Church,PO Box 430,Appling,GA,30802
Dearing Baptist Church,PO Box 279,Dearing,GA,30808
Fort Creek Baptist Church,1497 Fort Creek Rd,Dearing,GA,30808
Devotie Baptist Church,PO Box 787,Experiment,GA,30212
Draketown Baptist Church,100 Eaves Dr,Temple,GA,30179
First Baptist Church of Temple,PO Box 309,Temple,GA,30179
East Hiram Baptist Church,PO Box 9,Hiram,GA,30141
Paulding Baptist Church,4457 Atlanta Hwy,Hiram,GA,30141
First Church Hiram-United Meth,PO Box 97,Hiram,GA,30141
Hiram Church Of Christ,7660 Nebo Rd,Hiram,GA,30141
Jodeco Baptist Church,PO Box 430,Stockbridge,GA,30281
Metro Heights Baptist Church,2178 Highway 138 E,Stockbridge,GA,30281
North Henry Baptist Church,1093 Flat Rock Rd,Stockbridge,GA,30281
Spivey Community Church,3887 Walt Stephens Rd,Stockbridge,GA,30281
Calvary Christian Church,2200 Fairview Rd,Stockbridge,GA,30281
Stockbridge United Methodist,PO Box 86,Stockbridge,GA,30281
Union United Methodist Church,4600 Highway 138 SW,Stockbridge,GA,30281
Community Bible Church,2001 Jodeco Rd,Stockbridge,GA,30281
Living Word Worship Ctr,PO Box 248,Stockbridge,GA,30281
Stockbridge Assembly of God,PO Box 655,Stockbridge,GA,30281
Stockbridge Community Chr-God,PO Box 1457,Stockbridge,GA,30281
Stockbridge Presbyterian Chr,4740 N Henry Blvd,Stockbridge,GA,30281
Stockbridge Assembly Of God,3910 N Henry Blvd,Stockbridge,GA,30281
All Nations Life ,3060 Highway 155 SW,Stockbridge,GA,30281
First Baptist Church-Dacula,PO Box 297,Dacula,GA,30019
Hamilton Mill Community Church,2155 Pine Rd,Dacula,GA,30019
Hebron Baptist Church,PO Box 279,Dacula,GA,30019
Hog Mountain Baptist Church,1971 Hog Mountain Church Rd,Dacula,GA,30019
Little Scholars Academy,258 Rabbit Hill Rd,Dacula,GA,30019
Trenton United Methodist,PO Box 6,Trenton,GA,30752
Trenton Church Of Christ,151 Bond St,Trenton,GA,30752
Effingham Baptist Church,PO Box 825,Rincon,GA,31326
Ephesus Primitive Baptist Chr,PO Box 436,Rincon,GA,31326
First Baptist Church of Rincon,201 E 6th St,Rincon,GA,31326
Rincon Baptist Temple,PO Box 253,Rincon,GA,31326
Jerusalem Lutheran Church,2966 Ebenezer Rd,Rincon,GA,31326
St John's Lutheran Church,PO Box 270,Rincon,GA,31326
Rincon United Methodist Church,107 Savannah Ave,Rincon,GA,31326
Rincon Church of God,PO Box 273,Rincon,GA,31326
Rincon Church Of God,3430 Ga Highway 21 S,Rincon,GA,31326
Abercorn Baptist Church,500 Old Augusta Rd S,Rincon,GA,31326
Elam Baptist Church,PO Box 816,Gray,GA,31032
First Baptist Church of Gray,PO Box 429,Gray,GA,31032
New Damascus Baptist Church,PO Box 1132,Gray,GA,31032
Gray United Methodist Church,PO Box 416,Gray,GA,31032
Elam Egypt Baptist Church,2166 Egypt Ardmore Rd,Guyton,GA,31312
Pine St Baptist Church,PO Box 125,Guyton,GA,31312
Sand Hill Baptist Church,1931 Sand Hill Rd,Guyton,GA,31312
Southern Effingham Community,289 Harley Rd,Guyton,GA,31312
Zion Lutheran Church,121 Noel C Conaway Rd,Guyton,GA,31312
Bethesda United Methodist Chr,3608 Midland Rd,Guyton,GA,31312
Emerson Baptist Church,PO Box 669,Emerson,GA,30137
Ephesus Baptist Church,PO Box 280,Winston,GA,30187
New Mountain Top Baptist Chr,PO Box 163,Winston,GA,30187
Old Mountain Top Church,PO Box 569,Winston,GA,30187
Evans Christian Academy,562 Old Evans Rd,Evans,GA,30809
Evans Community Baptist Church,302 Byrd Rd,Evans,GA,30809
First Baptist Church of Evans,PO Box 159,Evans,GA,30809
Gospel Water Branch Baptist,703 Furys Ferry Rd,Evans,GA,30809
Oakey Grove Baptist Church,PO Box 403,Evans,GA,30809
West Acres Baptist Church,PO Box 675,Evans,GA,30809
Christ the King Lutheran,4232 Evans to Locks Rd,Evans,GA,30809
Lewis Memorial Methodist Chr,5555 Hereford Farm Rd,Evans,GA,30809
Corp Of Presiding Bishop Of Church Of Jesu,835 N Belair Rd,Evans,GA,30809
A R Investigations,1873 PO Box,Evans,GA,0
Fairfield Baptist Church,PO Box 163,Redan,GA,30074
New Covenant Christian Mnstrs,PO Box 354,Redan,GA,30074
Faulkville Baptist Church,PO Box 265,Bloomingdale,GA,31302
Westside Christian Church,PO Box 127,Bloomingdale,GA,31302
Alpha United Methodist Church,5 E Us Highway 80,Bloomingdale,GA,31302
Lifespring Pentecostal Chr,1105 E Us Highway 80,Bloomingdale,GA,31302
Monterey Park Church of God,2836 US-80,Bloomingdale,GA,31302
Fayetteville First Baptist Chr,205 Stonewall Ave E,Fayetteville,GA,30214
Flat Creek Baptist Church,161 Flat Creek Trl,Fayetteville,GA,30214
Harp's Crossing Baptist Church,1183 GA-92,Fayetteville,GA,30214
Lisbon Baptist Church,1662 Highway 85 S,Fayetteville,GA,30215
Mc Donough Road Baptist Church,352 McDonough Rd,Fayetteville,GA,30214
National Heights Baptist Chr,103 Old Norton Rd,Fayetteville,GA,30215
Rolling Hills Baptist Church,2005 Braselton Hwy,Buford,GA,30519
Woolsey Baptist Church,115 Hampton Rd,Fayetteville,GA,30215
St Gabriel Catholic Church,135 Antioch Rd,Fayetteville,GA,30215
Fayetteville Christian Church,PO Box 71,Fayetteville,GA,30214
Church of Christ-Fayetteville,PO Box 680,Fayetteville,GA,30214
Nativity Episcopal Church,130 Antioch Rd,Fayetteville,GA,30215
Bethany United Methodist Chr,607 Rivers Rd,Fayetteville,GA,30214
Fayetteville First United Meth,175 E Lanier Ave,Fayetteville,GA,30214
Inman United Methodist Church,151 Hills Bridge Rd,Fayetteville,GA,30215
North Fayette United Methodist,847 New Hope Rd,Fayetteville,GA,30214
Providence United Methodist,592 Bernhard Rd,Fayetteville,GA,30215
Grace Evangelical Church,125 Flat Creek Trl,Fayetteville,GA,30214
Heritage Christian Church,2130 Redwine Rd,Fayetteville,GA,30215
Fayette Presbyterian Church,791 Forrest Ave,Fayetteville,GA,30214
Fayetteville Church Of Christ,870 Redwine Rd,Fayetteville,GA,30215
Acmc Support Office,116 Peachtree Ct,Fayetteville,GA,30215
Action Growth Ministries,105 Adams Ct,Fayetteville,GA,30214
First Baptist Chr Sugar Hill,5091 Nelson Brogdon Blvd NE,Sugar Hill,GA,30518
Big Sky Community Church,5401 Cumming Hwy,Sugar Hill,GA,30518
Buford Presbyterian Church,1242 Buford Hwy,Sugar Hill,GA,30518
Regency Church Of God,1132 Buford Hwy,Sugar Hill,GA,30518
First Baptist Chr-Springfield,1435 Ga Hwy 119,Springfield,GA,31329
St Boniface,PO Box 941,Springfield,GA,31329
Bethel Lutheran Church,PO Box 1022,Springfield,GA,31329
Springfield United Methodist,PO Box 237,Springfield,GA,31329
Agape Assembly Of God,703 E 1st St,Springfield,GA,31329
First Centerville United Meth,101 Wilson Dr,Centerville,GA,31028
Word Of Life Worship Center,801 Carl Vinson Pky,Centerville,GA,31028
Grantville United Methodist,PO Box 95,Grantville,GA,30220
Lighthouse,290 Upper Burris Rd,Canton,GA,30114
Oakdale Baptist Church,100 Oakdale Rd,Canton,GA,30114
Catholic Church of Our Lady,PO Box 5046,Canton,GA,30114
Hickory Flat Methodist Church,4056 E Cherokee Dr,Canton,GA,30115
Orange United Methodist Church,220 Orange Church Cir,Canton,GA,30115
Sixes United Methodist Church,8385 Bells Ferry Rd,Canton,GA,30114
Allpoints Community Church,6488 Hickory Flat Hwy,Canton,GA,30115
Marshall Baptist Church,436 Marshall Church Rd,Thomson,GA,30824
Queen of Angels Catholic Chr,1326 Washington Rd,Thomson,GA,30824
Greater St James Ame Church,PO Box 1725,Thomson,GA,30824
Thomson Presbyterian Church,PO Box 398,Thomson,GA,30824
Agape Outreach Fellowship,4405 Washington Rd,Thomson,GA,30824
Pembroke United Methodist Chr,PO Box 156,Pembroke,GA,31321
Abundant Life Church Parsonage,124 Wildwood Church Rd,Pembroke,GA,31321
Gospel Light Baptist Church,1250 Tom Miller Rd,Bethlehem,GA,30620
Garden City United Methodist,62 Varnedoe Ave,Garden City,GA,31408
Trinity Church of God,2202 Us-80 W,Garden City,GA,31408
St Patrick's Catholic Church,1241 Saint Patricks Dr,Perry,GA,31069
Perry United Methodist Church,PO Box 73,Perry,GA,31069
Word of Deliverance,PO Box 1146,Perry,GA,31069
Perry Presbyterian Church,PO Box 574,Perry,GA,31069
Church Of God Of Phophecy,1211 Houston Lake Dr,Perry,GA,31069
Fortified Hill Baptist Church,4705 E Paulding Dr,Dallas,GA,30157
New Canaan Baptist Church,3147 Atlanta Hwy,Dallas,GA,30132
New Hope First Baptist Church,31 Bobo Rd,Dallas,GA,30132
Pumpkin Vine Baptist Church,2156 Buchanan Hwy,Dallas,GA,30157
St Vincent Catholic Church,680 W Memorial Dr,Dallas,GA,30132
Hope United Methodist Church,1970 Marietta Hwy,Dallas,GA,30157
Pine Ridge First Congregation,300 Pine Ridge Church Rd,Dallas,GA,30157
Bethany Christian Church,3264 Villa Rica Hwy,Dallas,GA,30157
Church of God Dallas,3394 Bobo Rd,Dallas,GA,30132
Adonai Ministries,25 A C Dr,Dallas,GA,30132
Fullerville Baptist Church,423 Old Town Rd,Villa Rica,GA,30180
Midway Macedonia Baptist Chr,3915 Carrollton Villa Rica Hwy,Villa Rica,GA,30180
New Georgia Baptist Church,6092 Mulberry Rock Rd,Villa Rica,GA,30180
Assembly-the Saints,PO Box 114,Villa Rica,GA,30180
First Baptist Church Lovejoy,PO Box 579,Lovejoy,GA,30250
Divine Faith Ministry,PO Box 97,Lovejoy,GA,30250
First Baptist Church of Buford,4550 Hamilton Mill Rd,Buford,GA,30518
Ivy Creek Baptist Church,2500 Ivy Creek Rd,Buford,GA,30519
New Bethany Baptist Church,6302 Holiday Rd,Buford,GA,30518
Poplar Hill Baptist Church,PO Box 387,Buford,GA,30515
Buford Church of Christ,1135 Chatham Rd,Buford,GA,30518
St Mary ,3805 Braselton Hwy,Buford,GA,30519
1st United Pentecostal Church,15 E Moreno St,Buford,GA,30518
Buford Church of God,4800 S Lee St,Buford,GA,30518
Worldwide Church Of God,205 N Alexander St,Buford,GA,30518
1St Iglesia Pentecostal Unida,15 W Moreno St,Buford,GA,30518
Allen Temple United Methodist,495 New St,Buford,GA,30518
First Baptist Church of Jasper,198 E Church St,Jasper,GA,30143
Jasper United Methodist Church,85 W Church St,Jasper,GA,30143
New Lebanon Presbyterian Chr,389 Bent Tree Dr,Jasper,GA,30143
First Baptist Church of Pooler,PO Box 506,Pooler,GA,31322
Rothwell Baptist Church,216 Rothwell St,Pooler,GA,31322
First Baptist Church of Putney,PO Box 336,Putney,GA,31782
Putney United Methodist Church,PO Box 154,Putney,GA,31782
Rhema Word Worship Ctr,PO Box 161,Putney,GA,31782
First Baptist Church-Bonaire,PO Box 179,Bonaire,GA,31005
Bonaire United Methodist Chr,PO Box 250,Bonaire,GA,31005
First Baptist Church-Doraville,5935 New Peachtree Rd,Doraville,GA,30340
St Michael's Lutheran Church,3323 Chestnut Dr,Doraville,GA,30340
Northwoods United Methodist,2635 Fairlane Dr,Doraville,GA,30340
Pleasantdale Church of God,3434 Pleasantdale Rd,Doraville,GA,30340
Redeemer Orthodox Presbyterian,3930 Chamblee Tucker Rd,Doraville,GA,30340
Advent Lutheran Church-elca,5200 Buford Hwy NE,Doraville,GA,30340
First Baptist Church-Leesburg,PO Box 1009,Leesburg,GA,31763
Thundering Springs Baptist Chr,190 Thundering Springs Rd,Leesburg,GA,31763
Wooden Grove Baptist Church,114 1st Rd,Leesburg,GA,31763
Lutheran Church Our Saviour,101 Hickory Grove Rd,Leesburg,GA,31763
Leesburg United Methodist Chr,PO Box 207,Leesburg,GA,31763
Leesburg Church of God,PO Box 515,Leesburg,GA,31763
Albany Community Sda Church,381 Fussell Rd,Leesburg,GA,31763
First Baptist Church-Red Oak,PO Box 1027,Red Oak,GA,30272
Red Oak United Methodist Chr,PO Box 1703,Red Oak,GA,30272
First Baptist Church-Tyrone,305 Arrowood Rd,Tyrone,GA,30290
Greentree Church,414 Jenkins Rd,Tyrone,GA,30290
St Matthew Catholic Church,215 Kirkley Rd,Tyrone,GA,30290
Hopewell United Methodist Chr,PO Box 70,Tyrone,GA,30290
First Shadnor Baptist Church,PO Box 495,Union City,GA,30291
God's Tabernacle of Praise,PO Box 601,Union City,GA,30291
Lester Road Christian Church,PO Box 389,Union City,GA,30291
Bible Church Of God,120 Maple St,Sylvania,GA,30467
Shannon Church Of Christ,5011 Jonesboro Rd,Union City,GA,30291
Flintstone Baptist Church,PO Box 26,Flintstone,GA,30725
Lookout Baptist Church,PO Box 293,Flintstone,GA,30725
Chattanooga Valley Church,2853 Chattanooga Valley Rd,Flintstone,GA,30725
Franklin Covenant Baptist Chr,4800 Franklin Covenant Rd,Hephzibah,GA,30815
Hephzibah Baptist Church,PO Box 175,Hephzibah,GA,30815
Mt Lebanon Baptist Church,3965 Deans Bridge Rd,Hephzibah,GA,30815
Pine Hill Baptist Church,4233 Old Waynesboro Rd,Hephzibah,GA,30815
Hephzibah United Methodist Chr,PO Box 65,Hephzibah,GA,30815
Faith Outreach Christian Life,2664 Willis Foreman Rd,Hephzibah,GA,30815
New Life Church of God-Christ,3550 Morgan Rd,Hephzibah,GA,30815
Hephzibah Church Of God,2228 Highway 88,Hephzibah,GA,30815
Gwinnett County Baptist Church,PO Box 608,Suwanee,GA,30024
Shadowbrook Baptist Church,4187 Suwanee Dam Rd,Suwanee,GA,30024
Suwanee Parish United Meth Chr,PO Box 475,Suwanee,GA,30024
Evergreen Presbyterian Church,401 Main St,Suwanee,GA,30024
Christian Church Of Atlanta,3149 Old Atlanta Rd,Suwanee,GA,30024
Haddock Baptist Church,180 Ethridge Rd,Haddock,GA,31033
Hayneville First Baptist Chrch,PO Box 69,Clinchfield,GA,31013
St Mary Magdalene Mission Ofc,4046 Lower Fayetteville Rd,Sharpsburg,GA,30277
Cokes Chapel United Methodist,4096 Lower Fayetteville Rd,Sharpsburg,GA,30277
Trinity Fellowship Church,8817 Highway 54,Sharpsburg,GA,30277
Kingdom Hall Of Jehovah,640 Gorday Dr,Ashburn,GA,31714
Hickory Road Baptist Church,PO Box 959,Holly Springs,GA,30142
Holly Springs Baptist Church,PO Box 100,Holly Springs,GA,30142
Hull Baptist Church,PO Box 640,Hull,GA,30646
Gordon's Chapel United Meth,6625 Nowhere Rd,Hull,GA,30646
Jeffersonville Baptist,PO Box 218,Jeffersonville,GA,31044
Lizella Baptist Church,2950 S Lizella Rd,Lizella,GA,31052
Lizella United Methodist Chr,PO Box 950,Lizella,GA,31052
Mansfield Baptist Church,PO Box 111,Mansfield,GA,30055
New Rocky Creek Baptist Church,190 Rocky Creek Rd,Mansfield,GA,30055
Trinity Praise Ctr,23898 Highway 11 N,Mansfield,GA,30055
Moreland Baptist Church,PO Box 135,Moreland,GA,30259
Moreland Methodist Church,PO Box 156,Moreland,GA,30259
First Christian Church-Atlanta,4532 Lavista Rd,Tucker,GA,30084
Northlake Church of Christ,1625 Cooledge Rd,Tucker,GA,30084
Lawrenceville Road United Meth,3142 Lawrenceville Hwy,Tucker,GA,30084
Tucker First United Methodist,5095 Lavista Rd,Tucker,GA,30084
Atlanta Chinese Christian Chr,4434 Britt Rd,Tucker,GA,30084
Tucker Christian Church,PO Box 687,Tucker,GA,30085
World Outreach Church for All,PO Box 1095,Tucker,GA,30085
Korean Community Presbyterian,4877 Lawrenceville Hwy,Tucker,GA,30084
Korean First Presbyterian Chr,6175 Lawrenceville Hwy,Tucker,GA,30084
St Andrews Presbyterian Church,PO Box 980,Tucker,GA,30085
Sadh Sangat Of Georgia,2135 Northlake Pky,Tucker,GA,30084
Massey C D Rev,246 Kenvilla Ct,Tucker,GA,30084
First Baptist Church Of Tucker Office,5771 Lawrenceville Hwy,Tucker,GA,30084
Iglesia Cristo Vive,5904 Mimosa Cir,Tucker,GA,30084
Seventh Day Adventist Church-first Atlanta Hispanic,111 Pounds Rd,Tucker,GA,30084
Life Fellowship School,6282 Lawrenceville Hwy,Tucker,GA,30084
Minsterios Llamada Final,5203 S Royal Atlanta Dr,Tucker,GA,30084
Naomi Baptist Church,4171 Georgia 136,LaFayette,GA,30728
New Testament Baptist,2352 Old Rex Morrow Rd,Forest Park-Morrow,GA,30294
Olive Branch Baptist Church,179 Butler Dr,Ellabell,GA,31308
Orchard Hill Baptist Church,PO Box 64,Orchard Hill,GA,30266
Oxford Baptist Church,PO Box 128,Oxford,GA,30054
Allen Memorial Methodist Chr,PO Box 117,Oxford,GA,30054
Allen Memorial United Mthdst,803 Whatcoat St,Oxford,GA,30054
Palmetto Baptist Church,PO Box 860,Palmetto,GA,30268
Ramah First Baptist Church,PO Box 855,Palmetto,GA,30268
Sardis Baptist Church,8400 Sardis Rd,Palmetto,GA,30268
Porterdale Baptist Church,PO Box 637,Porterdale,GA,30070
Julia A Porter Methodist Chr,PO Box 700,Porterdale,GA,30070
Powers Baptist Church,PO Box 730,Eden,GA,31307
College Park Presbyterian Chr,3557 Main St,College Park,GA,30337
Rock Baptist Church,PO Box 519,Rex,GA,30273
Trinity Family Worship Ctr,6558 Fielder Rd,Rex,GA,30273
Rock Cut Baptist Church,1915 Rock Cut Pl,Conley,GA,30288
Cedar Grove United Methodist,3430 Bouldercrest Rd,Conley,GA,30288
Living Word United Church-God,PO Box 616,Conley,GA,30288
Roopville Road Baptist Chr,835 N Highway 27,Roopville,GA,30170
Smithville Baptist Church,PO Box 70,Smithville,GA,31787
Stone Creek Baptist Church,854 Riggins Mill Rd,Dry Branch,GA,31020
Sunnyside First Baptist Church,PO Box 69,Sunny Side,GA,30284
West Sunnyside Congregational,PO Box 121,Sunny Side,GA,30284
White Springs Baptist Church,3817 White Springs Church Rd,Twiggs North,GA,31020
Winterville First Baptist Chr,305 N Church St,Winterville,GA,30683
Winterville Methodist Church,PO Box 30,Winterville,GA,30683
Wofford's Crossroads Bapt Chr,PO Box 59,White,GA,30184
White United Methodist Church,PO Box 37,White,GA,30184
Bread of Life,267 Simpson Rd NE,White,GA,30184
New Hope Church of God,2440 Ga Highway 127,Kathleen,GA,31047
Christ Church Of Grovetown,109 E Robinson Ave,Grovetown,GA,30813
Christ the King Catholic Chr,PO Box 32,Hamilton,GA,31811
Holy Cross Catholic Church,3175 Hathaway Ct,Chamblee,GA,30341
Atlanta Unity Church,4146 Chamblee Dunwoody Rd,Chamblee,GA,30341
Chamblee First United Meth,4147 Chamblee Dunwoody Rd,Chamblee,GA,30341
Embry Hills United Methodist,3304 Henderson Mill Rd,Chamblee,GA,30341
Brooks United Methodist Church,119 Morgan Mill Rd,Brooks,GA,30205
Allen Billy Rev,7665 Hopewell Church Rd,Pine Mountain,GA,31822
Graysville Methodist Church,PO Box 39,Graysville,GA,30726
Hapeville United Methodist Chr,3510 Atlanta Ave,Hapeville,GA,30354
All Sts Anglican Church,3383 Dogwood Dr,Hapeville,GA,30354
Midland United Methodist Chr,PO Box 26,Midland,GA,31820
Pierce Chapel United Methodist,5122 Pierce Chapel Rd,Midland,GA,31820
Solid Rock Family Church,6959 Warm Springs Rd,Midland,GA,31820
All Saints Presbyterian Church,7170 Beaver Run Rd,Midland,GA,31820
New Salem United Methodist,12250 Highway 136,Rising Fawn,GA,30738
Pine Log United Methodist Chr,PO Box 10,Rydal,GA,30171
Turin United Methodist Church,PO Box 156,Turin,GA,30289
Upatoi United Methodist Church,13730 Macon Rd,Upatoi,GA,31829
Whitesburg Christian Church,PO Box 547,Whitesburg,GA,30185
Reformed Presbyterian Church,13478 Scenic Hwy,Lookout Mountain,GA,30750
White Oak Assoc Rfrmd Prsbytrn,2796 Gordon Rd,Senoia,GA,30276
New House Of Worship,123 Old Waynesboro Rd,Keysville,GA,30816
River Of Life Worship Center,4971 Highway 441,Nicholson,GA,30565
Breath Of Life Worship Center,406 Pine St,Americus,GA,31709
Heritage Church Of God,384 Ga Highway 30 W,Americus,GA,31719
Prince Of Peace Worship Center,2485 Gould Dr,Gainesville,GA,30504
Gainesville Church Of God,2920 Browns Bridge Rd,Gainesville,GA,30504
Adventures In Missions,6000 Wellspring Trl,Gainesville,GA,30506
Airline Baptist Church,3368 White Sulphur Rd,Gainesville,GA,30501
Everlasting House Of Prayer Deliverance Center Temple Of Love,E Davis Ave,Lakeland,GA,31635
Lakeland Church Of Christ,45 E Main St,Lakeland,GA,0
A House Of Living God Church Of Jesus Christ,10 E Main St,Manchester,GA,31816
A House Of Living God,15 E Main St,Manchester,GA,31816
Assembly Of Worship,1818 Lamont St,Waycross,GA,31503
Hosanna Church Of Christ,2205 Brunel St,Waycross,GA,31503
Faithworks Church Of God,1118 Effie St,Waycross,GA,31501
Heart Of Worship,1848 Lukken Industrial Dr W,Lagrange,GA,30240
New Life Christian Worship,489 Ga-206-Conn NW,Douglas,GA,31533
Adcock Marshall,710 Maude St,Douglas,GA,31533
Fountain-love ,619 Jones St,Cedartown,GA,30125
Cedartown Church Of God,448 West Ave,Cedartown,GA,30125
Calvary Assembly Of God,300 Canal St,Cedartown,GA,30125
Church Of God Of Union,1512 Buchanan Hwy,Cedartown,GA,30125
Cedartown Church Of Christ,326 East Ave,Cedartown,GA,30125
Northwoods Church Of God,640 Hall Rd,Thomasville,GA,31757
Pavo Church Of God,3035 County Line Rd,Thomasville,GA,31792
Rock Church Of Thomasville,108 Egypt Rd,Thomasville,GA,31757
Cornerstone Church Of Christ,1040 Glenwood Dr,Thomasville,GA,31792
Calvary Chapel Of Thomasville,100 Commerce Park Dr,Thomasville,GA,31757
Thomasville Church Of Christ,711 E Pinetree Blvd,Thomasville,GA,31792
Eastwood Church Of God,561 Richard St,Swainsboro,GA,30401
Woodbine Church Of God,1275 Billyville Rd,Woodbine,GA,31569
Woodbine Tabernacle Of Prayer,400 Bedell Ave,Woodbine,GA,31569
Victory Temple Of Joy,118 Williamson St SW,Rome,GA,30165
Armuchee Church Of God,4974 Martha Berry Hwy NE,Rome,GA,30165
Moultrie Church Of God,3113 Veterans Pky S,Moultrie,GA,31788
Agape Christian Center,1319 S Main St,Moultrie,GA,31768
Gordon Church Of Christ,102 Hardie St,Gordon,GA,31031
Wilkes Church Of Nazarene,847 Wilkes Chapel Church Rd,Rockledge,GA,0
Calhoun Church Of Nazarene,4926 Fairmount Hwy SE,Calhoun,GA,30701
First Assembly Of God-calhoun,1080 Rome Rd SW,Calhoun,GA,30701
Agape Baptist Church,1109 W 24th Ave,Cordele,GA,31015
Philadelphia Church Of Christ,117 Cahoon St,Brunswick,GA,31520
Holy Band Of Inspiration,2401 Norwich St,Brunswick,GA,31520
Abundant Life Fellowship,103 Buckingham Pl,Brunswick,GA,31525
Abyssinia Baptist Church,2501 Albany St,Brunswick,GA,31520
Advent Christian Church,1812 Ellis St,Brunswick,GA,31520
Agape Assembly Ministry,1514 4th St,Brunswick,GA,31520
Unity Church Of God,1580 Sunset Blvd,Jesup,GA,31545
Crosspoint Church Of Valdosta,110 Northside Dr,Valdosta,GA,31602
Eastside Church Of Christ,1248 N Lee St,Valdosta,GA,31601
Redland Church Of Christ,5714 Knights Ferry Rd,Valdosta,GA,31601
All Nations Deliverance,707 Broad St,Valdosta,GA,31601
Thomaston Church Of God,803 N Church St,Thomaston,GA,30286
Allen Joe Rev,1016 S Green St,Thomaston,GA,30286
Refuge Ministries Of Haber,428 Hollywood Hills Rd,Clarkesville,GA,30523
Hogansville Church Of God,316 Holmes St,Hogansville,GA,30230
Dalton House Of Prayer,735 Beaverdale Rd NE,Dalton,GA,30721
Dalton Church Of God,2681 Underwood St,Dalton,GA,30721
3 Angels Hispanic Sda Church,701 E Morris St,Dalton,GA,30721
Abundant Life Baptist Church,11 Hart Service Rd,Hartwell,GA,30643
Grace Assembly Of God,2324 Rayonier Rd,Jesup,GA,31545
Crossroads Church Of God,2949 Lanes Bridge Rd,Jesup,GA,31545
House Of Worship ,1920 Lanes Bridge Rd,Jesup,GA,31545
Gibson Church Of God,2502 Bastonville Rd,Gibson,GA,30810
Faithpoint Chr Of Nazarene,700 Dunlap Rd NE,Milledgeville,GA,31061
Episcopal Church Of Annunciation,1512 Meadows Ln,Vidalia,GA,30474
Abundant Life Pentecostal Chr,2295 Ga Highway 130 W,Vidalia,GA,30474
Abundant Life Upc,1606 PO Box,Vidalia,GA,0
Christ City Of Prayer,1574 Lincolnton Rd,Washington,GA,30673
Commerce Church Of Christ,28 Chanticleer Rd,Commerce,GA,30529
Episcopal Church Of Advent,338 Academy St,Madison,GA,30650
Believers Church Of Statesboro,7059 Harville Rd,Statesboro,GA,30458
Agape Worship Center,810 W Grady St,Statesboro,GA,30458
Faith Ministries Of Nashville,201 Hazel Ave,Nashville,GA,31639
Nashville Church Of Nazarene,732 N Jackson St,Nashville,GA,31639
Abundant Life Chapel,24 Ten Mile Bay Rd,Nashville,GA,31639
Everlasting Word Of Truth,76 Myron Magnum Cir,Hinesville,GA,31313
Hinesville House Of Refuge,203 N Maple Dr,Hinesville,GA,31313
Agape Christian Fellowship,10600 Colerain Rd,St Marys,GA,31558
Aisle Of Hope Holiness,314 Gause St,Hinesville,GA,31313
Hartwell Church Of God,120 Race St,Hartwell,GA,30643
Kingdom Rock Family Worship,180 Helton Rd,Bremen,GA,30110
Pineview Church Of God,2691 Mark Mobley Rd,West Green,GA,31567
Gillard Church Of Christ,2465 Zenith Mill Rd,Roberta,GA,31078
Abundant Life Ministry,90 S Dugger Ave,Roberta,GA,31078
Potter House Of Deliverance,384 Jefferson Cir SE,Allenhurst,GA,0
Ambassadors Church Of Lord,600 Telfair St,Dublin,GA,31021
Unity Church Of Mountains,2309 Murphy Hwy,Blairsville,GA,30512
Blairsville Church Of Christ,475 Church of Christ Dr,Blairsville,GA,30512
Bridgeford Church Of God,316 Ira Graham Rd,Hazlehurst,GA,31539
Lavonia Church Of God,107 Bear Creek Rd,Lavonia,GA,30553
Coolidge Church Of God,7 PO Box,Coolidge,GA,0
A Great Love,104 Lions Way,Toccoa,GA,30577
Ocilla Church Of God,302 Fitzgerald Hwy,Ocilla,GA,31774
Macedonia Church Of God,17 W Georgia Ave,Denton,GA,31532
Lincolnton Church Of Christ,1832 Ga Highway 220 W,Lincolnton,GA,30817
Access Point Church,160 May Ave,Lincolnton,GA,30817
Adams Robert D,2430 Prater Rd,Lincolnton,GA,30817
Berryton Church Of God,2480 Back Berryton Rd,Summerville,GA,30747
Summerville Church Of God,11 Kirby St,Summerville,GA,30747
Alarming Truth Ministers,7325 Gore Subligna Rd,Summerville,GA,30747
Christ's City Of Faith,1401 N East St,Greensboro,GA,30642
Deliverance Church Of God,1900 Kingsland Dr,Folkston,GA,31537
Faith Assembly Of God,160 Skyline Blvd,Lyons,GA,30436
Oasis Church Of God,899 Ponderosa Rd,Lyons,GA,30436
Obg Church Of Prayer,204 W Liberty Ave,Lyons,GA,30436
Glennville Church Of God,111 Institute St,Glennville,GA,30427
Abiding Word Tabernacle,1005 E Barnard St,Glennville,GA,30427
Abundant Life Apostolic Chr,735 W Barnard St,Glennville,GA,30427
House Of God-house Of Prayer,3206 Lexington Rd NW,Crawfordville,GA,30631
Louisville Church Of God,1102 Peachtree St,Louisville,GA,30434
Adams Chapel Church Of God In Christ,520 5th St,Louisville,GA,30434
Resaca Church Of God,4155 Highway 41 N,Resaca,GA,30735
Waynesboro Church Of God,427 Ga Highway 56 N,Waynesboro,GA,30830
Allen Chapel Baptist Church,113 Allen Chapel Rd,Waynesboro,GA,30830
Lula's Assembly Of Praise,6158 Carter St,Lula,GA,30554
Hahira Church Of Nazarene,300 Blakely St,Hahira,GA,31632
Adams Chapter Missionary Bapt,201 Old Pelham Rd,Bainbridge,GA,39817
Eatonton Church Of God,408 N Jefferson Ave,Eatonton,GA,31024
Abundant Life Word Fellowship,150 Friendship Rd,Eatonton,GA,31024
All Angels Episcopal Church,405 N Jefferson Ave,Eatonton,GA,31024
Bowman Church Of God,476 E Railroad St,Bowman,GA,30624
Abundant Life Harvest Center,110 Industrial Dr,St Marys,GA,31558
Covenant Church Of Baxley,1511 Hatch Pky N,Baxley,GA,31513
Reidsville Church Of God,141 Shepards Bridge Rd,Reidsville,GA,30453
Abundant Faith Fellowship,320 W Brazell St,Reidsville,GA,30453
Sylvester Church Of Christ,406 N Isabella St,Sylvester,GA,31791
Abundant Truth Ministries,107 N Elm St,Sylvania,GA,30467
Persimmon Church Of God,2360 Devils Branch Rd,Clayton,GA,30525
Snowhill Church Of God,350 Stuckey Church Rd,Glenwood,GA,0
Soperton Church Of Christ,117 Louisiana Ave W,Soperton,GA,30457
Wylie Church Of God,237 PO Box,Wiley,GA,0
1700 Frederica Road,1700 Frederica Rd,St Simons Island,GA,31522
A Call To Salvation Ministries,1295 Jackson Trail Rd,Jefferson,GA,30549
A Nod To God,313 Cherokee Dr,Waleska,GA,30183
A Place To Worship,259 Old Landfill Rd,Chatsworth,GA,30705
Abbeville United Methodist Chr,233 S Broad St,Abbeville,GA,31001
Abundant Grace Ministry ,775 Flat Branch Rd,Ellijay,GA,30540
Abundant Life Assembly Of God,104 Dub Walker Rd,Jackson,GA,30233
Abundant Life Christian Center,905 Main St,Blackshear,GA,31516
Abundant Life Miracle Delivera,375 Oak St,Harrison,GA,31035
Adams John B Rev,2164 Oneal Rd,West Point,GA,31833
Adel Church Of God ,9208 Val Del Rd,Adel,GA,31620
Adel Presbyterian Church,401 S Hutchinson Ave,Adel,GA,31620
Adel United Methodist Church,214 S Hutchinson Ave,Adel,GA,31620
Adrian Camp ,37 Meeks Rd,Adrian,GA,31002
Adrian Baptist Pastorium,107 W Green St,Adrian,GA,31002
Advent Christian Parsonage,198 Minton Chapel Rd,Kite,GA,31049
Adventist Community Service,527 Forge Mill Rd,Morganton,GA,30560
Agape Ministries,1026 Hartwell Hwy,Elberton,GA,30635
Akin Memorial United Methodist,160 Sansavilla Rd,Hortense,GA,31543
