Name,Address,City,State,Zip
Seventh Day Adventist Church,3506 La Salle St,New Orleans,LA,70115
Asia Baptist Church,1400 Sere St,New Orleans,LA,70122
Austerlitz Street Baptist Chr,819 Austerlitz St,New Orleans,LA,70115
Battle Ground Baptist Church,2241 Flood St,New Orleans,LA,70117
Beulah Baptist Church,PO Box 356,Cheneyville,LA,71325
Bibleway Missionary Baptist,3201 Orleans Ave,New Orleans,LA,70119
Branch Bell Baptist Church,1231 Saint Maurice Ave,New Orleans,LA,70117
Calvary Southern Baptist Chr,2401 General Degaulle Dr,New Orleans,LA,70114
Carrollton Avenue Baptist Chr,2528 S Carrollton Ave,New Orleans,LA,70118
Carver Desire Baptist Church,3301 Montegut St,New Orleans,LA,70126
Christian Bible Fellowship,1300 Alvar St,New Orleans,LA,70117
Christian Unity Baptist Church,1700 Conti St,New Orleans,LA,70112
Darryl S Brister Ministries,2140 Mirabeau Ave,New Orleans,LA,70122
Elysian Fields Avenue Baptist,3515 Elysian Fields Ave,New Orleans,LA,70122
Fellowship Missionary Baptist,2101 Prytania St,New Orleans,LA,70130
Fifth African Baptist Church,2616 Louisiana Ave,New Orleans,LA,70115
First Baptist Church,PO Box 220,Starks,LA,70661
First Baptist Church Algiers,501 Opelousas Ave,New Orleans,LA,70114
First Emanuel Baptist Church,1829 Carondelet St,New Orleans,LA,70130
First Free Mission Baptist Chr,426 Lamarque St,New Orleans,LA,70114
First St Luke Baptist Church,4126 Thalia St,New Orleans,LA,70125
First United Baptist Church,131 S Jefferson Davis Pky,New Orleans,LA,70119
Franklin Avenue Baptist Church,2515 Franklin Ave,New Orleans,LA,70117
Gentilly Baptist Church,5141 Franklin Ave,New Orleans,LA,70122
Gloryland Mt Gillion Baptist,1515 Oretha C Haley Blvd,New Orleans,LA,70113
Greater Antioch Full Gospel,818 6th St,New Orleans,LA,70115
Greater Asia Baptist Church,3708 Saint Bernard Ave,New Orleans,LA,70122
Greater Liberty Baptist Chr,1230 Desire St,New Orleans,LA,70117
Greater Little Rock Baptist,4314 America St,New Orleans,LA,70126
Greater Macedonia Baptist Chr,2711 Danneel St,New Orleans,LA,70113
Greater New Home Baptist Chr,1735 Delery St,New Orleans,LA,70117
Greater Providence Baptist Chr,623 Newton St,New Orleans,LA,70114
Greater St Mary Baptist Church,1401 Moeling St,Lake Charles,LA,70601
Household of Faith,10469 Airline Hwy,Gonzales,LA,70737
James Chapel Baptist Church,4228 Thalia St,New Orleans,LA,70125
Lake Forest Baptist Church,8821 Morrison Rd,New Orleans,LA,70127
Lakeview Baptist Church,4520 Tacoma Blvd,Shreveport,LA,71107
Lion of Judah Missionary Bapt,1996 Florida Ave,New Orleans,LA,70119
Mount Tabor Baptist Church,4128 Franklin Ave,New Orleans,LA,70122
Mount Zion Baptist Church,17683 Highway 933,Prairieville,LA,70769
Mt Moriah Baptist Chr Hall,2407 Louisa St,New Orleans,LA,70117
Mt Moriah Missionary Baptist,147 Millaudon St,New Orleans,LA,70118
Mt Zion Community Baptist Ch,1922 Alabo St,New Orleans,LA,70117
Nazarene Baptist Church,1830 Robin St,Baton Rouge,LA,70807
New Birth Baptist Church,3320 Louisa St,New Orleans,LA,70126
New Home Missionary Baptist,PO Box 13927,New Orleans,LA,70185
New Zion Baptist Church,PO Box 1164,Gramercy,LA,70052
Oak Park Baptist Church,1110 Kabel Dr,New Orleans,LA,70131
Old Zion Baptist Church,430 N Johnson St,New Orleans,LA,70112
Pilgrim Rest Baptist Church,20116 Highway 1081,Covington,LA,70435
Pleasant Valley Missionary Chr,3056 Laussat Pl,New Orleans,LA,70117
Pontchartrain Baptist Church,600 Hammond Hwy,New Orleans,LA,70124
Progressive Baptist Church,437 Cohen St,Marrero,LA,70072
Pure Light Baptist Church,3944 Martin Luther King Jr Blvd,New Orleans,LA,70125
Ray Avenue Baptist Church,4712 Ray Ave,New Orleans,LA,70126
Rising Star Missionary Baptist,8817 Hickory St,New Orleans,LA,70118
Riverside Baptist Church-Sbc,9220 Jefferson Hwy,New Orleans,LA,70123
Second Baptist Church,914 N Acadian Thruway W,Baton Rouge,LA,70802
Second Free Mission Baptist,1228 Burdette St,New Orleans,LA,70118
Second Good Shepherd Bapt Ch,600 2nd St,New Orleans,LA,70130
Second Huey Baptist Church,11276 Fernley Dr,New Orleans,LA,70128
Second Mount Carmel Baptist,2601 Dryades St,New Orleans,LA,70113
Second Nazarene Baptist Church,3062 Boyd St,New Orleans,LA,70131
Shiloh Christian Fellowship,2441 N Claiborne Ave,New Orleans,LA,70117
St Bernard Community Baptist,3938 St Bernard Ave,New Orleans,LA,70122
St Charles Avenue Baptist Chr,7100 Saint Charles Ave,New Orleans,LA,70118
St John Baptist Church,3613 Hamburg St,New Orleans,LA,70122
St John Institutional Mission,2538 Jackson Ave,New Orleans,LA,70113
St Mark Baptist Church,PO Box 92,Walker,LA,70785
St Mark's Fourth Baptist Chr,2130 Perdido St,New Orleans,LA,70112
Stronger Hope Baptist Church,PO Box 13654,New Orleans,LA,70185
Suburban Baptist Church,4521 Schindler Dr,New Orleans,LA,70127
True Vine Baptist Church,PO Box 1051,Alexandria,LA,71309
Valence Street Baptist Church,4636 Magazine St,New Orleans,LA,70115
Willing Workers Baptist Church,2715 Washington Ave,New Orleans,LA,70113
Blessed Sacrament Church,5018 Constance St,New Orleans,LA,70115
Center of Jesus the Lord,1236 N Rampart St,New Orleans,LA,70116
Corpus Christi Church,2022 Saint Bernard Ave,New Orleans,LA,70116
Holy Name of Jesus Church,6220 La Salle Pl,New Orleans,LA,70118
Holy Name of Mary Church,500 Eliza St,New Orleans,LA,70114
Holy Spirit Church,6201 Stratford Pl,New Orleans,LA,70131
Immaculate Conception Parish,130 Baronne St,New Orleans,LA,70112
Immaculate Heart of Mary,901 E Elm St,Crowley,LA,70526
Mary Queen of Vietnam Church,PO Box 29745,New Orleans,LA,70189
Mater Dolorosa Church,8128 Plum St,New Orleans,LA,70118
Our Lady of Good Counsel,1307 Louisiana Ave,New Orleans,LA,70115
Our Lady of Lourdes,6305 E Saint Bernard Hwy,Violet,LA,70092
Our Lady Star of Sea Church,1835 Saint Roch Ave,New Orleans,LA,70117
Resurrection of Our Lord Chr,9701 Hammond St,New Orleans,LA,70127
St Andrew the Apostle,3101 Eton St,New Orleans,LA,70131
St Augustine's Church,1210 Governor Nicholls St,New Orleans,LA,70116
St Brigid Parish,13435 Granville St,New Orleans,LA,70129
St David's Church,5617 Saint Claude Ave,New Orleans,LA,70117
St Dominic Church,775 Harrison Ave,New Orleans,LA,70124
St Frances Cabrini Parish,5500 Paris Ave,New Orleans,LA,70122
St Francis De Sales Church,PO Box 37,Echo,LA,71330
St Francis of Assisi Church,818 W 10th St,Donaldsonville,LA,70346
St Gabriel the Archangel Chr,5029 Louisa Dr,New Orleans,LA,70126
St Henry's Church,812 General Pershing St,New Orleans,LA,70115
St James Major,3736 Gentilly Blvd,New Orleans,LA,70122
St John the Baptist Catholic,2361 Highway 18,Edgard,LA,70049
St Julian Eymard Church,2701 Lawrence St,New Orleans,LA,70114
St Maria Goretti,7300 Crowder Blvd,New Orleans,LA,70127
St Mary of the Angels Church,3501 N Miro St,New Orleans,LA,70117
St Matthew the Apostle Church,10021 Jefferson Hwy,New Orleans,LA,70123
St Matthias Church,4230 S Broad St,New Orleans,LA,70125
St Paul the Apostle Church,6828 Chef Menteur Hwy,New Orleans,LA,70126
St Peter Claver Church,1910 Ursulines Ave,New Orleans,LA,70116
St Philip the Apostle Church,3304 Metropolitan St,New Orleans,LA,70126
St Raphael Church,PO Box 849,Iowa,LA,70647
St Raymond Church,3738 Paris Ave,New Orleans,LA,70122
St Rita Church of New Orleans,2729 Lowerline St,New Orleans,LA,70125
St Rose of Lima,2545 Bayou Rd,New Orleans,LA,70119
St Simon Peter Catholic Church,7600 Gannon Rd,New Orleans,LA,70128
St Stephen's Church,1025 Napoleon Ave,New Orleans,LA,70115
Tulane Catholic Ctr,1037 Audubon St,New Orleans,LA,70118
Elysian Fields Church Christ,4636 Elysian Fields Ave,New Orleans,LA,70122
De Gaulle Drive Church-Christ,4700 General Degaulle Dr,New Orleans,LA,70131
Way Jesus Christ Christian Chr,1137 Saint Charles Ave,New Orleans,LA,70130
All Saints Episcopal Church,100 Rex Dr,New Orleans,LA,70123
Christ Church Cathedral Epscpl,2919 Saint Charles Ave,New Orleans,LA,70115
Church of the Annunciation,4505 S Claiborne Ave,New Orleans,LA,70125
St Andrew's Episcopal Church,1031 S Carrollton Ave,New Orleans,LA,70118
St Anna's Episcopal Church,1313 Esplanade Ave,New Orleans,LA,70116
St George's Episcopal Church,4600 St Charles Ave,New Orleans,LA,70115
St Luke's Episcopal Church,8833 Goodwood Blvd,Baton Rouge,LA,70806
St Paul's Episcopal School,6249 Canal Blvd,New Orleans,LA,70124
Trinity Episcopal Church,3464 Morning Glory Ave,Baton Rouge,LA,70808
Beth Israel Congregation,7000 Canal Blvd,New Orleans,LA,70124
Temple Sinai Reform,6227 Saint Charles Ave,New Orleans,LA,70118
Touro Synagogue,4238 Saint Charles Ave,New Orleans,LA,70115
Bethel Lutheran Church,3515 Louisa St,New Orleans,LA,70126
Grace Lutheran Church,422 Valhi Blvd,Houma,LA,70360
Holy Cross Lutheran Church,6154 Press Dr,New Orleans,LA,70126
Norwegian Seamen's Church,1772 Prytania St,New Orleans,LA,70130
Our Savior Lutheran Church,4633 Knight Dr,New Orleans,LA,70127
Prince of Peace Lutheran Chr,9301 Chef Menteur Hwy,New Orleans,LA,70127
Southern Dist Luth Ch Ms Synod,PO Box 8396,New Orleans,LA,70182
St John Lutheran Church,600 University Dr,Lake Charles,LA,70605
St Paul Lutheran Church,2021 Tara Blvd,Baton Rouge,LA,70806
St Paul's Lutheran Church,1625 Annette St,New Orleans,LA,70116
St Stephen Lutheran Church,6336 Berkley Dr,New Orleans,LA,70131
Trinity Lutheran Church,1400 S Post Oak Rd,Sulphur,LA,70663
Unity Temple,3722 Saint Charles Ave,New Orleans,LA,70115
Algiers United Methodist Chr,637 Opelousas Ave,New Orleans,LA,70114
Aurora United Methodist Church,3300 Eton St,New Orleans,LA,70131
Bethany United Methodist Chr,PO Box 26816,New Orleans,LA,70186
Carrollton United Methodist,921 S Carrollton Ave,New Orleans,LA,70118
First Street United Methodist,2309 Dryades St,New Orleans,LA,70113
First United Methodist Church,PO Box 698,LaPlace,LA,70069
Lake Vista United Methodist,6645 Spanish Fort Blvd,New Orleans,LA,70124
Mount Zion United Methodist,PO Box 15600,New Orleans,LA,70175
Mt Zion United Methodist Ch,400 Thayer St,New Orleans,LA,70114
Peck United Methodist Church,3631 Washington Ave,New Orleans,LA,70125
Philips Memorial United Meth,PO Box 13542,New Orleans,LA,70185
Rayne Memorial United Meth,3900 Saint Charles Ave,New Orleans,LA,70115
St James Ame Church,222 N Roman St,New Orleans,LA,70112
Church of Jesus Christ of Lds,2629 Jupiter St,Harvey,LA,70058
Berean Bible Church,3712 Herschel St,New Orleans,LA,70114
Christian Faith Temple,"11000 Morrison Rd, #100",New Orleans,LA,70127
Church of Christ,2801 Enterprise Blvd,Lake Charles,LA,70601
Covenant Church,PO Box 20149,New Orleans,LA,70141
Faith Church,13123 I-10 Service Rd,New Orleans,LA,70128
Gideon Christian Fellowship,3401 Elysian Fields Ave,New Orleans,LA,70122
Hickory Knoll Church of Christ,PO Box 23061,New Orleans,LA,70183
Light City,6117 Saint Claude Ave,New Orleans,LA,70117
Love Outreach Christian Ctr,4840 General Meyer Ave,New Orleans,LA,70131
Mt Carmel Missionary Baptist,2035 Forstall St,New Orleans,LA,70117
New Life Christian Ctr,PO Box 870550,New Orleans,LA,70187
New Life Ministries,PO Box 50906,New Orleans,LA,70150
Praise Church of New Orleans,200 Academy Dr,New Orleans,LA,70124
Smoking for Jesus Ministry,"8001 Chef Menteur Hwy, #103",New Orleans,LA,70126
Upper Room Bible Church,8600 Lake Forest Blvd,New Orleans,LA,70127
Westbank Christian Ctr,PO Box 740053,New Orleans,LA,70174
Youth With A Mission,PO Box 6787,New Orleans,LA,70174
Zion Full Gospel Baptist Chr,2525 Bienville St,New Orleans,LA,70119
Greek Orthodox Cathedral,1200 Robert E Lee Blvd,New Orleans,LA,70122
Apostolic Outreach Ctr,8358 Lake Forest Blvd,New Orleans,LA,70126
Church at New Orleans,11700 Chef Menteur Hwy,New Orleans,LA,70129
First Pentecostal Church,18120 Hosmer Mill Rd,Covington,LA,70435
Full Gospel Church-God-Christ,1031 N Claiborne Ave,New Orleans,LA,70116
House of Faith Church of God,2229 Allen St,New Orleans,LA,70119
Lakeview Christian Ctr,132 Veterans Blvd,New Orleans,LA,70124
Macedonia Full Gospel Baptist,802 3rd St,New Orleans,LA,70130
New Home Full Gospel Mnstrs,PO Box 750998,New Orleans,LA,70175
Pentecostal Church of God,2925 Audubon St,New Orleans,LA,70125
Philadelphia Ministries,5330 Saint Claude Ave,New Orleans,LA,70117
Beecher Memorial United Church,1914 N Miro St,New Orleans,LA,70119
First Trinity United Church,119 N Murat St,New Orleans,LA,70119
Lakeview Presbyterian Church,5914 Canal Blvd,New Orleans,LA,70124
St Charles Avenue Presbyterian,1545 State St,New Orleans,LA,70118
St Matthew United Church,PO Box 850527,New Orleans,LA,70185
Woodland Presbyterian Church,5824 Berkley Dr,New Orleans,LA,70131
First Church Of Nazarene,701 N 4th St,West Monroe,LA,71291
Jerusalem Church Of God-christ,3802 Martin Luther King Jr Blvd,New Orleans,LA,70125
God's Prince Of Protection,2900 Philip St,New Orleans,LA,70113
Thessalonians Church Of God,4224 N Prieur St,New Orleans,LA,70117
Timothy Trumpet Of Truth,3116 Saint Claude Ave,New Orleans,LA,70117
Hollygrove Church Of Christ,2940 Cambronne St,New Orleans,LA,70118
Sikh Society Of South,8433 Morrison Rd,New Orleans,LA,70127
United House Of Prayer,2738 Jackson Ave,New Orleans,LA,70113
Dominican Sisters Of Peace,5660 Bancroft Dr,New Orleans,LA,70122
St Anthony Of Padua Church,4640 Canal St,New Orleans,LA,70119
St Joan Of Arc Church,8321 Burthe St,New Orleans,LA,70118
A Word Of Light Ministries,7506 Garfield St,New Orleans,LA,70118
House Of Prayer Hse Of Prayer,7701 Dwyer Rd,New Orleans,LA,70126
Our Lady Of Guadalupe Chapel,411 N Rampart St,New Orleans,LA,70112
2Nd Missionary Baptist Church,3508 Washington Ave,New Orleans,LA,70125
3Rd Church Of God ,1432 Flood St,New Orleans,LA,70117
4Th Church Of Christ Scientist,134 Polk St,New Orleans,LA,70124
A Word Of Mouth Co,701 Poydras St,New Orleans,LA,70139
Abundant Life Church,206 Edgewood Dr,Denham Springs,LA,70726
Abundant Life Full,9900 Hayne Blvd,New Orleans,LA,70127
Abundant Life Full Gospel,1800 Arts St,New Orleans,LA,70117
Adat Yeshua Synagogue,1501 Hickory Ave,New Orleans,LA,70123
African Christian Fellowship,7531 Chef Menteur Hwy,New Orleans,LA,70126
Advent House,1637 7th St,New Orleans,LA,70115
Algiers Church Of God In Chrst,730 Thayer St,New Orleans,LA,70114
All Saints Convent,1343 Teche St,New Orleans,LA,70114
All Saints Church,2435 Drusilla Ln,Baton Rouge,LA,70809
All Souls Episcopal Church,5500 Saint Claude Ave,New Orleans,LA,70117
Alternative Wedding Services,144 S Hennessey St,New Orleans,LA,70119
Amozion Baptist Church,907 Deslonde St,New Orleans,LA,70117
Anchor Of Hope Church Of God,4304 America St,New Orleans,LA,70126
Arch Diocese Of New Orleans,2801 Pine St,New Orleans,LA,70125
Archbishop Antoine Blanc Meml,1100 Chartres St,New Orleans,LA,70116
Archdiocesan Cemeteries,1000 Howard Ave,New Orleans,LA,70113
Archdiocese Of New Orleans,7887 Walmsley Ave,New Orleans,LA,70125
Archdiocese-new Orleans Pace,4219 N Rampart St,New Orleans,LA,70117
Asbury United Methodist Church,101 Live Oak Dr,Lafayette,LA,70503
Seventh-Day Adventist Church,PO Box 31000,Shreveport,LA,71130
Antioch Baptist Church,2778 Billups Ln,Brusly,LA,70719
Baptist Bible Fellowship,4700 Hollywood Ave,Shreveport,LA,71109
Bethlehem Baptist Church,PO Box 2241,Reserve,LA,70084
Bright Star Baptist Church,2415 Hearne Ave,Shreveport,LA,71103
Broadacres Baptist Church,PO Box 29399,Shreveport,LA,71149
Broadmoor Baptist Church,9755 Goodwood Blvd,Baton Rouge,LA,70815
Brookwood Baptist Church,9014 Brookwood Church Way,Shreveport,LA,71106
Calvary Baptist Church,1615 Old Spanish Trl,Slidell,LA,70458
Ellerbe Road Baptist Church,10705 Ellerbe Rd,Shreveport,LA,71106
Emmanuel Baptist Church,PO Box 1257,Eunice,LA,70535
Evergreen Baptist Church,PO Box 16192,Lake Charles,LA,70616
Evergreen Missionary Bapt Chr,8510 Range Ln,Shreveport,LA,71106
First Baptist Chr of Cedar Grv,6906 Henderson Ave,Shreveport,LA,71106
Galilee Baptist Church,11050 Greenwell Springs Port Hudson Rd,Zachary,LA,70791
Greater Hope Baptist Church,4355 Greenwood Rd,Shreveport,LA,71109
Greenwood Acres Full Gospel,PO Box 7685,Shreveport,LA,71137
Haynes Avenue Baptist Church,610 Haynes Ave,Shreveport,LA,71105
Hopewell Baptist Church,2100 C E Galloway Blvd,Shreveport,LA,71104
Ingleside Baptist Church,4000 Velva Ave,Shreveport,LA,71109
Jewell Street Baptist Church,2502 Darien St,Shreveport,LA,71103
Lake Bethlehem Baptist Church,2842 Dr Martin Luther King Dr,Shreveport,LA,71107
Lakeside Baptist Church,722 Grand Ave,Shreveport,LA,71101
Linwood Baptist Church,1622 Midway St,Shreveport,LA,71108
Little Union Baptist Church,1846 Milam St,Shreveport,LA,71103
Mary Evergreen Baptist Church,420 E 85th St,Shreveport,LA,71106
Midway Baptist Church,27264 S Satsuma Rd,Livingston,LA,70754
Morning Star Baptist Church,303 Carol St,Thibodaux,LA,70301
Morningside Baptist Church,8900 Kingston Rd,Shreveport,LA,71118
Mt Canaan Baptist Church,1666 Alston St,Shreveport,LA,71101
Mt Moriah Baptist Church,1076 N 39th St,Baton Rouge,LA,70802
Mt Olive Baptist Church,740 Turner Ln,Shreveport,LA,71106
Mt Olive Mssnry Baptist Church,9860 Greenwood-Springridge Rd,Shreveport,LA,71129
Mt Sinai Baptist Church,1960 Laurel St,Shreveport,LA,71103
New Elizabeth Missionary Bapt,2332 Jewella Ave,Shreveport,LA,71109
New Hope Baptist Church,763 Elmer Rd,Elmer,LA,71424
New Life Baptist Church,1870 Jewella Ave,Shreveport,LA,71109
North Shreve Baptist Church,4930 Old Mooringsport Rd,Shreveport,LA,71107
Northwoods Baptist Church,5924 N Market St,Shreveport,LA,71107
Paige Chapel Baptist Church,7711 Jefferson Paige Rd,Shreveport,LA,71119
Parkview Baptist Church,PO Box 469,Sulphur,LA,70664
Peaceful Rest Baptist Church,8200 Saint Vincent Ave,Shreveport,LA,71106
Pinecroft Baptist Church,8002 Jewella Ave,Shreveport,LA,71108
Pleasant Hill Baptist Church,4670 Lakeshore Dr,Shreveport,LA,71109
Praise Temple Full Gospel Bapt,4725 Greenwood Rd,Shreveport,LA,71109
Providence Baptist Church,11708 Providence Rd,Shreveport,LA,71129
Rose Park Baptist Church,5560 Buncombe Rd,Shreveport,LA,71129
Shreve City Baptist Church,2810 Knight St,Shreveport,LA,71104
Shreveport Baptist Temple,288 Flournoy Lucas Rd,Shreveport,LA,71106
Southside Baptist Church,1700 Lee Dr,Baton Rouge,LA,70808
Springs of Grace Baptist Chr,6300 Hearne Ave,Shreveport,LA,71108
St Rest Baptist Church,PO Box 241,Minden,LA,71058
Steeple Chase Baptist Church,7016 Steeple Chase Plaza Dr,Shreveport,LA,71129
Summer Grove Baptist Church,PO Box 8669,Shreveport,LA,71148
Tabernacle Baptist Church,PO Box 9063,Monroe,LA,71211
Temple Baptist Church,7616 Highway 165 N,Monroe,LA,71203
Trinity Baptist Church,214 Reagan St,West Monroe,LA,71292
Trinity Heights Baptist Church,3820 Old Mooringsport Rd,Shreveport,LA,71107
Union Spring Baptist Church,702 W 71st St,Shreveport,LA,71106
Western Hills Baptist Church,4153 Pines Rd,Shreveport,LA,71119
Westside Baptist Church,1138 Lawless Tauzin Dr,Breaux Bridge,LA,70517
Willow Chute Baptist Church,2645 Dr Martin Luther King Dr,Shreveport,LA,71107
Willow Point Baptist Church,5500 S Lakeshore Dr,Shreveport,LA,71119
Woodridge Baptist Church,850 E Bert Kouns Industrial Loop,Shreveport,LA,71106
Holy Rosary Parish Chr ,1755 Corbitt St,Shreveport,LA,71108
Holy Trinity Catholic Church,PO Box 144,Shreveport,LA,71161
Our Lady of the Blessed Scrmnt,1558 Buena Vista St,Shreveport,LA,71101
Sacred Heart Church,15300 W Main St,Cut Off,LA,70345
Saint John Berchmans Cathedral,939 Jordan St,Shreveport,LA,71101
St Catherine Church,331 E 71st St,Shreveport,LA,71106
St Joseph Catholic Church,PO Box 519,Galliano,LA,70354
St Pius X Catholic Church,6380 Hooper Rd,Baton Rouge,LA,70811
Kings Highway Christian Church,806 Kings Hwy,Shreveport,LA,71104
Southern Hills Chr of Christ,9080 Southwood Dr,Shreveport,LA,71118
University Church of Christ,2045 E 70th St,Shreveport,LA,71105
Church of the Holy Cross,875 Cotton St,Shreveport,LA,71101
St James Episcopal Church,1620 Murray St,Alexandria,LA,71301
St Mark's Episcopal Church,PO Box 4443,Shreveport,LA,71134
St Matthias Episcopal Church,3301 Saint Matthias Dr,Shreveport,LA,71119
St Paul's Episcopal Church,275 Southfield Rd,Shreveport,LA,71105
Huntington Park Chr-the Nzrne,6825 Pines Rd,Shreveport,LA,71129
Oakmont Church of God,PO Box 6019,Shreveport,LA,71136
First Lutheran Church Elca,2115 Line Ave,Shreveport,LA,71104
Holy Trinity Lutheran Church,1 N Marigold Dr,Covington,LA,70433
Our Savior Lutheran Church Mo,2010 Bert Kouns Industrial Loop Expy,Shreveport,LA,71118
Broadmoor United Methodist Chr,10230 Mollylea Dr,Baton Rouge,LA,70815
Cedar Grove United Methodist,6806 Southern Ave,Shreveport,LA,71106
Christ United Methodist Church,1204 Crabapple Dr,Shreveport,LA,71118
Lakeview United Methodist Chr,301 Lakeshore Dr,Minden,LA,71055
Lane Chapel Cme,1007 Norma Ave,Shreveport,LA,71103
Mangum Memorial United Meth,3939 Pines Rd,Shreveport,LA,71119
Morningside United Methodist,5500 Hearne Ave,Shreveport,LA,71108
Noel Memorial United Meth Chr,520 Herndon St,Shreveport,LA,71101
North Highlands United Meth,835 Poleman Rd,Shreveport,LA,71107
St James United Methodist Chr,850 Hope St,Shreveport,LA,71101
St Luke United Methodist Chr,6012 Youree Dr,Shreveport,LA,71105
St Paul United Methodist Chr,1001 Pierre Ave,Shreveport,LA,71103
Summer Grove United Methodist,9119 Dean Rd,Shreveport,LA,71118
Williams Memorial Cme Temple,1501 Peabody St,Shreveport,LA,71103
Christian Center of Shreveport,207 Idema St,Shreveport,LA,71106
Church at Red River,PO Box 52746,Shreveport,LA,71135
End Time Harvester Church,PO Box 37531,Shreveport,LA,71133
Faith Tabernacle Church,4901 Pine Hill Rd,Shreveport,LA,71107
Fountain of Life Christian Ctr,7340 Union Ave,Shreveport,LA,71106
New Creation Family Church,8410 Kingston Rd,Shreveport,LA,71108
Project Love Chr-Jesus Christ,6035 Fairfield Ave,Shreveport,LA,71106
Shreveport Christian Church,900 Francais Dr,Shreveport,LA,71118
Word of Faith Church Intl,PO Box 17858,Shreveport,LA,71138
St George Greek Orthodox,1719 Creswell Ave,Shreveport,LA,71101
Assembly of God Glad Tidings,8957 Kingston Rd,Shreveport,LA,71118
Broadmoor Assembly of God,8925 Youree Dr,Shreveport,LA,71115
Bryant's Temple Chr-God-Christ,6805 W Canal Blvd,Shreveport,LA,71108
Church of the Living God,1634 Alma St,Shreveport,LA,71108
First Assembly of God,715 Cypress St,West Monroe,LA,71291
New Testament United Pntcstl,PO Box 37471,Shreveport,LA,71133
Temple of Deliverance Full,361 E 70th St,Shreveport,LA,71106
Word of Life Ctr,PO Box 18862,Shreveport,LA,71138
Broadmoor Presbyterian Church,9340 Florida Blvd,Baton Rouge,LA,70815
First Presbyterian Church,1041 9th St,Slidell,LA,70458
Faith Church Of God,7701 Saint Vincent Ave,Shreveport,LA,71106
Blanchard Church Of Christ,117 Williams St,Shreveport,LA,71107
Midway Church Of Christ,83359 Highway 25,Folsom,LA,70437
Queensboro Church Of Christ,1819 Jewella Ave,Shreveport,LA,71109
Oakmont Church Of God,5925 W 70th St,Shreveport,LA,71129
Northview Assembly Of God,3627 N Market St,Shreveport,LA,71107
Crossroads Assembly Of God,356 W Warriner Ave,Shreveport,LA,71107
Fellowship Assembly Of Christ,5907 King St,Shreveport,LA,71129
Queensborough Church Of God,1260 Jewella Ave,Shreveport,LA,71109
Bethel Assembly Of God,4813 Hadley St,Monroe,LA,71202
Anglican Church Of Epiphany,9391 Ellerbe Rd,Shreveport,LA,71106
Catholic Diocese Of Shreveport,1000 Fairview St,Shreveport,LA,71104
Unity Church Of Shreveport,670 Stoner Ave,Shreveport,LA,71101
Word Of Faith Church Of God,1800 Perrin St,Shreveport,LA,71101
Abounding Faith Temple,3008 W 70th St,Shreveport,LA,71108
Abundance Of Life Church-god,2553 Lindholm St,Shreveport,LA,71108
Abundant Life Christian Church,2835 Hollywood Ave,Shreveport,LA,71108
Abundant Life Full Gospel Bapt,611 E 71st St,Shreveport,LA,71106
Advanced Chiropractic,1953 E 70th St,Shreveport,LA,71105
Ageless Beauty Laser ,7330 Fern Ave,Shreveport,LA,71105
Agudath Achim Synagogue,9401 Village Green Dr,Shreveport,LA,71115
All Saint's Church-reformed,9051 Youree Dr,Shreveport,LA,71115
All Souls Unitarian Church,9449 Ellerbe Rd,Shreveport,LA,71106
Apostolic Faith Tabernacle,9204 Youree Dr,Shreveport,LA,71115
Ar ,7025 Greenwood Rd,Shreveport,LA,71119
Artis Cash Ministries,8856 Youree Dr,Shreveport,LA,71115
Agape Baptist Church,25353 Walker South Rd,Denham Springs,LA,70726
Amite Baptist Church,7100 Amite Church Rd,Denham Springs,LA,70706
Denham Springs First Bapt Chr,308 N River Rd,Denham Springs,LA,70726
Don Avenue Baptist Day Care,1010 Don Ave,Denham Springs,LA,70726
Eden Baptist Church Sbc,PO Box 27,Denham Springs,LA,70727
Hebron Baptist Church,79614 Highway 41,Bush,LA,70431
Live Oak Baptist Church,3968 Highway 665,Montegut,LA,70377
Mount Olive Baptist Church,PO Box 1036,Gray,LA,70359
Northside Baptist Church,2400 Debra Dr,Baker,LA,70714
Plain View Baptist Church,25171 Joe May Rd,Denham Springs,LA,70726
Riverside Baptist Church,36890 La Highway 16,Denham Springs,LA,70706
Immaculate Conception Catholic,PO Box 1609,Denham Springs,LA,70727
St Francis Episcopal Daycare,PO Box 694,Denham Springs,LA,70727
Robert United Methodist Church,PO Box 193,Denham Springs,LA,70727
First United Pentecostal Chr,2229 Highway 3185,Thibodaux,LA,70301
Glory Of God Worship Center,1114 Rodeo Dr,Denham Springs,LA,70726
River Of Life Worship Center,18295 La Highway 16,Denham Springs,LA,70726
Chapelwood Church Of God,2119 Tower St,Denham Springs,LA,70726
Apostolic Assembly Of Christ,48123 Highway 16,Denham Springs,LA,70706
Apostolic Church Of Jesus,8036 Lockhart Rd,Denham Springs,LA,70726
Accountability Church,33719 La Highway 16,Denham Springs,LA,70706
Advance Kingdom,36242 Cane Market Rd,Denham Springs,LA,70706
Andrew United Methodist Church,41600 La Highway 16,Denham Springs,LA,70706
Agape Missionary Baptist Chr,1689 75th Ave,Baton Rouge,LA,70807
Belfair Baptist Church,4444 Fairfields Ave,Baton Rouge,LA,70802
Brownfields Baptist Academy,11998 Plank Rd,Baton Rouge,LA,70811
Cedarcrest Baptist Church,2020 Cedarcrest Ave,Baton Rouge,LA,70816
Comite Baptist Church,12250 Greenwell Springs Rd,Baton Rouge,LA,70814
Community Bible Baptist Church,1729 Monte Sano Ave,Baton Rouge,LA,70807
Cross Point Baptist Church,14965 Airline Hwy,Baton Rouge,LA,70817
Douglas Avenue Baptist Church,5265 Douglas Ave,Baton Rouge,LA,70805
Ebenezer Baptist Church,160 Tyler St,Baton Rouge,LA,70802
Elm Grove Baptist Church,1069 N 38th St,Baton Rouge,LA,70802
Fairview Baptist Church,1636 Braddock St,Baton Rouge,LA,70802
Faith Baptist Church,15880 Plank Rd,Baker,LA,70714
First Baptist Church Central,9676 Sullivan Rd,Baton Rouge,LA,70818
Florida Boulevard Baptist Chr,10915 Florida Blvd,Baton Rouge,LA,70815
Foster Road Baptist Church,11333 Foster Rd,Baton Rouge,LA,70811
Friendship Chapel Baptist Chr,2111 North St,Baton Rouge,LA,70802
Goodwood Baptist Church,7125 Goodwood Ave,Baton Rouge,LA,70806
Greater Beach Grove Baptist,PO Box 75328,Baton Rouge,LA,70874
Greater King David Baptist Chr,911 Lobdell Ave,Baton Rouge,LA,70806
Greater Mount Carmel Baptist,1414 Sora St,Baton Rouge,LA,70807
Greater Mt Gideon Baptist Chr,205 Alice St,Baton Rouge,LA,70802
Greater Mt Olive Baptist Chr,3155 Victoria Dr,Baton Rouge,LA,70805
Greater New Galilee Baptist,PO Box 74162,Baton Rouge,LA,70874
Greater Risen Sun Baptist Chr,6444 Blackberry St,Baton Rouge,LA,70806
Greater St John Baptist Church,307 E Washington St,Baton Rouge,LA,70802
Hooper Road Baptist Church,8767 Gov Claiborne Dr,Baton Rouge,LA,70811
Immanuel Baptist Church,62160 Airport Rd,Slidell,LA,70460
Israelite Baptist Church,425 N Ave E,Crowley,LA,70526
Istrouma Baptist Church,10500 Sam Rushing Dr,Baton Rouge,LA,70816
Jefferson Baptist Church,9135 Jefferson Hwy,Baton Rouge,LA,70809
Lanier Baptist Church,4851 Lanier Dr,Baton Rouge,LA,70812
Little Zion Baptist Church,1909 Rhodes Ave,Baton Rouge,LA,70802
Magnolia Baptist Church,960 E Buchanan St,Baton Rouge,LA,70802
Mt Pilgrim Baptist Church,410 East St,Houma,LA,70363
Mt Zion First Baptist Church,356 East Blvd,Baton Rouge,LA,70802
New Ark Baptist Church,1344 Terrace Ave,Baton Rouge,LA,70802
New Freedom Missionary Baptist,388 N Beck St,Baton Rouge,LA,70806
New Jerusalem Faith Fellowship,960 N 46th St,Baton Rouge,LA,70802
New St John Missionary Baptist,1455 South St,Baton Rouge,LA,70802
New Sunlight Baptist Church,515 V E Washington Ave,Lake Charles,LA,70601
Oakcrest Baptist Church,8837 Greenwell Springs Rd,Baton Rouge,LA,70814
Promise Land Baptist Church,7234 Plank Rd,Baton Rouge,LA,70811
Rock Zion Baptist Church,3741 Adams Ave,Baton Rouge,LA,70802
Sherwood Baptist Church,1180 S Flannery Rd,Baton Rouge,LA,70815
St Mark's Missionary Baptist,11806 Kingston Dr,Baton Rouge,LA,70807
St Mary Baptist Church,6223 6th Ave,Marrero,LA,70072
Stevendale Baptist Church,16545 Old Hammond Hwy,Baton Rouge,LA,70816
True Light Baptist Church,3762 North St,Baton Rouge,LA,70806
True Love Baptist Church,2143 Curtis St,Baton Rouge,LA,70807
Unity Baptist Church,1401 Pine St,Lake Charles,LA,70601
University Baptist Ch-Chld Dev,203 Leeward Dr,Baton Rouge,LA,70808
Winbourne Avenue Baptist Chr,4829 Winbourne Ave,Baton Rouge,LA,70805
Woodlawn Baptist Church,5805 Jones Creek Rd,Baton Rouge,LA,70817
Zoar Baptist Church,11848 Hooper Rd,Baton Rouge,LA,70818
Catholic Student Ctr,PO Box 25131,Baton Rouge,LA,70894
Most Blessed Sacrament Church,7853 Broker Ave,Baton Rouge,LA,70817
Our Lady of Mercy Catholic Chr,445 Marquette Ave,Baton Rouge,LA,70806
Sacred Heart Catholic Church,1102 Mill St,Lake Charles,LA,70601
St Aloysius Catholic Church,2025 Stuart Ave,Baton Rouge,LA,70808
St Anthony Catholic Church,PO Box 31,Eunice,LA,70535
St Francis Xavier Catholic Chr,1143 S 11th St,Baton Rouge,LA,70802
St George Catholic Church,7808 Saint George Dr,Baton Rouge,LA,70809
St Gerald Majella Catholic Chr,3808 Saint Gerard Ave,Baton Rouge,LA,70805
St Gerard Catholic Church,5252 Maple Dr,Baton Rouge,LA,70805
St Jean Vianney Catholic Chr,16166 S Harrells Ferry Rd,Baton Rouge,LA,70816
St Joseph Cathedral,412 North St,Baton Rouge,LA,70802
St Jude Catholic Church,3800 Viking Dr,Bossier City,LA,71111
St Patrick's Catholic Church,12424 Brogdon Ln,Baton Rouge,LA,70816
St Paul's Catholic Church,3912 Gus Young Ave,Baton Rouge,LA,70802
St Thomas More Catholic Church,11441 Goodwood Blvd,Baton Rouge,LA,70815
First Christian Church,1401 Argin Dr,Sulphur,LA,70663
Church of Christ-Goodwood Blvd,PO Box 15582,Baton Rouge,LA,70895
Church of Christ-S Baton Rouge,8725 Jefferson Hwy,Baton Rouge,LA,70809
Goodwood Church of Christ,PO Box 11582,Baton Rouge,LA,70813
St Margaret's Episcopal Church,12663 Perkins Rd,Baton Rouge,LA,70810
First Church of the Nazarene,9955 Old Hammond Hwy,Baton Rouge,LA,70816
Salvation Army,PO Box 4148,Baton Rouge,LA,70821
Community Bible Church,PO Box 307,Cut Off,LA,70345
Grace Life Fellowship,10051 Siegen Ln,Baton Rouge,LA,70810
B'Nai Israel Synagogue,3354 Kleinert Ave,Baton Rouge,LA,70806
Lutheran Church Our Saviour,3555 Jones Creek Rd,Baton Rouge,LA,70816
Church of Scientology,102 Huggins Rd,Lafayette,LA,70506
Unitarian Church,8470 Goodwood Blvd,Baton Rouge,LA,70806
Allen Chapel African Methodist,6175 Scenic Hwy,Baton Rouge,LA,70805
Bethel Ame Church,1358 South St,Baton Rouge,LA,70802
Camphor Memorial United Meth,8742 Scenic Hwy,Baton Rouge,LA,70807
Jefferson United Methodist Chr,3828 Leila Pl,Jefferson,LA,70121
St Andrews United Meth Church,17510 Monitor Ave,Baton Rouge,LA,70817
St Mark United Methodist Chr,PO Box 75208,Baton Rouge,LA,70874
University United Methodist,3501 Patrick St,Lake Charles,LA,70605
Wesley United Methodist Church,423 Live Oak St,Sulphur,LA,70663
Baton Rouge Family History Ctr,10335 Highland Rd,Baton Rouge,LA,70810
All Faiths Christian Ctr,PO Box 53854,Baton Rouge,LA,70892
Chapel On the Campus,3355 Dalrymple Dr,Baton Rouge,LA,70802
Church Point Ministries,PO Box 52951,Baton Rouge,LA,70892
Cornerstone Gyc Ministries,PO Box 4442,Baton Rouge,LA,70821
Family Worship Ctr,PO Box 5336,Bossier City,LA,71171
First New Testament Church,3235 Aubin Ln,Baton Rouge,LA,70816
Higher Ground Outreach,5373 Choctaw Dr,Baton Rouge,LA,70805
House of God Ministry,PO Box 65316,Baton Rouge,LA,70896
Interdenominational Faith,5045 Greenwell St,Baton Rouge,LA,70805
Oasis Christian Church,4524 E Brookstown Dr,Baton Rouge,LA,70805
Redeeming Word of Life Church,871 O'Neal Ln,Baton Rouge,LA,70816
Victory Harvest Church,3953 N Flannery Rd,Baton Rouge,LA,70814
Full Gospel United Pentecostal,PO Box 74343,Baton Rouge,LA,70874
Hosanna First Assembly,8850 Goodwood Blvd,Baton Rouge,LA,70806
Life Tabernacle Church,PO Box 74337,Baton Rouge,LA,70874
Living Faith Christian Ctr,PO Box 53009,Baton Rouge,LA,70892
Maranatha Church of God,1433 Sharp Ln,Baton Rouge,LA,70815
Ministry of Love,5956 Hooper Rd,Baton Rouge,LA,70811
North Boulevard Macadonia Full,2342 North Blvd,Baton Rouge,LA,70806
Vineyard Christian Fellowship,PO Box 446,Kenner,LA,70063
Voice of Pentecost,10770 Greenwell Springs Rd,Baton Rouge,LA,70814
World Shakers Church Intl,851 N 48th St,Baton Rouge,LA,70802
Faith Presbyterian Church,12855 Old Hammond Hwy,Baton Rouge,LA,70816
Presbyterian Child Dvlpmnt Ctr,763 North Blvd,Baton Rouge,LA,70802
University Presbyterian Church,3240 Dalrymple Dr,Baton Rouge,LA,70802
World Link Of Churches,928 Rodin Dr,Baton Rouge,LA,70806
New City Of Zion Church Of God,5272 Underwood Ave,Baton Rouge,LA,70805
Mary's House Of Bread,11558 Plank Rd,Baton Rouge,LA,70811
Comite Church Of Christ,12228 Hooper Rd,Baton Rouge,LA,70818
Eckankar Religion Of Light,149 Cora Dr,Baton Rouge,LA,70815
Higher Grounds International Worship,5664 Jones Creek Rd,Baton Rouge,LA,70817
Church Of God Of Prophecy,39044 Saint Paul Dr,Pearl River,LA,70452
Unity Church Of Christianity,15255 Jefferson Hwy,Baton Rouge,LA,70817
Hour Of Power Family Worship,9130 Scenic Hwy,Baton Rouge,LA,70807
Stockwell's Deal Of Day,2418 Oakcliff Dr,Baton Rouge,LA,70810
Worldwide Church Of God,4461 Bankers Ln,Baton Rouge,LA,70817
First Church Of Christ Science,601 Park Blvd,Baton Rouge,LA,70806
Baha'i Faith Of Baton Rouge,4270 Perkins Rd,Baton Rouge,LA,70808
Islamic Center Of Baton Rogue,285 E Airport Ave,Baton Rouge,LA,70806
Area Offices United Mthdst Chr,527 North Blvd,Baton Rouge,LA,70802
Xyz Center,919 America St,Baton Rouge,LA,70802
Gethsemane Baptist Church,1101 America St,Baton Rouge,LA,70802
Missionaries Of Charity,737 East Blvd,Baton Rouge,LA,70802
St Agnes Catholic Church,749 East Blvd,Baton Rouge,LA,70802
New St Luke Baptist Church,538 South Blvd,Baton Rouge,LA,70802
Shiloh Baptist Church Nursery,185 Eddie Robinson Sr Dr,Baton Rouge,LA,70802
Liberty Chapel Baptist Church,720 South Blvd,Baton Rouge,LA,70802
New Salem Baptist Church,318 Eddie Robinson Sr Dr,Baton Rouge,LA,70802
Monastery Of Mary Church,220 Saint Vincent de Paul Dr,Baton Rouge,LA,70802
Rose Of Sharon Missionary Bapt,1553 Florida Blvd,Baton Rouge,LA,70802
Star Of Bethlehem Baptist Chr,1204 Saint Joseph St,Baton Rouge,LA,70802
First Little Rock Baptist Chr,312 S 17th St,Baton Rouge,LA,70802
Jehovah Jireh Ministries,1700 North Blvd,Baton Rouge,LA,70802
Mt Pleasant Baptist Church,585 Mt Pleasant Rd,West Monroe,LA,71292
St Paul Missionary Baptist Chr,1334 Napoleon St,Baton Rouge,LA,70802
St Francis Xavier Catholic Church,1134 Julia St,Baton Rouge,LA,70802
St Francis Xavier Catholic School,1150 S 12th St,Baton Rouge,LA,70802
Greater New Bethel Baptist Chr,110 S 19th St,Baton Rouge,LA,70806
Greater Pleasant Green Bapt,1441 Napoleon St,Baton Rouge,LA,70802
El Shaddai Ministries,254 S 19th St,Baton Rouge,LA,70806
Southern Christian Leadershiop,1174 Terrace Ave,Baton Rouge,LA,70802
House Of Refuge Ministries,1509 Highland Rd,Baton Rouge,LA,70802
Living Word Church,109 Valhi Blvd,Houma,LA,70360
Pleasant Green Baptist Church,364 Howard St,Baton Rouge,LA,70802
Pine Prairie Church Of Christ,1122 Hickory St,Baton Rouge,LA,70802
First Emmanuel Baptist Church,575 Education St,Baton Rouge,LA,70802
New Jerusalem Baptist Church,1627 Thomas H Delpit Dr,Baton Rouge,LA,70802
Little Rising Sun Baptist Church,1257 S 16th St,Baton Rouge,LA,70802
Mckowen Baptist Church,1255 Louise St,Baton Rouge,LA,70802
Little Rising Sun Baptist Chr,1275 S 16th St,Baton Rouge,LA,70802
New Bethal Bapt Chr Day Care,1540 Matilda St,Baton Rouge,LA,70802
Jehovah's Witnesses,401 S 22nd St,Baton Rouge,LA,70806
First Damascus Baptist Church,155 W Washington St,Baton Rouge,LA,70802
Neely United Methodist Church,1755 Thomas H Delpit Dr,Baton Rouge,LA,70802
Greater St Luke Baptist Church,132 N 23rd St,Baton Rouge,LA,70806
St Luke Baptist Church,240 Van Buren St,Baton Rouge,LA,70802
Greater St James Baptist Chr,1627 N 44th St,Baton Rouge,LA,70802
Islamic Complex,740 E Washington St,Baton Rouge,LA,70802
New Beginnings Ministries,1901 N 18th St,Baton Rouge,LA,70802
Calvary Third Baptist Church,1911 Georgia St,Baton Rouge,LA,70802
Second Macedonia Baptist Chr,841 N 24th St,Baton Rouge,LA,70802
Heard Chapel Ame Church,2019 Colorado St,Baton Rouge,LA,70802
First Alpine Baptist Church,1855 Chestnut St,Baton Rouge,LA,70802
New Canaan Baptist Church,2160 Highland Rd,Baton Rouge,LA,70802
Donaldson Chapel Baptist Chr,2501 Gracie St,Baton Rouge,LA,70802
Donaldson Chapel,2435 Gracie St,Baton Rouge,LA,70802
Grace ,5735 Berkshire Ave,Baton Rouge,LA,70806
New Creation Word-faith Chrstn,1934 Scenic Hwy,Baton Rouge,LA,70802
Healing Waters Ministry Otrch,1727 Plank Rd,Baton Rouge,LA,70802
Sweethome Baptist Church,343 W Buchanan St,Baton Rouge,LA,70802
Greater Beulah Baptist Church,955 E Polk St,Baton Rouge,LA,70802
Faith Ame Zion Church,2364 Thomas H Delpit Dr,Baton Rouge,LA,70802
New Covenant Christian Center,2540 Nicholson Dr,Baton Rouge,LA,70802
Mt Gillion Baptist Church,346 E Buchanan St,Baton Rouge,LA,70802
Charity Christian Center,650 W McKinley St,Baton Rouge,LA,70802
Mt Aaron Baptist Church,1021 N 30th St,Baton Rouge,LA,70802
Interfaith Federation-greater,3112 Convention St,Baton Rouge,LA,70806
St Joseph Baptist Church,2510 Tennessee St,Baton Rouge,LA,70802
Mt Calvary Baptist Church,PO Box 325,Chauvin,LA,70344
Spurlock Emmitt Reverend,3104 Slate St,Baton Rouge,LA,70802
Children In God Baptist Church,2166 Monroe Ave,Baton Rouge,LA,70802
Rose Hill Missionary Baptist,1384 W Grant St,Baton Rouge,LA,70802
First Baptist Church-richmond,3115 Newton St,Baton Rouge,LA,70802
Love Church Church-god-christ,2580 Scenic Hwy,Baton Rouge,LA,70805
St Joseph's Spirituality Center,2980 Kleinert Ave,Baton Rouge,LA,70806
Second Baptist Church Annex,902 N Acadian Thruway W,Baton Rouge,LA,70802
Second Baptist Christian Acad,910 N Acadian Thruway W,Baton Rouge,LA,70802
Green's Chapel Ame Church,1251 N Acadian Thruway W,Baton Rouge,LA,70802
Church Of Christ,424 N 14th St,Port Allen,LA,70767
King Of Kings Revival Ministry,1402 N Acadian Thruway W,Baton Rouge,LA,70802
Power ,1215 N Acadian Thruway E,Baton Rouge,LA,70802
Deggs Louis S,1608 N 32nd St,Baton Rouge,LA,70802
Hall Of Faith Church,2567 Osceola St,Baton Rouge,LA,70805
Shekinah Glory Ministries,3613 Government St,Baton Rouge,LA,70806
Family Heath Center,3801 North Blvd,Baton Rouge,LA,70806
Mt Herman Baptist Church,321 George St,Westwego,LA,70094
Hughes United Methodist Church,802 N 38th St,Baton Rouge,LA,70802
Sisters Of St Joseph-nedaille,3134 Hundred Oaks Ave,Baton Rouge,LA,70808
Islamic Center,820 W Chimes St,Baton Rouge,LA,70802
Community Baptist Church,164 Defreese Rd,West Monroe,LA,71291
2Nd Commandment Church,1000 N 39th St,Baton Rouge,LA,70802
New Home Ministries Sign Line,3001 Tecumseh St,Baton Rouge,LA,70805
New Home Family Worship Center,3000 Tecumseh St,Baton Rouge,LA,70805
Greater St Michael Baptist Chr,1619 N 37th St,Baton Rouge,LA,70802
Life Church Of Baton Rouge,4025 Florida Blvd,Baton Rouge,LA,70806
Greater New Guide-clothes,2224 N Acadian Thruway W,Baton Rouge,LA,70802
Chi Alpha Campus Ministry,3321 Highland Rd,Baton Rouge,LA,70802
Louisiana Conference Of Catholic Bishops,3423 Hundred Oaks Ave,Baton Rouge,LA,70808
Greater New Guide Learning,3328 Adams Ave,Baton Rouge,LA,70802
Chapel Of Cross Luth Chr,3235 Dalrymple Dr,Baton Rouge,LA,70802
Grace Baptist Church,630 Richland Ave,Baton Rouge,LA,70806
St Paul's Reformed Episcopal Church,333 E Chimes St,Baton Rouge,LA,70802
Catholic Diocese-baton Rouge,1800 S Acadian Thruway,Baton Rouge,LA,70808
Union Grove Baptist Church,327 Tuscaloosa Ave,Baton Rouge,LA,70806
Catholic Diocese Of Baton Rouge Tracy Center Bishop Robert E,1850 S Acadian Thruway,Baton Rouge,LA,70808
Church Of Jesus Christ Of Lds,3345 Dalrymple Dr,Baton Rouge,LA,70802
Greater New Guide Baptist Chr,3445 Fairfields Ave,Baton Rouge,LA,70802
Holy Spirit Mssnry Baptist Chr,3010 Plank Rd,Baton Rouge,LA,70805
Christ King Catholic Chr,11 Fraternity Ln,Baton Rouge,LA,70893
Grace Awakening Ministry,4242 Government St,Baton Rouge,LA,70806
Christland Christian Community,2708 N Acadian Thruway W,Baton Rouge,LA,70805
Miracle Temple Church Of God,4184 Billops St,Baton Rouge,LA,70802
Ingleside United Methodist Chr,4264 Capitol Heights Ave,Baton Rouge,LA,70806
St Peter Baptist Church,4051 Noah St,Baton Rouge,LA,70802
Jehovah Ministry,3352 Wenonah St,Baton Rouge,LA,70805
Radio Bible Courses Ltd,25301 PO Box,Baton Rouge,LA,0
North Baton Rouge Chr-christ,4405 Hatcher Ave,Baton Rouge,LA,70806
Holy Ghost Temple Cogic,1428 N 43rd St,Baton Rouge,LA,70802
Way Of Holiness Miracle Temple,3345 Plank Rd,Baton Rouge,LA,70805
St James Baptist Church,1105 N 44th St,Baton Rouge,LA,70802
Louisiana Conference-catholic,66791 PO Box,Baton Rouge,LA,0
Fruit Of Spirit Ministries,3338 Plank Rd,Baton Rouge,LA,70805
Church Of Lord Jesus Chrst,3640 Osceola St,Baton Rouge,LA,70805
Faith Hope ,4055 Choctaw Dr,Baton Rouge,LA,70805
Greater St Paul Baptist Church,1724 Rev Manuel St,Port Allen,LA,70767
Nolan C Reverend,835 N 48th St,Baton Rouge,LA,70802
Institute Of Divine Mtphyscl,4109 Choctaw Dr,Baton Rouge,LA,70805
Church Of God,3135 Ozark St,Baton Rouge,LA,70805
Cathedral Of Faith Outreach,3053 Oswego St,Baton Rouge,LA,70805
New Galilee Baptist Church,954 N 48th St,Baton Rouge,LA,70802
Faith Family Bible Church,1201 N 47th St,Baton Rouge,LA,70802
Ambassador Missionary Bapt Chr,977 N 48th St,Baton Rouge,LA,70802
Macedonia Missionary Bapt Chr,2800 Wyandotte St,Baton Rouge,LA,70805
House Of God Minsitries,2151 Glenmore Ave,Baton Rouge,LA,70808
Faith City International Ministries,3680 Plank Rd,Baton Rouge,LA,70805
Straight Life Baptist Church,3891 Pocasset St,Baton Rouge,LA,70805
St James Missionary Bapt Chr,1347 N 49th St,Baton Rouge,LA,70802
Berean Seventh Day Adventist,4555 Fairfields Ave,Baton Rouge,LA,70802
Church Of Way Presbyterian,250 S Foster Dr,Baton Rouge,LA,70806
Trinity Episcopal Day School,3550 Morning Glory Ave,Baton Rouge,LA,70808
New Freedom Baptist Church,2909 Winnebago St,Baton Rouge,LA,70805
Resurrection Life Assembly-god,3884 Geronimo St,Baton Rouge,LA,70805
Plainview Church Of Christ Holiness,1111 N Foster Dr,Baton Rouge,LA,70806
Star Hill Baptist Church,1400 N Foster Dr,Baton Rouge,LA,70806
Rose Hill Baptist Church,3765 N Acadian Thruway,Baton Rouge,LA,70805
Cathedral Of Faith Ministry,2681 Valley St,Baton Rouge,LA,70808
Good Shepherd Baptist Church,2863 Mission Dr,Baton Rouge,LA,70805
Good Shepherd Prayer Line,2873 Mission Dr,Baton Rouge,LA,70805
Little Rock Missionary Bapt,2585 Sherwood St,Baton Rouge,LA,70805
Baton Rouge District United Mthdst,2644 Sherwood St,Baton Rouge,LA,70805
My Father's House Mnstrs Chr,2961 Addison St,Baton Rouge,LA,70805
Morning Star A Full Gospel Baptist Church,2261 Balis Dr,Baton Rouge,LA,70808
New Gideon Baptist Church,2552 Balis Dr,Baton Rouge,LA,70808
St Alban's Chapel,618 Lsu Ave,Baton Rouge,LA,70808
Lsu Christian Student Center,151 W Parker Blvd,Baton Rouge,LA,70808
Redeeming Love Ministries,4226 Plank Rd,Baton Rouge,LA,70805
Open Faith Tabernacle,3580 Wayne Dr,Baton Rouge,LA,70805
Jesus Living Word Ministry,2475 Barber St,Baton Rouge,LA,70808
Baton Rouge Spanish Sda Church,5100 Osborne Ave,Baton Rouge,LA,70805
Cornerstone International,3609 Prescott Rd,Baton Rouge,LA,70805
Guiding Hands To God,2121 College Dr,Baton Rouge,LA,70808
Hispanic Ministry,5850 Florida Blvd,Baton Rouge,LA,70806
Sisters Of St Joseph-medaille,4664 Jamestown Ave,Baton Rouge,LA,70808
Cornerstone Chapel,4724 Jamestown Ave,Baton Rouge,LA,70808
Baton Rouge Greater First,3674 Clayton Dr,Baton Rouge,LA,70805
Harvest Life Center,3688 Clayton Dr,Baton Rouge,LA,70805
Now Faith Cogic,4350 Mohican-Prescott Crossover,Baton Rouge,LA,70805
New Hope Baptist Chr-rel Ed,5925 Greenwell Springs Rd,Baton Rouge,LA,70806
St Garabed Armeinan Chr-la,6208 Florida Blvd,Baton Rouge,LA,70806
Southside Baptist Church Missionary Residence,4613 Palm St,Baton Rouge,LA,70808
Abounding Love Ministries,7076 Hooper Rd,Baton Rouge,LA,70811
Abundant Life Homes Louisiana,942 McLemore Dr,Baton Rouge,LA,70816
Abundant Life Tabernacle,4025 Denham St,Baton Rouge,LA,70805
Acts,6892 Hooper Rd,Baton Rouge,LA,70811
All Faiths Christian Center,7760 Mickens Rd,Baton Rouge,LA,70811
Ame Services,11760 S Harrells Ferry Rd,Baton Rouge,LA,70816
Antioch Family Church,11940 Industriplex Blvd,Baton Rouge,LA,70809
Apartment Ministry,6011 Parkview Church Rd,Baton Rouge,LA,70816
Architectural Pre Cast,14757 S Harrells Ferry Rd,Baton Rouge,LA,70816
Arise Ministries,185 Bellewood Dr,Baton Rouge,LA,70806
Ark Of Safety Ministries,6867 Van Gogh Ave,Baton Rouge,LA,70806
Airline Baptist Chr Child Dev,4007 Airline Dr,Bossier City,LA,71111
Barksdale Baptist Church,2535 Barbara St,Bossier City,LA,71112
Bellaire Baptist Chr,1210 Bellaire Blvd,Bossier City,LA,71112
Bossier Baptist Church,809 Hamilton Rd,Bossier City,LA,71111
Central Baptist Church,504 W Church St,Springhill,LA,71075
First Baptist Church-Bossier,2810 E Texas St,Bossier City,LA,71111
Greenacres Baptist Church,PO Box 72633,Bossier City,LA,71172
Heritage Baptist Church,5580 Barksdale Blvd,Bossier City,LA,71112
Shady Grove Baptist Church,16443 Plank Rd,Baker,LA,70714
South Bossier Baptist Mission,1155 Sligo Rd,Bossier City,LA,71112
Stonewall Baptist Church,807 Eatman St,Bossier City,LA,71111
Sunflower Baptist Church,329 E Texas St,Bossier City,LA,71111
Waller Baptist Church,456 Waller Ave,Bossier City,LA,71112
Christ the King Church,425 McCormick St,Bossier City,LA,71111
Mary Queen of Peace Catholic,2101 Hope St,Bossier City,LA,71112
Airline Drive Chr of Christ,2125 Airline Dr,Bossier City,LA,71111
Open Door Bible Church,950 Swan Lake Rd,Bossier City,LA,71111
Immanuel Lutheran Church,2565 Airline Dr,Bossier City,LA,71111
Bridge Of Hope Worship Center,2438 E Texas St,Bossier City,LA,71111
Bossier Church Of Nazarene,535 Modica St,Bossier City,LA,71112
Three Wisemen Of Bethlehem,2950 E Texas St,Bossier City,LA,71111
Saviors House Of Prayer,401 Hamilton Rd,Bossier City,LA,71111
Miracles Temple Of Deliverance,517 Barksdale Blvd,Bossier City,LA,71111
Agape Faith Ministries,2329 Broadway Dr,Bossier City,LA,71111
Airline Baptist Church,421 N Lester Ave,Metairie,LA,70003
Bridgedale Baptist Church,313 Kent Ave,Metairie,LA,70001
Crescent City Baptist Child,4828 Utica St,Metairie,LA,70006
Crescent City Baptist Church,2701 Transcontinental Dr,Metairie,LA,70006
Highland Baptist Church,1509 Arkansas Rd,West Monroe,LA,71291
Memorial Baptist Church,5701 Veterans Memorial Blvd,Metairie,LA,70003
Metairie Baptist Church,401 Codifer Blvd,Metairie,LA,70005
Rising Star Baptist Church,1350 S Laurel St,Metairie,LA,70003
Our Lady of Divine Providence,1000 N Starrett Rd,Metairie,LA,70003
St Angela Merici Church,901 Beverly Garden Dr,Metairie,LA,70002
St Ann Church ,4920 Loveland St,Metairie,LA,70006
St Benilde Church,1901 Division St,Metairie,LA,70001
St Catherine of Siena,105 Bonnabel Blvd,Metairie,LA,70005
St Christopher's Church,309 Manson Ave,Metairie,LA,70001
St Edward the Confessor Church,4921 W Metairie Ave,Metairie,LA,70001
St Francis Xavier,444 Metairie Rd,Metairie,LA,70005
St Lawrence the Martyr,2525 Maine Ave,Metairie,LA,70003
St Louis King of France,1609 Carrollton Ave,Metairie,LA,70005
St Mary Magdalen Church,6425 W Metairie Ave,Metairie,LA,70003
St Philip Neri Church,6500 Kawanee Ave,Metairie,LA,70003
St Augustine's Episcopal Chr,3412 Haring Rd,Metairie,LA,70006
St Martin's Episcopal Church,2216 Metairie Rd,Metairie,LA,70001
Fellowship Bible Church,4600 Clearview Pky,Metairie,LA,70006
Atonement Lutheran Church,6500 Riverside Dr,Metairie,LA,70003
Mt Olive Lutheran Church,315 Ridgelake Dr,Metairie,LA,70001
Munholland United Methodist,1201 Metairie Rd,Metairie,LA,70005
St Matthew's Early Learning,6017 Camphor St,Metairie,LA,70003
Celebration Church,2001 Airline Dr,Metairie,LA,70001
First Assembly of God Church,605 S College Rd,Lafayette,LA,70503
New Life Tabernacle,PO Box 767,Metairie,LA,70004
Victory Fellowship,5708 Airline Dr,Metairie,LA,70003
Good Shepherd United Church,5122 W Esplanade Ave,Metairie,LA,70006
Grace Presbyterian Church,518 Roselawn Blvd,Lafayette,LA,70503
John Calvin Presbyterian Chr,4201 Transcontinental Dr,Metairie,LA,70006
Metairie Ridge Presbyterian,215 Phosphor Ave,Metairie,LA,70005
Parkway Presbyterian Church,6200 Camphor St,Metairie,LA,70003
Sounds Of Worship Center,3540 18th St,Metairie,LA,70002
First Assembly Of God,16976 Highway 90,Des Allemands,LA,70030
Second House Of Prayer,1634 S Arnoult Rd,Metairie,LA,70001
St Catherine Of Siena,400 Codifer Blvd,Metairie,LA,70005
Unity Church Of Metairie,3939 Veterans Memorial Blvd,Metairie,LA,70002
Church Of God Of Metairie,2500 Transcontinental Dr,Metairie,LA,70001
Full Gospel Of Jesus Christ,541 N Elm St,Metairie,LA,70003
Agape Christian Fellowship,1252 Anse Broussard Hwy,Breaux Bridge,LA,70517
Albany First Baptist Church,18950 Florida Blvd,Albany,LA,70711
Blood River Baptist Church,31138 Pea Ridge Rd,Albany,LA,70711
Alpine First Baptist Church,7215 Shreveport Hwy,Pineville,LA,71360
Central Missionary Baptist Chr,2527 Hanes Rd,Pineville,LA,71360
Donahue Family Church,2832 Donahue Ferry Rd,Pineville,LA,71360
Esler Baptist Church,6881 Esler Field Rd,Pineville,LA,71360
Good Hope Baptist Church,PO Box 90894,Lafayette,LA,70509
Kingsville Baptist Church,3911 Monroe Hwy,Pineville,LA,71360
Pineville Park Baptist Church,2455 Highway 28 E,Pineville,LA,71360
Tioga First Baptist Church,1309 Singer Dr,Pineville,LA,71360
Wardville Baptist Church,PO Box 4327,Pineville,LA,71361
St Michael's Episcopal Church,500 Edgewood Dr,Pineville,LA,71360
First United Methodist,2550 Monroe Hwy,Pineville,LA,71360
Word of Grace Ministries,2825 Monroe Hwy,Pineville,LA,71360
Heart Of Worship,2720 Highway 28 E,Pineville,LA,71360
Pineville Church Of God,1990 Susek Dr,Pineville,LA,71360
First Church Of God,2901 Rigolette Rd,Pineville,LA,71360
Sacred Heart Of Jesus Catholic,600 Lakeview St,Pineville,LA,71360
Anchor Baptist Church,6001 Shreveport Hwy,Pineville,LA,71360
Antioch Church-god In Christ,243 Nora St,Pineville,LA,71360
Ames Boulevard Baptist Church,3233 Ames Blvd,Marrero,LA,70072
Cypress Grove Mssnry Bapt Ch,1812 Family Ct,Marrero,LA,70072
First Baptist Church-Marrero,4001 7th St,Marrero,LA,70072
Heavenly Star Missionary Bap,1020 Cohen St,Marrero,LA,70072
Rock of Ages Baptist Church,6533 Acre Rd,Marrero,LA,70072
Immaculate Conception Church,PO Box 297,Morse,LA,70559
St Joachim Church,5505 Barataria Blvd,Marrero,LA,70072
St Joseph the Worker,455 Ames Blvd,Marrero,LA,70072
Visitation of Our Lady,3500 Ames Blvd,Marrero,LA,70072
Westbank Cathedral Academy,7301 Lapalco Blvd,Marrero,LA,70072
Harvey Congregation Of Jehovah,5325 August Ln,Marrero,LA,70072
Archdiocese Priest Retire,4701 Wichers Dr,Marrero,LA,70072
Amiable Baptist Church,814 Melder Rd,Glenmora,LA,71433
Harmony Baptist Church,PO Box 1056,Glenmora,LA,71433
Eastside Mssnry Baptist Church,813 Reynolds St,Springhill,LA,71075
North Acres Baptist Church,1852 Lewisville Rd,Minden,LA,71055
Parkway Baptist Church,PO Box 776,Minden,LA,71058
Whispering Pine Missionary,16330 Highway 371,Minden,LA,71055
St Paul Catholic Church,PO Box 799,Minden,LA,71058
St John's Episcopal Church,PO Box 751,Thibodaux,LA,70302
Living Word Worship Ctr,440 Highway 531,Minden,LA,71055
Agape New Begining Ministry,201 Georgia Dr,Minden,LA,71055
Apostolic Lighthouse Church Of Minden La,1001 Lewisville Rd,Minden,LA,71055
Baptist Temple,4200 S MacArthur Dr,Alexandria,LA,71302
First St Mark Baptist Church,1624 Reed Ave,Alexandria,LA,71301
First Union Baptist Church,PO Box 12663,Alexandria,LA,71315
Horseshoe Drive Baptist Church,2022 Horseshoe Dr,Alexandria,LA,71301
Mt Zion Missionary Baptist Chr,PO Box 7091,Alexandria,LA,71306
Nazarene Missionary Baptist,2611 Overton St,Alexandria,LA,71301
New Bethel Baptist Church,2521 England Dr,Alexandria,LA,71303
New Scott Olly Baptist Church,2627 Willow Glen River Rd,Alexandria,LA,71302
Riverview Baptist Church,PO Box 219,Buras,LA,70041
Rose of Sharon Baptist Church,PO Box 163,Alexandria,LA,71309
St Matthew's Baptist Church,PO Box 8754,Alexandria,LA,71306
Our Lady of Prompt Succor,146 4th St,Westwego,LA,70094
St Frances Cabrini Church,2211 E Texas Ave,Alexandria,LA,71301
St Francis Xavier Cathedral,626 4th St,Alexandria,LA,71301
St James Catholic Church,6613 Highway 18,St James,LA,70086
St Rita's Church,PO Box 7056,Alexandria,LA,71306
St Timothy's Episcopal Church,2627 Horseshoe Dr,Alexandria,LA,71301
Congregation Gemiluth,2021 Turner St,Alexandria,LA,71301
Redeemer Lutheran Church,4809 Masonic Dr,Alexandria,LA,71301
Horseshoe Drive Methodist Chr,1600 Horseshoe Dr,Alexandria,LA,71301
Newman United Methodist Church,5700 Oran St,Alexandria,LA,71302
Trinity United Methodist,3223 Madonna Dr,Alexandria,LA,71301
Global Impapt Ministries,1724 Bank Dr,Alexandria,LA,71301
Christian Worship Ctr,PO Box 12863,Alexandria,LA,71315
Pentecostals of Alexandria,PO Box 8838,Alexandria,LA,71306
Alexandria Church Of Christ,43 MacArthur Dr,Alexandria,LA,71303
Our Lady Of Prompt Succor,2124 Elliott St,Alexandria,LA,71301
God's House Of Prayer Ministry,34 Bolton Ave,Alexandria,LA,71301
African Methodist Episcopal,3407 Papin Cir,Alexandria,LA,71302
Air Base Road Baptist Church,2220 Airbase Rd,Alexandria,LA,71303
Alexandria Korean Baptist Chr,1801 Construction Rd,Alexandria,LA,71303
Anthony Guidry Ministries,3658 Government St,Alexandria,LA,71302
Antioch Apostolic Church,1510 Dallas Ave,Alexandria,LA,71301
Assemblies Of God Camp Drctr,246 Bayou Dr,Alexandria,LA,71301
Assemblies Of God-district Headquarters,2717 N MacArthur Dr,Alexandria,LA,71303
Ascension Baptist Church,13432 Airline Hwy,Gonzales,LA,70737
St Theresa of Avila Catholic,1022 N Burnside Ave,Gonzales,LA,70737
First United Methodist Chr,PO Box 252,Gonzales,LA,70707
Christian Assembly,42158 Highway 941,Gonzales,LA,70737
Life Church Of Ascension,15267 Joe Sevario Rd,Gonzales,LA,70737
Southside Church Of Christ,3919 Auburn St,Lake Charles,LA,70607
Ascension House,1349 N Toby Ave,Gonzales,LA,70737
Bayou Oaks Baptist Church,298 Joe White Rd,Monroe,LA,71203
College Place Baptist Church,PO Box 4109,Monroe,LA,71211
Fellowship Baptist Church,PO Box 37,Dubberly,LA,71024
First Baptist Church Monroe,PO Box 1143,Monroe,LA,71210
Lakeshore Baptist Church,308 Lakeshore Dr,Monroe,LA,71203
Lighthouse Baptist Church,300 Fontana Rd,Monroe,LA,71203
Loch Arbor Baptist Church,3960 Highway 139,Monroe,LA,71203
Lone-Wa Missionary Baptist Chr,PO Box 8482,Monroe,LA,71211
Macedonia Baptist Church,PO Box 99,Port Sulphur,LA,70083
Maranatha Baptist Church,1898 Garrett Rd,Monroe,LA,71202
Mt Olivet Baptist Church,500 Swayze St,Monroe,LA,71201
New Life Full Gospel Baptist,3400 Lee Ave,Monroe,LA,71202
New Light Baptist Church,PO Box 4139,Monroe,LA,71211
North Monroe Baptist Church,210 Finks Hideaway Rd,Monroe,LA,71203
Northminster Church,2701 Lamy Ln,Monroe,LA,71201
Rowland Road Baptist Church,336 Rowland Rd,Monroe,LA,71203
St Marys Baptist No 2,100 Williams St,Monroe,LA,71201
Triumph Baptist Church,300 Morton St,Monroe,LA,71202
Victory Baptist Church,740 Finks Hideaway Rd,Monroe,LA,71203
Zion Spring Baptist Church,3900 Dunlop St,Monroe,LA,71203
Jesus Good Shepherd Church,2510 Emerson St,Monroe,LA,71201
Little Flower of Jesus Church,600 S 16th St,Monroe,LA,71201
St Matthews Catholic Church,121 Jackson St,Monroe,LA,71201
Church of Christ-University,PO Box 4272,Monroe,LA,71211
Grace Episcopal Church,405 Glenmar Ave,Monroe,LA,71201
St Alban's Episcopal Church,2816 Deborah Dr,Monroe,LA,71201
St Thomas Episcopal Church,PO Box 7361,Monroe,LA,71211
Lea Joyner Memorial Methodist,4390 Old Sterlington Rd,Monroe,LA,71203
Memorial United Methodist Chr,401 Sherrouse Ave,Monroe,LA,71203
St Marks United Methodist Chr,513 Lincoln Rd,Monroe,LA,71203
St Paul's United Methodist Chr,1901 Lexington Ave,Monroe,LA,71201
Liberty Christian Ctr,PO Box 1144,Monroe,LA,71210
Pine Grove Church,4300 Loop Rd,Monroe,LA,71201
Apostolic Lighthouse Church,513 Sunnyside St,Monroe,LA,71202
Bethel Church of God in Christ,1800 Parkview Dr,Monroe,LA,71202
Monroe Church of God,5770 Frontage Rd,Monroe,LA,71202
Auburn Ave Presbyterian Chr,224 Auburn Ave,Monroe,LA,71201
Covenant Presbyterian Church,1901 Milton St,Monroe,LA,71201
Unity Of Faith Worship Center,709 S 14th St,Monroe,LA,71202
Swartz Church Of Christ,2598 Highway 139,Monroe,LA,71203
University Church Of Christ,3605 Desiard St,Monroe,LA,71203
Empire Church Of Deliverance,1747 Winnsboro Rd,Monroe,LA,71202
Crossview College Of Prayer,22 PO Box,Monroe,LA,0
Abiding Word Church,506 N 16th St,Monroe,LA,71201
Aega Ministries International,2149 Highway 139,Monroe,LA,71203
Aega Ministries,2152 Highway 139,Monroe,LA,71203
Allen Chapel Ame Church,1125 Lagarde St,Thibodaux,LA,70301
Ambassador Baptist Church,866 Highway 139,Monroe,LA,71203
Anthony Strawder Ministries,645 Highway 80 E,Monroe,LA,71203
Assured Foundation Ministries,1715 Grammont St,Monroe,LA,71201
Belle Park Baptist Church,13301 Highway 157,Haughton,LA,71037
Bellevue Road Baptist Church,1195 Bellevue Rd,Haughton,LA,71037
Eastwood Baptist Church,2810 Highway 80,Haughton,LA,71037
Jerusalem Baptist Church,24479 Highway 40,Bush,LA,70431
Koran Baptist Church,5158 Highway 527,Haughton,LA,71037
Love Chapel United Meth Church,4600 Highway 80,Haughton,LA,71037
Word of Light Christian Ctr,PO Box 457,Haughton,LA,71037
Central Assembly of God,2101 Highway 80,Haughton,LA,71037
Haughton Church-God in Christ,3544 Sligo Rd,Haughton,LA,71037
Central Assembly Of God,700 Highway 80,Haughton,LA,71037
Eastwood Church Of Christ,4100 Highway 80,Haughton,LA,71037
Bellview Baptist Church,507 John Stine Rd,Westlake,LA,70669
Westwood Baptist Church,2317 Westwood Rd,Westlake,LA,70669
St John Bosco Church,2114 Oakmere Dr,Harvey,LA,70058
Westlake United Methodist Chr,PO Box 536,Westlake,LA,70669
Lake Area Worship Ctr,PO Box 638,Westlake,LA,70669
Westlake Church Of Nazarene,826 Live Oak St,Westlake,LA,70669
Westlake Assembly Of God,705 Sulphur Ave,Westlake,LA,70669
Adamson Kennith Rev,938 Mulberry St,Westlake,LA,70669
Bethel Baptist Church,PO Box 550,Livingston,LA,70754
Colyell Baptist Church,19524 La Highway 42,Livingston,LA,70754
Doyle Baptist Church,PO Box 99,Livingston,LA,70754
Pine Grove Baptist Church,PO Box 37,Ruby,LA,71365
Red Oak Baptist Church,PO Box 27,Livingston,LA,70754
Satsuma Baptist Church,29880 S Satsuma Rd,Livingston,LA,70754
Freedom Worship Ctr,PO Box 1058,Livingston,LA,70754
Greater New Plymouth Rock Bapt,PO Box 502,Reserve,LA,70084
Our Lady of Grace Church,PO Box 464,Reserve,LA,70084
Reserve Christian Church,PO Box Aa,Reserve,LA,70084
Church Chapel Of Blessed,138 Caroll St,Gibson,LA,70356
Gibson Church Of Christ,5132 N Bayou Black Dr,Gibson,LA,70356
Big Cane Baptist Church,2314 Highway 107,Morrow,LA,71356
Bistineau Baptist Church,1381 Franklin Rd,Heflin,LA,71039
Bogue Falaya Baptist Church,14278 Highway 1077,Folsom,LA,70437
First Baptist Church of Folsom,PO Box 106,Folsom,LA,70437
Red Bluff Baptist Church,15204 Highway 1078,Folsom,LA,70437
St John's Catholic Church,11345 Saint John Church Rd,Folsom,LA,70437
Evangelical Church Of God,83312 Hay Hollow Rd,Folsom,LA,70437
Boulevard Baptist Church,3007 Enterprise Blvd,Lake Charles,LA,70601
Cathedral of Faith Baptist Chr,2549 Moeling St,Lake Charles,LA,70601
Celebration Baptist Church,PO Box 12502,Lake Charles,LA,70612
Christian Baptist Church,202 N Franklin St,Lake Charles,LA,70601
First Baptist Chr Moss Bluff,276 Old Highway 171,Lake Charles,LA,70611
First Baptist Church of Gillis,678 Topsy Rd,Lake Charles,LA,70607
First Community Baptist Church,2320 Elaine St,Lake Charles,LA,70601
Messiah Missionary Baptist Chr,2605 Poe St,Lake Charles,LA,70615
Mount Calvary Baptist Church,300 N Blake St,Lake Charles,LA,70601
Murray Street Baptist Church,PO Box 16750,Lake Charles,LA,70616
Sale Street Baptist Church,PO Box 5215,Lake Charles,LA,70606
South Lake Charles Baptist Chr,4505 Lake St,Lake Charles,LA,70605
Zion Tabernacle Baptist Church,PO Box 16368,Lake Charles,LA,70616
Christ the King Chapel Hall,7680 Gulf Hwy,Lake Charles,LA,70607
Immaculate Conception Cthrdrl,PO Box 1029,Lake Charles,LA,70602
Our Lady Queen of Heaven Chr,PO Box 5940,Lake Charles,LA,70606
St Henry Catholic Church,1021 8th Ave,Lake Charles,LA,70601
St Margaret's Catholic Church,2500 Enterprise Blvd,Lake Charles,LA,70601
St Mary of the Lake Church,11042 Highway 384,Lake Charles,LA,70607
St Theodore Catholic Church,PO Box 12726,Lake Charles,LA,70612
Church of the Good Shepherd,715 Kirkman St,Lake Charles,LA,70601
St Michael ,123 W Sale Rd,Lake Charles,LA,70605
Cross Roads Church,PO Box 12792,Lake Charles,LA,70612
Gateway Church of God,1815 Sam Houston Jones Pky,Lake Charles,LA,70611
Moss Bluff Bible Church,PO Box 12555,Lake Charles,LA,70612
St Matthew Lutheran Church,810 N Shattuck St,Lake Charles,LA,70601
St Luke-Simpson Umc,1500 Country Club Rd,Lake Charles,LA,70605
Warren United Methodist Church,1231 Lawrence St,Lake Charles,LA,70601
Christian World Ministries,PO Box 3303,Lake Charles,LA,70602
Lord's Outreach,401 S Martin Luther King Hwy,Lake Charles,LA,70601
Refuge Temple,300 Sprig St,Lake Charles,LA,70615
Throne of Grace Fellowship,2401 6th St,Lake Charles,LA,70601
United Christian Fellowship,2900 Opelousas St,Lake Charles,LA,70615
Eastwood United Pentecostal,PO Box 16778,Lake Charles,LA,70616
Glad Tidings Assembly of God,3400 Texas St,Lake Charles,LA,70607
Living Way Pentecostal Church,1617 E McNeese St,Lake Charles,LA,70607
Tabernacle of Praise Worship,307 Deshotel Ln,Lake Charles,LA,70615
Word of Hope Family Worship,1535 Kirkman St,Lake Charles,LA,70601
Trinity Church Of Nazarene,2968 N Highway 171,Lake Charles,LA,70611
Word Of Hope Family Worship,1419 18th St,Lake Charles,LA,70601
Apostolic Temple Of United,2711 W Prien Lake Rd,Lake Charles,LA,70605
New Life Family Worship,3000 E Gauthier Rd,Lake Charles,LA,70607
First Assembly Of God Church,1226 Kirkman St,Lake Charles,LA,70601
Abraham's Tent,2300 Fruge St,Lake Charles,LA,70601
Angel Food Ministries Crssrd,338 N Highway 171,Lake Charles,LA,70611
Apostolic Temple Of United Pentecostal Church,3940 Holly Hill Rd,Lake Charles,LA,70605
Broussard Grove Baptist Church,39258 Highway 42,Prairieville,LA,70769
St John the Evangelist Church,15208 Highway 73,Prairieville,LA,70769
Carpenter's Chapel United Meth,41200 Highway 933,Prairieville,LA,70769
River Community Church,36367 Perkins Rd,Prairieville,LA,70769
Buras Triumph Baptist Church,PO Box 1024,Buras,LA,70041
Our Lady of Good Harbor Church,240 Buras River Rd,Buras,LA,70041
Calvary Baptist,PO Box 426,Springhill,LA,71075
Walnut Road Baptist Church,24012 Highway 157,Springhill,LA,71075
Springhill Church Of Christ,405 Butler St,Springhill,LA,71075
Grace Memorial Baptist Church,58516 Pearl Acres Rd,Slidell,LA,70461
Greater Northshore Fgbc,PO Box 1967,Slidell,LA,70459
Ridge Memorial Baptist Church,55115 Apple Pie Ridge Rd,Slidell,LA,70461
Starlight Baptist Church,PO Box 150,Hosston,LA,71043
Our Lady of Lourdes Catholic,3924 Berkley St,Slidell,LA,70458
St Genevieve Church,55189 Highway 433,Slidell,LA,70461
St Luke the Evangelist Cath,910 Cross Gates Blvd,Slidell,LA,70461
St Margaret Mary Church,1050 Robert Blvd,Slidell,LA,70458
Christ Episcopal Church,1534 7th St,Slidell,LA,70458
Bethany Lutheran Church,627 Gause Blvd,Slidell,LA,70458
Aldersgate United Methodist,360 Robert Blvd,Slidell,LA,70458
Hartzell Mt Zion United Meth,41040 Highway 190 E,Slidell,LA,70461
Mount Olive Ame Church,2457 2nd St,Slidell,LA,70458
Mount Olive Family Training,444 Guzman St,Slidell,LA,70458
Church of Faith,PO Box 6190,Slidell,LA,70469
Community Christian Church,1460 Lindberg Dr,Slidell,LA,70458
Harvest,3184 Pontchartrain Dr,Slidell,LA,70458
Slidell Church Of Christ,994 Old Spanish Trl,Slidell,LA,70458
Carroll Baptist Church,PO Box 222,Walker,LA,70785
Judson Baptist Church,32470 Walker Rd N,Walker,LA,70785
Walker Baptist Church,PO Box 220,Walker,LA,70785
Revival Temple Church,PO Box 685,Walker,LA,70785
Cedar Crest Baptist Church,3245 Arkansas Rd,West Monroe,LA,71291
Cheniere Baptist Church,101 Cheniere Baptist Church Rd,West Monroe,LA,71292
Claiborne Baptist Church,207 Defreese Rd,West Monroe,LA,71291
Cypress Baptist Church,164 Cypress Church Rd,West Monroe,LA,71292
Edgewood Baptist Church,501 Travis St,West Monroe,LA,71291
Evergreen Park Baptist Church,506 Sandal St,West Monroe,LA,71292
Fair Park Baptist Church,4412 Whites Ferry Rd,West Monroe,LA,71291
Hyde Park Baptist Church,709 Wallace Dean Rd,West Monroe,LA,71291
Mc Clendon Baptist Church,206 Downing Pines Rd,West Monroe,LA,71292
Mt Vernon Baptist Church,215 Mt Vernon Church Rd,West Monroe,LA,71292
New Chapel Hill Baptist Church,101 New Chapel Hill Rd,West Monroe,LA,71291
Ouachita Baptist Church,824 Highway 3033,West Monroe,LA,71292
Peniel Baptist Church,1924 Jonesboro Rd,West Monroe,LA,71292
Ridge Avenue Baptist Church,1009 Ridge Ave,West Monroe,LA,71291
Seigle Community Baptist Chr,PO Box 1018,West Monroe,LA,71294
St Paschal's Church,711 N 7th St,West Monroe,LA,71291
Whites Ferry Rd Church-Christ,3201 N 7th St,West Monroe,LA,71291
Mc Guire United Methodist Chr,1200 Arkansas Rd,West Monroe,LA,71291
Christ Church,208 Lincoln St,West Monroe,LA,71291
Family Church,223 Stone Ave,Lafayette,LA,70507
Living Way Apostolic Church,108 Wt Hemphill Dr,West Monroe,LA,71292
Luna Assembly of God Church,2843 Red Cut Rd,West Monroe,LA,71292
Brownville Assembly Of God,122 Blanks St,West Monroe,LA,71292
Parkway Assembly Of God,4216 Jonesboro Rd,West Monroe,LA,71292
Apostolic Church Of Lord,5898 Cypress St,West Monroe,LA,71291
Harvest Assembly Of God,100 Ole Highway 15,West Monroe,LA,71291
Claiborne Church Of Christ,727 Wallace Dean Rd,West Monroe,LA,71291
Seigle Assembly Of God Church,744 Smith St,West Monroe,LA,71292
Abundant Life,1312 Joe Bill St,West Monroe,LA,71292
Choupique Baptist Church,7106 Choupique Rd,Sulphur,LA,70665
First Baptist Church-Maplewood,4501 Maplewood Dr,Sulphur,LA,70663
First Baptist of Carlyss,5009 Louisiana 27,Sulphur,LA,70665
Houston River Baptist Church,110 W Houston River Rd,Sulphur,LA,70663
Olivet Baptist Church,601 Patch St,Sulphur,LA,70665
Our Lady of Prompt Succor Chr,1109 Cypress St,Sulphur,LA,70663
St Theresa Catholic Church,4822 Carlyss Dr,Sulphur,LA,70665
Lighthouse Tabernacle,PO Box 2329,Sulphur,LA,70664
Holy Trinity Episcopal Church,1700 Maplewood Dr,Sulphur,LA,70663
Henning Memorial United Meth,404 S Huntington St,Sulphur,LA,70663
Church of Christ Maplewood,104 Beverly Pl,Sulphur,LA,70663
Victory Worship Ctr,1420 W Napoleon St,Sulphur,LA,70663
Faith Temple Church,PO Box 123,Sulphur,LA,70664
Adonai Christian Fellowship,21 Mulberry Rd,Sulphur,LA,70663
Christ Baptist Chr Child Care,1700 E Tunnel Blvd,Houma,LA,70363
Coteau Baptist Church,2066 Coteau Rd,Houma,LA,70364
Howard Baptist Church Office,363 Bayou Dularge Rd,Houma,LA,70363
Mulberry Baptist Church,2025 Bayou Black Dr,Houma,LA,70360
New Rising Sun Baptist Church,PO Box 208,Houma,LA,70361
Plymouth Rock Baptist Church,1000 Wallis St,Houma,LA,70360
Annunziata Church,2011 Acadian Dr,Houma,LA,70363
Holy Rosary Church,8594 Main St,Houma,LA,70363
Maria Immacolata Church,Corporate Dr,Houma,LA,70360
St Anthony Church,PO Box 425,Krotz Springs,LA,70750
St Bernadette Church,409 Funderburk Ave,Houma,LA,70364
St Francis De Sales,PO Box 4014,Houma,LA,70361
St Gregory Barbarigo Church,PO Box 1066,Houma,LA,70361
St Louis Church,2226 Bayou Blue Rd,Houma,LA,70364
St Matthew's Episcopal Church,PO Box 568,Houma,LA,70361
Christian Faith Fellowship,PO Box 10103,Houma,LA,70363
Liberty Family Church,4808 Highway 311,Houma,LA,70360
Life Church Of Houma,2324 Coteau Rd,Houma,LA,70364
Grace Chapel Of Houma,6781 W Park Ave,Houma,LA,70364
Adolphe Stagg Association,440 Magnolia St,Houma,LA,70360
Adore Ministries,1220 Aycock St,Houma,LA,70360
All Industrial Medical Services,855 Belanger St,Houma,LA,70360
Collins Boulevard Baptist Chr,PO Box 121,Covington,LA,70434
Greater Starlight Baptist Chr,PO Box 1178,Covington,LA,70434
Tammany Hills Baptist Church,70380 I St,Covington,LA,70433
St Benedict's Parish,General Delivery,Covington,LA,70457
St Peter's Catholic Church,1074 Highway 748,Washington,LA,70589
Christ Church Covington,120 S New Hampshire St,Covington,LA,70433
Northshore Bible Church,19516 Sunshine Ave,Covington,LA,70433
Trinity Evangelical Free Chr,19380 N 10th St,Covington,LA,70433
Lakeshore Christian Ctr,2401 N Highway 190,Covington,LA,70433
Lee Road United Pentecostal,17700 Highway 40,Covington,LA,70435
Shepherd's Fold Church of God,79236 Highway 40,Covington,LA,70435
Landmark Church Of God,20188 Landmark Ln,Covington,LA,70435
Providence Daughters Of Divine,74684 Airport Rd,Covington,LA,70435
Wardline Church Of God,16565 Million Dollar Rd,Covington,LA,70435
Cypress Baptist Day Care,PO Box 340,Benton,LA,71006
Elizabeth Baptist Church,301 Old Bellevue Rd,Benton,LA,71006
Believers Assembly Of God Worship Center,6068 Highway 3,Benton,LA,71006
Aimwell Baptist Church,16135 Highway 157,Benton,LA,71006
East Bayou Baptist Church,2234 Kaliste Saloom Rd,Lafayette,LA,70508
Lafayette First Baptist Church,PO Box 3888,Lafayette,LA,70502
Open Door,1709 Dulles Dr,Lafayette,LA,70506
Cathedral of Saint John,PO Box V,Lafayette,LA,70502
Holy Cross Church,505 Broadmoor Blvd,Lafayette,LA,70503
Imani Temple,PO Box 91824,Lafayette,LA,70509
Our Lady of Fatima Church,2319 Johnston St,Lafayette,LA,70503
Our Lady of Wisdom Church,PO Box 42371,Lafayette,LA,70504
Our Lady Queen of Peace,145 Martin Luther King Jr Dr,Lafayette,LA,70501
St Anthony's Church,234 Angus Dr,Luling,LA,70070
St Edmond Catholic Church,4131 W Congress St,Lafayette,LA,70506
St Elizabeth Seton Church,Rain Tree Trl,Lafayette,LA,70507
St Jules Church,116 Saint Jules St,Lafayette,LA,70506
St Leo the Great,300 W Alexander St,Lafayette,LA,70501
St Paul's Hall,326 S Washington St,Lafayette,LA,70501
St Pius X,PO Box 80489,Lafayette,LA,70598
Riverside Church of Christ,111 Camellia Blvd,Lafayette,LA,70503
Episcopal Church-Ascension,1030 Johnston St,Lafayette,LA,70501
St Barnabas Episcopal Church,400 Camellia Blvd,Lafayette,LA,70503
Trinity Bible Church,130 E Broussard Rd,Lafayette,LA,70503
First Lutheran Church,301 W Farrel Rd,Lafayette,LA,70508
Church of the Covenant,300 E Martial Ave,Lafayette,LA,70508
Trinity Christian Methodist,PO Box 92183,Lafayette,LA,70509
Wesley United Campus Ministry,238 General Gardner Ave,Lafayette,LA,70501
Acts Church,205 Touchet Rd,Lafayette,LA,70506
Our Saviors Church,PO Box 81855,Lafayette,LA,70598
Restoration Life Church,111 Liberty Ave,Lafayette,LA,70508
Spirit of Liberty Christian,2841 Louisiana Ave,Lafayette,LA,70501
Bethel Assembly of God Church,150 Verona Dr,Lafayette,LA,70507
Church of God in Christ,PO Box 2906,Lafayette,LA,70502
First United Pentecostal Ch,201 E Willow St,Lafayette,LA,70501
Landmark Lafayette,PO Box 62833,Lafayette,LA,70596
Pentecostals of Lafayette,PO Box 60852,Lafayette,LA,70596
Vineyard of Lafayette,705 Bonin Rd,Lafayette,LA,70508
Northgate Church Of Christ,101 Dewberry Dr,Lafayette,LA,70507
Immaculate Heart Of Mary,818 12th St,Lafayette,LA,70501
Community Church Of God,201 Timothy Dr,Lafayette,LA,70503
Islamic Center Of Lafayette,700 Tulane Ave,Lafayette,LA,70503
Jordan Assembly Of God,6408 Johnston St,Lafayette,LA,70503
Church Of Christ Of Lafayette,510 Orchid Dr,Lafayette,LA,70506
Calvary Chapel Of Lafayette,605 Kaliste Saloom Rd,Lafayette,LA,70508
Acadiana Outreach Center,110 Olivier St,Lafayette,LA,70501
Acadiana Baptist Church-deaf,1301 Lafayette St,Lafayette,LA,70501
Ahs Walk In Clinic,1602 W Pinhook Rd,Lafayette,LA,70508
Arch Angel Gabriel Orthodox,1237 Eraste Landry Rd,Lafayette,LA,70506
Ascension Episcopal School,1800 Chemin Metairie Pky,Youngsville,LA,70592
Eastern Heights Baptist Church,PO Box 98,DeQuincy,LA,70633
Hargrove Bible Baptist Church,PO Box 405,DeQuincy,LA,70633
United Methodist Chr-Dequincy,PO Box 578,DeQuincy,LA,70633
Pentecostal Church-Dequincy,PO Box 956,DeQuincy,LA,70633
Elwood Baptist Parsonage,213 Elwood Rd,Forest Hill,LA,71430
Forest Hill Baptist Church,PO Box 158,Forest Hill,LA,71430
Pisgah Baptist Church,3501 Highway 112,Forest Hill,LA,71430
Annunciation Church,4476 Duralde Hwy,Eunice,LA,70535
St Lawrence Catholic Church,PO Box 426,Schriever,LA,70395
St Mathilda Catholic Church,PO Box 346,Eunice,LA,70535
St Thomas More Church,PO Box 1022,Eunice,LA,70535
New Hope Fellowship Church,PO Box 272,Eunice,LA,70535
Evans Creek Baptist Church,34776 Edgar Kennedy Rd,Pearl River,LA,70452
Salvation Baptist Church,63032 Highway 1091,Pearl River,LA,70452
Saints Peter ,66192 Saint Mary Dr,Pearl River,LA,70452
New Jerusalem Worship ,62340 Highway 1090,Pearl River,LA,70452
Abundant Life United Pntcstl,40295 Crowe's Landing Rd,Pearl River,LA,70452
Fairbanks Baptist Church,PO Box 159,Fairbanks,LA,71240
Immaculate Heart of Mary Chr,PO Box 687,Tioga,LA,71477
First Baptist Church of Baker,3213 Groom Rd,Baker,LA,70714
Harding Street Baptist Church,4345 Harding St,Baker,LA,70714
Community Christian Ctr,13865 Blackwater Rd,Baker,LA,70714
Blackwater United Methodist,10000 Blackwater Rd,Baker,LA,70714
Bethany World Prayer Ctr,13855 Plank Rd,Baker,LA,70714
Miracle Place Church,2080 Main St,Baker,LA,70714
Cornerstone Fellowship,9611 Blackwater Rd,Baker,LA,70714
Baker Presbyterian Church,3015 Groom Rd,Baker,LA,70714
Baker Church Of Nazarene,4366 Groom Rd,Baker,LA,70714
Fellowship Baptist Chr-Central,14512 Greenwell Springs Rd,Greenwell Springs,LA,70739
St Alphonsus Catholic Church,14040 Greenwell Springs Rd,Greenwell Springs,LA,70739
Berean Ministries,6565 Morgan Rd,Greenwell Springs,LA,70739
Apostolic Temple Of Truth,724 Mims Grocery Rd,Dubberly,LA,71024
Ferry Lake Baptist Church,PO Box 278,Oil City,LA,71061
United Pentecostal Church,PO Box 368,Oil City,LA,71061
St Joseph's Church,PO Box 299,Milton,LA,70558
Welsh Memorial United Meth,1102 Horridge St,Vinton,LA,70668
Vinton Knights Of Columbus,1424 Grace Ave,Vinton,LA,70668
Our Mother of Mercy Church,PO Box 237,Church Point,LA,70525
St Joseph Church,PO Box 710,Iota,LA,70543
St Leo's Catholic Church,7166 Roberts Cove Rd,Rayne,LA,70578
Indian Bayou United Methodist,1029 Louisiana 700,Rayne,LA,70578
Abundant Life Assembly-God Chr,PO Box 68,Rayne,LA,70578
Abundant Life Assembly,400 Gossen Memorial Dr,Rayne,LA,70578
Acadiana Christian Fellowship,511 Clegg St,Rayne,LA,70578
Ascension of Our Lord Church,799 Fairway Dr,Laplace,LA,70068
Ancker Robert,1712 Carrollwood Dr,Laplace,LA,70068
Ascension Of Our Lord Church,1813 Greenwood Dr,Laplace,LA,70068
Our Lady of La Salette Church,203 S Grand Ave,Dequincy,LA,70633
First Church of God in Christ,621 S Grand Ave,Dequincy,LA,70633
First Baptist Church of Smoke,35058 Louisiana 1,Donaldsonville,LA,70346
First Israel Baptist Church,7108 Hwy 308 S,Donaldsonville,LA,70346
Ascension Catholic Church,716 Mississippi St,Donaldsonville,LA,70346
St Catherine of Sienna Church,PO Box 428,Donaldsonville,LA,70346
St Anselm Church,PO Box 40,Madisonville,LA,70447
Milldale Baptist Church,11950 Milldale Rd,Zachary,LA,70791
St Patrick's Episcopal Church,1322 Church St,Zachary,LA,70791
Zachary United Methodist Chr,4205 Church St,Zachary,LA,70791
Church of the Burning Fire,PO Box 353,Zachary,LA,70791
Cornerstone Church,PO Box 1141,Zachary,LA,70791
Jubilee Fellowship,PO Box 646,Zachary,LA,70791
Plains Presbyterian Church,22929 Old Scenic Hwy,Zachary,LA,70791
Mission Church Of Christ,2300 Church St,Zachary,LA,70791
Our Lady of Perpetual Help,1908 Short St,Kenner,LA,70062
Buddhist Fellowship Of Louisiana,202 Woodland Hwy,Belle Chasse,LA,70037
Upper Zion Baptist Church,PO Box 621,Blanchard,LA,71009
Abundant Life Center,266 S Oak St,Gramercy,LA,70052
Sharon Baptist Church,9433 Section Rd,Port Allen,LA,70767
St Paul Baptist Church,3711 La Highway 1 S,Port Allen,LA,70767
Holy Family Catholic Church,159 6th St,Port Allen,LA,70767
Love Missionary Baptist Church,PO Box 528,Port Allen,LA,70767
Scott's United Methodist Chr,210 Atchafalaya St,Port Allen,LA,70767
Harvest Church,165 N Jefferson Ave,Port Allen,LA,70767
West Baton Rouge Prsbytrn Chr,640 Florida Ave,Port Allen,LA,70767
Sunrise Baptist Church,966 Maryland Ave,Port Allen,LA,70767
West Baton Rouge Mnstrs Cnfrnc,725 Louisiana Ave,Port Allen,LA,70767
Shiloh Baptist Church,950 7th St,Port Allen,LA,70767
West Baton Rouge Commnty Actn,750 Louisiana Ave,Port Allen,LA,70767
Westgate Church,1622 Court St,Port Allen,LA,70767
Love Missionary Full Gspl Chr,1515 Rosedale Rd,Port Allen,LA,70767
New Poplar Grove Baptist Chr,2303 Court St,Port Allen,LA,70767
Westside Apostolic Fellowship,2436 Oak Alley Dr,Port Allen,LA,70767
Prince of Peace Catholic Chr,3700 Jean Lafitte Pky,Chalmette,LA,70043
St Mark Catholic Church,PO Box 556,Ama,LA,70031
Christ Lutheran Church,3300 Jupiter Dr,Chalmette,LA,70043
Gethsemane Lutheran Church,2825 Paris Rd,Chalmette,LA,70043
Covenant United Methodist Chr,115 E D'Amour St,Chalmette,LA,70043
World Prayer Tabernacle,4030 Paris Rd,Chalmette,LA,70043
Second Evening Star Baptist,4911 Hot Wells Rd,Boyce,LA,71409
St John of the Cross Catholic,61051 Brier Lake Dr,Lacombe,LA,70445
Village Church Lutheran,PO Box 1219,Lacombe,LA,70445
Mary Queen of Peace Church,1501 W Causeway Appr,Mandeville,LA,70471
Our Lady of the Lake Church,312 Lafitte St,Mandeville,LA,70448
Tammany Oaks Church of Christ,PO Box 22,Mandeville,LA,70470
Northshore Jewish Congregation,PO Box 524,Mandeville,LA,70470
Hosanna Lutheran Church,PO Box 1215,Mandeville,LA,70470
St Timothy On the North Shore,335 Asbury Dr,Mandeville,LA,70471
United Methodist Church,135 E 162nd St,Galliano,LA,70354
Northpoint Church,PO Box 1224,Mandeville,LA,70470
Mandeville Bible Church,217 Carole Dr,Mandeville,LA,70448
New Covenant Presbyterian,4375 Highway 22,Mandeville,LA,70471
Northshore Church Of Christ,67288 Armel Rd,Mandeville,LA,70471
Cornerstone Assembly Of God,600 Mariners Plaza Dr,Mandeville,LA,70448
Apostolic Crusade Revival Outreach Prophetic Ministries,1883 PO Box,Mandeville,LA,0
Aranza Outreach,655 Highway 96,Broussard,LA,70518
Holy Savior Church Religious,201 Church St,Lockport,LA,70374
Holy Savior Rectory,612 Main St,Lockport,LA,70374
Victory Life,PO Box 148,Lockport,LA,70374
Paron Baptist Church,PO Box 221,Sterlington,LA,71280
Sterlington Church Of Christ,1095 Highway 2,Sterlington,LA,71280
Assembly Of God Church,18143 Highway 1,Vivian,LA,71082
Grawood Baptist Church,5841 Colquitt Rd,Keithville,LA,71047
Mansfield Road Baptist Church,9965 Mansfield Rd,Keithville,LA,71047
Missionary Church Of God,995 Barron Rd,Keithville,LA,71047
Calhoun Church Of Christ,1288 Highway 151 N,Calhoun,LA,71225
St Anne Church,PO Box 410,Youngsville,LA,70592
Holy Ghost Church,PO Box 1785,Opelousas,LA,70571
Our Lady Queen of Angels,PO Box 508,Opelousas,LA,70571
St Landry Catholic Church,1020 N Main St,Opelousas,LA,70570
Opelousas Bible Church,946 S Bullard St,Opelousas,LA,70570
Louisiana Memorial United Chr,515 E Bellevue St,Opelousas,LA,70570
Opelousas Family Worship Ctr,PO Box 1463,Opelousas,LA,70571
Cathedral of Faith Church-God,1037 N Washington St,Opelousas,LA,70570
Family Church Of Opelousas,1592 E Prudhomme St,Opelousas,LA,70570
Episcopal Church Of Epiphany,1103 S Union St,Opelousas,LA,70570
Immanuel Church Of Opelousas,307 Rolling Oaks Dr,Opelousas,LA,70570
Parkerson Avenue Baptist Chr,1116 N Parkerson Ave,Crowley,LA,70526
St Michael's Church,PO Box 65,Convent,LA,70723
Northside A O G Acadiana Cthlc,PO Box 549,Crowley,LA,70527
Greater Love Family Worship,411 S Eastern Ave,Crowley,LA,70526
Agape Way-upper Room Prayer,110 W 3rd St,Crowley,LA,70526
Ambassador Ministries,19937 Hwy 90,Crowley,LA,70526
Assembly Of God Northside,809 E Northern Ave,Crowley,LA,70526
Mt Zion Baptist Church,PO Box 435,Raceland,LA,70394
St Hilary of Poitiers Church,333 Twin Oaks Dr,Raceland,LA,70394
St Mary Nativity Church,3500 Highway 1,Raceland,LA,70394
Mt Gilead Baptist Church,606 N Walnut St,Vivian,LA,71082
Walnut Hill Baptist Church,15266 Old Atlanta Rd,Vivian,LA,71082
University Baptist Church,904 Menard St,Thibodaux,LA,70301
Saint Genevieve Church,815 Barbier Ave,Thibodaux,LA,70301
St Charles Borromeo Church,1027 Highway 308,Thibodaux,LA,70301
St John's Church,2085 Saint Mary St,Thibodaux,LA,70301
St Joseph Co-Cathedral,PO Box 966,Thibodaux,LA,70302
St Lawrence the Martyr Church,3723 Highway 307,Thibodaux,LA,70301
St Luke Catholic Church,PO Box 1819,Thibodaux,LA,70302
Assembly of God Church,150 Highway 3185,Thibodaux,LA,70301
Worship Promise Of Life,701 Hickory St,Thibodaux,LA,70301
Cornerstone Assembly Of God In,217 Leighton Rd,Thibodaux,LA,70301
Holy Family Church,PO Box 310,Lawtell,LA,70550
Luling United Methodist,PO Box 156,Luling,LA,70070
First Union Presbyterian,134 Lakewood Dr,Luling,LA,70070
Gambrell Baptist Church,PO Box 354,Starks,LA,70661
First Baptist Church of Arabi,7500 W Judge Perez Dr,Arabi,LA,70032
St Louise De Marillac Church,6800 Patricia St,Arabi,LA,70032
St Robert Bellarmine Rectory,408 Cougar Dr,Arabi,LA,70032
Adullam Christian Fellowship,7451 Saint Bernard Hwy,Arabi,LA,70032
St Paul Church of God,PO Box 96,Arabi,LA,70032
First Baptist Church of Gretna,100 Gretna Blvd,Gretna,LA,70053
Marine ,PO Box 1100,Gretna,LA,70054
St Anthony Church-Gretna,924 Monroe St,Gretna,LA,70053
St Cletus Church,3600 Claire Ave,Gretna,LA,70053
St Joseph Church-Gretna,PO Box 508,Gretna,LA,70054
Salem Lutheran Church,418 4th St,Gretna,LA,70053
Gretna United Methodist Church,1309 Whitney Ave,Gretna,LA,70056
Heritage Bible Church,785 Heritage Ave,Gretna,LA,70056
Glory Church,664 Behrman Hwy,Gretna,LA,70056
Jesus Christ Apostolic Light,505 Kepler St,Gretna,LA,70053
Thompson Temple Church of God,1515 Whitney Ave,Gretna,LA,70056
Livin Word Family Worship Center,1118 Stumpf Blvd,Gretna,LA,70053
Abundant Faith Christian Center,435 Lapalco Blvd,Gretna,LA,70056
Anchor Of Hope Baptist Church,463 Wall Blvd,Gretna,LA,70056
First Baptist Church of Milton,PO Box 54,Milton,LA,70558
First Baptist Church of Scott,PO Box 696,Scott,LA,70583
St Martin De Porres,PO Box 1347,Scott,LA,70583
St Peter ,PO Box 610,Scott,LA,70583
True Vine Bible Church,1555 W Willow St,Scott,LA,70583
First Baptist Church-Greenwood,PO Box 307,Greenwood,LA,71033
First Baptist Church-Swartz,PO Box 26,Swartz,LA,71281
First Zion Baptist Church,1221 Causeway Blvd,Jefferson,LA,70121
Rio Vista Baptist Church,3800 Jefferson Hwy,Jefferson,LA,70121
St Agnes Church,3310 Jefferson Hwy,Jefferson,LA,70121
Gonzales Baptist Academy,PO Box 98,Brittany,LA,70718
Greenwell Springs Baptist Chr,PO Box 295,GREENWEL SPGS,LA,70739
Covenant Community Church,PO Box 371,GREENWEL SPGS,LA,70739
Highway Baptist Church,PO Box 307,North Vacherie,LA,70090
Holloway Baptist Church,7368 Hickory Grove Rd,Deville,LA,71328
Longview Baptist Church,PO Box 29,Deville,LA,71328
St John Catholic Church,PO Box 7,Deville,LA,71328
Deville Church Of God,1216 Highway 1207,Deville,LA,71328
Marksville Church Of Nazar,270 Sayes Rd,Deville,LA,71328
Hosston Baptist Church,PO Box 218,Hosston,LA,71043
Jenkin's Memorial Baptist Chr,PO Box 96,St Martinville,LA,70582
Notre Dame Church,PO Box 677,St Martinville,LA,70582
St Elizabeth Catholic Church,1006 Saint Elizabeth St,St Martinville,LA,70582
St Joseph's Church of Parks,PO Box 2810,St Martinville,LA,70582
St Martin De Tours Church,PO Box 10,St Martinville,LA,70582
St Rita's Catholic Church,1006 Saint Rita Hwy,St Martinville,LA,70582
Adoration Chapel,133 S Main St,St Martinville,LA,70582
Agape Love Ministries,1550 S Main St,St Martinville,LA,70582
King Solomon Baptist Church,372 Saltworks Rd,Sibley,LA,71073
Little Caillou Baptist Church,PO Box 212,Chauvin,LA,70344
St Jude Church,PO Box 36,Port Sulphur,LA,70083
St Patrick Church,28698 Highway 23,Port Sulphur,LA,70083
Miller French Baptist Church,212 Mamou Prairie Rd,Iota,LA,70543
Mooringsport Baptist Church,PO Box 397,Mooringsport,LA,71060
Mount Moriah Baptist Church,"888 Terry Pky, #201",Terrytown,LA,70056
Christ the King Catholic Chr,535 Deerfield Rd,Terrytown,LA,70056
Mt Airy Baptist Church,PO Box 156,Boutte,LA,70039
West St Charles Baptist Chr,PO Box 173,Boutte,LA,70039
Boutte Assembly of God,PO Box 522,Boutte,LA,70039
Shiloh Missionary Baptist Chr,1419 4th St,Westwego,LA,70094
Our Lady of the Angels,139 Herman St,Westwego,LA,70094
Faith Temple Church of God,PO Box 305,Westwego,LA,70096
Our Lady Of Angels,6851 River Rd,Westwego,LA,70094
Westwego Church Of God-christ,41 Norton St,Westwego,LA,70094
Mt Paran Baptist Church,PO Box 62,Shongaloo,LA,71072
New River Baptist Church,PO Box 7,St Amant,LA,70774
St Amant Baptist Church,10414 Acy Rd,St Amant,LA,70774
Holy Rosary Catholic Church,44450 Highway 429,St Amant,LA,70774
New Sarepta Baptist Church,PO Box 206,Sarepta,LA,71071
Oakland Baptist Church,1400 3rd St,Kenner,LA,70062
Williams Boulevard Baptist Chr,3000 Williams Blvd,Kenner,LA,70065
Nativity of Our Lord Adult Ed,3325 Loyola Dr,Kenner,LA,70065
St Jerome Catholic Church,2402 33rd St,Kenner,LA,70065
Christ the King Lutheran Chr,1001 W Esplanade Ave,Kenner,LA,70065
Kenner United Methodist Church,PO Box 1049,Kenner,LA,70063
Liberty in Christ Christian,PO Box 1216,Kenner,LA,70063
Solid Rock Christian Fllwshp,PO Box 1753,Kenner,LA,70063
Sweet Home Christian Ctr,434 Jackson St,Kenner,LA,70062
Verbo of New Orleans,2601 Florida Ave,Kenner,LA,70062
Chinese Presbyterian Church,2901 W Esplanade Ave,Kenner,LA,70065
Brazilian Assembly Of God,523 W Esplanade Ave,Kenner,LA,70065
Philadelphia Baptist Church,PO Box 369,Libuse,LA,71348
Pinehurst Baptist Church,PO Box 277,Ball,LA,71405
Palestine United Methodist Chr,PO Box 68,Ball,LA,71405
Church of Pentecost,PO Box 610,Ball,LA,71405
Plain Dealing Baptist Church,PO Box 543,Plain Dealing,LA,71064
Salem Baptist Church,674 Salem Cemetery Rd,Plain Dealing,LA,71064
Community House Of Prayer,218 Crabapple Ave,Plain Dealing,LA,71064
Poydras Baptist Church,8213 Saro Ln,St Bernard,LA,70085
Sandy Creek Baptist Church,PO Box 10,Pride,LA,70770
Second African Baptist Church,PO Box 365,Edgard,LA,70049
Sorrento Baptist Church,8275 Main St,Sorrento,LA,70778
St Anne's Catholic Church,PO Box 9,Sorrento,LA,70778
Our Lady of Mercy Church,PO Box 587,Breaux Bridge,LA,70517
St Bernard Church,204 N Main St,Breaux Bridge,LA,70517
St Francis of Assissi Rectory,610 N Main St,Breaux Bridge,LA,70517
Breaux Bridge Greater First,PO Box 1043,Breaux Bridge,LA,70517
Woodworth First Baptist Church,PO Box 226,Woodworth,LA,71485
Alexandria District Offc Umc,2350 Methodist Pky,Woodworth,LA,71485
Assemblies Of God Campground,246 Bayou Clear Rd,Woodworth,LA,71485
Assumption Catholic Church,6951 Highway 39,Braithwaite,LA,70040
Church of the Assumption,6080 Mire Hwy,Church Point,LA,70525
Our Lady of the Sacred Heart,PO Box 403,Church Point,LA,70525
Bayouland Church Of God,5741 Grand Caillou Rd,Dulac,LA,0
Infant Jesus of Prague Church,700 Maple Ave,Harvey,LA,70058
St Martha Church,2555 Apollo Ave,Harvey,LA,70058
St Rosalie Parish Ctr,608 1st Ave,Harvey,LA,70058
Hope of Glory Church,PO Box 386,Harvey,LA,70059
White Dove Church,3600 Manhattan Blvd,Harvey,LA,70058
Temple of Praise Ministries,1821 Commercial Dr,Harvey,LA,70058
Bible-way Church Of God,1033 Estalote Ave,Harvey,LA,70058
Christian Fllwshp Fam Wrshp,5816 E Judge Perez Dr,Violet,LA,70092
Our Lady of the Assumption Chr,PO Box 130,Carencro,LA,70520
St Peter's Church,PO Box 40,Carencro,LA,70520
Our Lady of the Isle Church,PO Box 885,Grand Isle,LA,70358
Our Lady of the Rosary Church,1 Rectory Ln,Hahnville,LA,70057
Sacred Heart of Jesus,PO Box 515,Norco,LA,70079
San Pedro Pescador Church,PO Box 457,SAINT BERNARD,LA,70085
St Bernard Catholic Church,PO Box 220,SAINT BERNARD,LA,70085
St Ann's Catholic Church,PO Box 700,Bourg,LA,70343
Vision Christian Ctr,4467 Highway 24,Bourg,LA,70343
St Basil Catholic Church,1803 Duhon Rd,Duson,LA,70529
St Benedict the Moor Church,PO Box 127,Duson,LA,70529
St Theresa's Church,PO Box 8,Duson,LA,70529
Fill the Gap World Outreach,315 Lagneaux Rd,Duson,LA,70529
St Bonaventure Church,329 S Jamie Blvd,Avondale,LA,70094
Assumption Of Mary Church Ed,171 Noel Dr,Avondale,LA,70094
St Bridget's Church,100 Highway 311,Schriever,LA,70395
St Cathrine Rectory,PO Box 53,Arnaudville,LA,70512
St Francis Regis Catholic Ch,PO Box 649,Arnaudville,LA,70512
St Charles Church,PO Box A,Grand Coteau,LA,70541
St Eloi,1335 Bayou Dularge Rd,Theriot,LA,70397
St Gertrude Catholic Chr,PO Box 767,Des Allemands,LA,70030
St Hubert's Church Rectory,PO Box K,Garyville,LA,70051
Anderson Wesley Rev,258 S Little Hope St,Garyville,LA,70051
St Jane De Chantal Church,PO Box 187,Abita Springs,LA,70420
Abita Springs Bible Church,21300 Highway 36,Abita Springs,LA,70420
St Joan of Arc Catholic Church,PO Box 490,LaPlace,LA,70069
New Wine Christian Fellowship,PO Box 633,LaPlace,LA,70069
New Foundation for Life Full,PO Box 2651,LaPlace,LA,70069
New Home Full Gospel Ministry,PO Box 2108,LaPlace,LA,70069
St John Baptist Catholic,PO Box 248,Brusly,LA,70719
St John Berchmans Church,552 Main St,Cankton,LA,70584
St John the Baptist Office,PO Box 1498,Paradis,LA,70080
St John Vianney Catholic Chr,PO Box 10,BELL CITY,LA,70630
Word Of Life Worship Center,16270 La Highway 16,French Settlement,LA,70733
St Joseph's Catholic Church,PO Box 129,Paulina,LA,70763
St Philip Catholic Church,1175 Highway 18,Vacherie,LA,70090
Victory Assembly Of God,19839 Highway 644,Vacherie,LA,70090
