Name,Address,City,State,Zip
Advent Christian General Hdqrs,14601 Albemarle Rd,Charlotte,NC,28227
Berean Seventh Day Adventist,1801 Double Oaks Rd,Charlotte,NC,28206
Northeast Seventh-Day Advntst,827 Tom Hunter Rd,Charlotte,NC,28213
Sharon Seventh-Day Church,920 N Sharon Amity Rd,Charlotte,NC,28211
Arlington Baptist Church,1500 Bethlehem Rd,Rocky Mount,NC,27803
Berryhill Baptist Church,9801 Walkers Ferry Rd,Charlotte,NC,28214
Calvary Baptist Church,423 N 23rd St,Wilmington,NC,28405
Candlewyck Baptist Church,7200 Providence Rd,Charlotte,NC,28226
Chapman Memorial Baptist Chr,608 Valleydale Rd,Charlotte,NC,28214
Chappell Meml Baptist Church,110 Bradford Dr,Charlotte,NC,28208
Cornerstone Baptist Church,PO Box 29,Cleveland,NC,27013
Derita Baptist Church,2835 W Sugar Creek Rd,Charlotte,NC,28262
Durham Memorial Baptist Church,133 Robbins Rd,Durham,NC,27703
East Baptist Church,114 N Church St,Gastonia,NC,28054
Eastern Hills Baptist,4855 Albemarle Rd,Charlotte,NC,28205
Eastway Baptist Church,2749 Eastway Dr,Charlotte,NC,28205
Ebenezer Baptist Church,2312 Ridge Rd,Monroe,NC,28110
Emmanuel Baptist Church,1405 Emmanuel Church Rd,Conover,NC,28613
Faith Memorial Baptist Church,211 Lakewood Ave,Charlotte,NC,28208
Fellowship Baptist Church,1701 Bud Lipscomb Rd,Willow Spring,NC,27592
First Baptist Church,PO Box 515,Denton,NC,27239
First Baptist Church-West,1801 Oaklawn Ave,Charlotte,NC,28216
First Mt Zion Baptist Church,1515 Remount Rd,Charlotte,NC,28208
Friendship Missionary Church,3301 Beatties Ford Rd,Charlotte,NC,28216
Galilean Deliverance Ctr Chr,PO Box 36933,Charlotte,NC,28236
Gethsemane Baptist Church,PO Box 73,Bunn,NC,27508
Gloryland Baptist Church,3001 Gloryland Ave,Charlotte,NC,28213
Grace Baptist Church,300 Westland Farm Rd,Mt Holly,NC,28120
Greater Galilee Baptist Church,501 W Park Ave,Charlotte,NC,28203
Greater Mt Sinai Baptist,1243 West Blvd,Charlotte,NC,28208
Greater Providence Baptist Chr,PO Box 44327,Charlotte,NC,28215
Harbor Baptist Church,5801 Old Concord Rd,Charlotte,NC,28213
Hickory Grove Baptist Church,3717 Hickory Grove Rd,Gastonia,NC,28056
Hillcrest Baptist Church,4316 Hillcrest Church Rd,Monroe,NC,28110
Hoskins Avenue Baptist Church,101 S Hoskins Rd,Charlotte,NC,28208
Liberty Baptist Church,1625 Ray Rd,Spring Lake,NC,28390
Macedonia Baptist Church,1468 Jenkins Valley Rd,Alexander,NC,28701
Midwood Baptist Church,2029 Mecklenburg Ave,Charlotte,NC,28205
Mint Hill Baptist Church,7835 Matthews-Mint Hill Rd,Charlotte,NC,28227
Mount Zion Baptist Church,6907 Gus Eubanks Rd,Monroe,NC,28112
Mt Carmel Baptist Church,2016 Mt Carmel Church Rd,Chapel Hill,NC,27517
Mt Moriah Primitive Baptist,PO Box 31233,Charlotte,NC,28231
Mulberry Baptist Church,6450 Tuckaseegee Rd,Charlotte,NC,28214
Nations Ford Community Church,5901 Nations Ford Rd,Charlotte,NC,28217
Nazareth Primitive Baptist Chr,PO Box 16009,Charlotte,NC,28297
New Hope Baptist Church,1525 Flora Ave,Burlington,NC,27217
New Zion Baptist Church,217 W Todd Ln,Charlotte,NC,28208
Northdale Baptist Church,8104 Statesville Rd,Charlotte,NC,28269
Northside Baptist Church,2501 N College Rd,Wilmington,NC,28405
Oakhurst Baptist Church,2225 S Fayetteville St,Asheboro,NC,27205
Park Road Baptist Church,3900 Park Rd,Charlotte,NC,28209
Plaza Baptist Church,3321 The Plz,Charlotte,NC,28205
Plaza Road Baptist Church,7041 The Plz,Charlotte,NC,28215
Pleasant Hill Baptist Church,31 Pleasant Hill Church Rd,Taylorsville,NC,28681
Pritchard Memorial Baptist Chr,1117 South Blvd,Charlotte,NC,28203
Providence Baptist Church,PO Box 335,Harrisburg,NC,28075
Reeder Memorial Church,PO Box 16312,Charlotte,NC,28297
Reedy Creek Baptist Church,600 Reedy Creek Baptist Church Rd,Lexington,NC,27295
Second Calvary Baptist Church,114 Nelson Ave,Charlotte,NC,28216
Shady Brook Baptist Church,2940 Belmeade Dr,Charlotte,NC,28214
Shamrock Drive Baptist Daycare,4301 Shamrock Dr,Charlotte,NC,28215
Sharon Baptist Church,PO Box 481,Smithfield,NC,27577
Sharon Forest Baptist Church,PO Box 25734,Charlotte,NC,28229
Silver Mount Baptist Church,501 W Arrowood Rd,Charlotte,NC,28217
Southside Baptist Church,PO Box 1042,Thomasville,NC,27361
St John's Baptist Church,1615 Oberlin Rd,Raleigh,NC,27608
St Luke Baptist Church,1600 Norris Ave,Charlotte,NC,28206
St Paul Baptist Church,PO Box 1307,Tarboro,NC,27886
St Paul Missionary Baptist,1236 Mulberry Ave,Charlotte,NC,28216
Statesville Rd Baptist Church,4901 Statesville Rd,Charlotte,NC,28269
Sunset Road Baptist Church,2317 Sunset Rd,Charlotte,NC,28216
Temple Baptist Church,1801 Market St,Wilmington,NC,28403
Thomasboro Baptist Church,216 Bradford Dr,Charlotte,NC,28208
University Hills Baptist Chr,1500 Suther Rd,Charlotte,NC,28213
University Park Baptist Church,PO Box 16128,Charlotte,NC,28297
Victory Missionary Baptist Chr,3700 Freedom Dr,Charlotte,NC,28208
Westmoreland Baptist Church,3205 Sam Wilson Rd,Charlotte,NC,28214
Whiting Avenue Baptist Church,3117 Whiting Ave,Charlotte,NC,28205
Wilson Grove Baptist Church,6624 Wilgrove-Mint Hill Rd,Charlotte,NC,28227
Woodlawn Baptist Church,1101 N Main St,Lowell,NC,28098
Our Lady of Consolation Church,2301 Statesville Ave,Charlotte,NC,28206
Our Lady of Guadalupe Church,6212 Tuckaseegee Rd,Charlotte,NC,28214
Our Lady of the Assumption,4207 Shamrock Dr,Charlotte,NC,28215
St Ann Catholic Church,3635 Park Rd,Charlotte,NC,28209
St Gabriels Catholic Church,3016 Providence Rd,Charlotte,NC,28211
St Luke Catholic Church,13700 Lawyers Rd,Charlotte,NC,28227
St Matthews Catholic Church,PO Box 49349,Charlotte,NC,28277
St Patrick's Cathedral,1621 Dilworth Rd E,Charlotte,NC,28203
St Peter's Catholic Church,2700 E 4th St,Greenville,NC,27858
St Thomas Aquinas Church,1400 Suther Rd,Charlotte,NC,28213
St Vincent De Paul Catholic,Old Reid Rd,Charlotte,NC,28210
South Park Christian Church,6650 Park South Dr,Charlotte,NC,28210
Providence Road Church-Christ,4900 Providence Rd,Charlotte,NC,28226
Sugar Creek Church of Christ,3932 Sofley Rd,Charlotte,NC,28206
Christ Church,PO Box 6124,Charlotte,NC,28207
Holy Comforter Episcopal,2701 Park Rd,Charlotte,NC,28209
St Andrew's Episcopal Church,301 S Circle Dr,Rocky Mount,NC,27804
St John's Episcopal Church,PO Box 722,Fayetteville,NC,28302
St Margaret's Episcopal Church,5008 Pineville-Matthews Rd,Charlotte,NC,28226
St Martin's Episcopal Church,1510 E 7th St,Charlotte,NC,28204
St Michael's Anglican Church,PO Box 10100,Charlotte,NC,28212
St Peter's Episcopal Church,115 W 7th St,Charlotte,NC,28202
Greater Fellowship Missionary,2300 McClintock Rd,Charlotte,NC,28205
Pineville Church-Nazarene Cdc,8614 Pineville Matthews Rd,Charlotte,NC,28226
Trinity Assembly of God,1019 Scaleybark Rd,Charlotte,NC,28209
Trinity Church of the Nazarene,6031 Tuckaseegee Rd,Charlotte,NC,28208
Temple Israel,4901 Providence Rd,Charlotte,NC,28226
A Mighty Fortress Church,8200 McClure Cir,Charlotte,NC,28216
Advent Lutheran Church,230 Erwin Rd,Chapel Hill,NC,27514
Ascension Lutheran Church,1225 E Morehead St,Charlotte,NC,28204
Christ Lutheran Church,324 2nd Ave SE,Hickory,NC,28602
Christ the King Lutheran Chrch,13501 York Rd,Charlotte,NC,28278
Good Shepherd Lutheran Church,7000 Creedmoor Rd,Raleigh,NC,27613
Incarnation Lutheran Church,6400 Old Reid Rd,Charlotte,NC,28210
Living Saviour Lutheran Church,6817 Carmel Rd,Charlotte,NC,28226
Prince of Peace Lutheran Chr,3001 Beatties Ford Rd,Charlotte,NC,28216
Redeemer Lutheran Church,PO Box 187,Catawba,NC,28609
Resurrection Lutheran Church,100 W Lochmere Dr,Cary,NC,27518
St Luke's Lutheran Church,11020 NC-801,Mt Ulla,NC,28125
St Mark's Lutheran Church,5202 Mooresville Rd,Salisbury,NC,28147
Blair Road United Methodist,9135 Blair Rd,Charlotte,NC,28227
Calvary United Methodist Chr,304 E Trinity Ave,Durham,NC,27701
Central United Methodist Chr,PO Box 203,Spencer,NC,28159
Christ United Methodist Church,PO Box 38,Drexel,NC,28619
Cokesbury United Methodist Chr,3315 Poole Rd,Raleigh,NC,27610
Cole Memorial United Meth Chr,PO Box 26066,Charlotte,NC,28221
Commonwealth United Methodist,2434 Commonwealth Ave,Charlotte,NC,28205
Covenant United Methodist Chr,4005 Corey Rd,Winterville,NC,28590
East Stonewall Ame Zion Chr,1729 Griers Grove Rd,Charlotte,NC,28216
First United Meth Child Care,501 N Tryon St,Charlotte,NC,28202
Gethsemane Ame Zion Church,531 Campus St,Charlotte,NC,28216
Grace United Methodist Church,401 Grace St,Wilmington,NC,28401
Greater Bethel Ame Church,201 Grandin Rd,Charlotte,NC,28208
Hawthorne Lane United Meth Chr,501 Hawthorne Ln,Charlotte,NC,28204
Hickory Grove United Meth Chr,6401 Hickory Grove Rd,Charlotte,NC,28215
Light of Christ Church,9106 Bryant Farms Rd,Charlotte,NC,28277
Little Rock Ame Zion Church,PO Box 33398,Charlotte,NC,28233
Logan Chapel Christian Church,9505 Parkton Rd,Charlotte,NC,28215
Memorial United Methodist Chr,PO Box 428,Thomasville,NC,27361
Mouzon United Methodist Church,3100 Selwyn Ave,Charlotte,NC,28209
Myers Park United Methodist,PO Box 6161,Charlotte,NC,28207
Myers Tabernacle Ame Zion,509 Cherry St,Charlotte,NC,28204
Oak Grove Methodist Church,1482 Carolyn Dr,Charlotte,NC,28205
Oak Grove United Methodist,6440 Old Statesville Rd,Charlotte,NC,28269
Parkwood Institutional Cme Chr,802 Tom Hunter Rd,Charlotte,NC,28213
Plaza United Methodist Church,5600 The Plz,Charlotte,NC,28215
Pleasant Grove United Church,1915 Oakdale Rd,Charlotte,NC,28216
Providence United Methodist,6450 Bringle Ferry Rd,Salisbury,NC,28146
Purcell United Methodist Chr,2141 Weyland Ave,Charlotte,NC,28208
Rockwell Ame Zion Church,PO Box 26634,Charlotte,NC,28221
Simpson Gillespie United Meth,3545 Beatties Ford Rd,Charlotte,NC,28216
St Andrew's United Methodist,1900 Emerywood Dr,Charlotte,NC,28210
St Francis United Methodist,4200 McKee Rd,Charlotte,NC,28270
St Johns United Methodist Chr,4305 Monroe Rd,Charlotte,NC,28205
St Mark's United Methodist Chr,4801 Six Forks Rd,Raleigh,NC,27609
St Paul United Methodist Chr,PO Box 7187,Rocky Mt,NC,27804
St Stephen United Methodist,6800 Sardis Rd,Charlotte,NC,28270
Steele Creek Ame Zion Church,1500 Shopton Rd,Charlotte,NC,28217
Trinity United Methodist Chr,4246 Us 401 Hwy N,Louisburg,NC,27549
University City United Meth,6100 W Sugar Creek Rd,Charlotte,NC,28269
Weeping Willow Ame Zion Church,2220 Milton Rd,Charlotte,NC,28215
Church of Jesus Christ of Lds,221 Pinedale Dr,Elon College,NC,27244
Calvary Church,5801 Pineville-Matthews Rd,Charlotte,NC,28226
Carolina Family Music Hall,5832 Freedom Dr,Charlotte,NC,28214
Church at Charlotte,2500 Carmel Rd,Charlotte,NC,28226
Community Outreach Christian,PO Box 16714,Charlotte,NC,28297
Crossway Community Church,6400 Prosperity Church Rd,Charlotte,NC,28269
Freedom Christian Ctr,4020 Freedom Dr,Charlotte,NC,28208
From the Heart Church,1100 N Sharon Amity Rd,Charlotte,NC,28211
Grace Covenant Church,500 Peachtree St,Rocky Mount,NC,27804
Greater Salem Church,5318 Salem Church Rd,Charlotte,NC,28216
Harvest Church,3500 Buffaloe Rd,Raleigh,NC,27604
Idlewild Christian Church,8005 Lawyers Rd,Charlotte,NC,28227
Impact Church,PO Box 691563,Charlotte,NC,28227
Lamp Light Church,2726 Chesterfield Ave,Charlotte,NC,28205
Little Church On the Lane,522 Moravian Ln,Charlotte,NC,28207
Metropolitan Community Church,1825 Eastway Dr,Charlotte,NC,28205
Mission Church of the Lord,PO Box 791053,Charlotte,NC,28206
New Creation Christian,4141 Shopton Rd,Charlotte,NC,28217
New Life Fellowship Church,1337 Samuel St,Charlotte,NC,28206
Peace Moravian Church,PO Box 471635,Charlotte,NC,28247
Rod of God Ministries,PO Box 240381,Charlotte,NC,28224
Steele Creek Church-Charlotte,1929 W Arrowood Rd,Charlotte,NC,28217
Temple of Refuge,"1001 E Wt Harris Blvd, #p-259",Charlotte,NC,28213
Unity Fellowship Christian Chr,3514 Marvin Rd,Charlotte,NC,28211
University Church of Christ,9920 Newell-Hickory Grove Rd,Charlotte,NC,28213
University City Fellowship,PO Box 621058,Charlotte,NC,28262
Holy Trinity Orthodox Cthdrl,600 East Blvd,Charlotte,NC,28203
St Nektarios Greek Orthodox,5108 Kuykendall Rd,Charlotte,NC,28270
Cathedral of the Cross Church,13925 Erwin Rd,Charlotte,NC,28273
Central Church of God,5301 Sardis Rd,Charlotte,NC,28270
Charlotte Vineyard Christian,PO Box 17054,Charlotte,NC,28227
First United Pentecostal Chrch,4929 N Sharon Amity Rd,Charlotte,NC,28205
Garr Memorial Church,7700 Wallace Rd,Charlotte,NC,28212
Grace Christian Ctr,PO Box 49208,Charlotte,NC,28277
Iglesia Evangelica Pentecostes,6414 S Tryon St,Charlotte,NC,28217
Jesus Christ Abundant Life,512 W 32nd St,Charlotte,NC,28206
Living Church of Our Lord,4920 E Wt Harris Blvd,Charlotte,NC,28215
Mission Elim,PO Box 560294,Charlotte,NC,28256
New Life Church of God,10328 Plaza Rd Ext,Charlotte,NC,28215
Northside Church of God,6401 Rumple Rd,Charlotte,NC,28262
Oakdale Church of God,730 Oakdale Rd,Charlotte,NC,28216
Progressive Church of Our Lord,600 Capps Hill Mine Rd,Charlotte,NC,28216
Sherman Memorial Cogic,1401 Parkwood Ave,Charlotte,NC,28205
Albemarle Road Presbyterian,PO Box 25903,Charlotte,NC,28229
Amity Presbyterian Church,2831 N Sharon Amity Rd,Charlotte,NC,28205
Back Creek Ar Presbyterian Chr,1821 Back Creek Church Rd,Charlotte,NC,28213
Bread of Life Christian Mnstrs,PO Box 561065,Charlotte,NC,28256
C N Jenkins Memorial Church,1421 Statesville Ave,Charlotte,NC,28206
Carmel Presbyterian,2048 Carmel Rd,Charlotte,NC,28226
Central Steel Creek Church,PO Box 410054,Charlotte,NC,28241
Christ Presbyterian Church,PO Box 2237,Winterville,NC,28590
Cooks Memorial Presbyterian,3413 Mt Holly-Huntersville Rd,Charlotte,NC,28216
Covenant Presbyterian Church,PO Box 1865,Wendell,NC,27591
Craig Ave Tabernacle Arp Chr,3936 Craig Ave,Charlotte,NC,28211
Derita Presbyterian Church,PO Box 26216,Charlotte,NC,28221
First Presbyterian Church,512 Old Mount Holly Rd,Stanley,NC,28164
First United Presbyterian Chr,406 N College St,Charlotte,NC,28202
Forest Hill Presbyterian Chr,7224 Park Rd,Charlotte,NC,28210
Good Shepherd Presbyterian Chr,3307 Rea Rd,Charlotte,NC,28226
Grier Heights Presbyterian Chr,325 Skyland Ave,Charlotte,NC,28205
Hickory Grove Presbyterian,5735 E Wt Harris Blvd,Charlotte,NC,28215
Korean First Presbyterian Chr,318 Stage Coach Trl,Greensboro,NC,27409
Korean Presbyterian Church,701 Scaleybark Rd,Charlotte,NC,28209
Mallard Creek Presbyterian Chr,1600 W Mallard Creek Church Rd,Charlotte,NC,28262
Memorial Presbyterian Church,2600 Beatties Ford Rd,Charlotte,NC,28216
Mt Olive Presbyterian Church,PO Box 158,Mt Olive,NC,28365
Mulberry Presbyterian Child Cr,5600 Tuckaseegee Rd,Charlotte,NC,28208
Myers Park Presbyterian Church,PO Box 6160,Charlotte,NC,28207
Philadelphia Presbyterian Chr,11501 Bain School Rd,Charlotte,NC,28227
Plaza Presbyterian Church,2304 The Plz,Charlotte,NC,28205
Pleasant Hill Presbyterian Chr,15000 York Rd,Charlotte,NC,28278
Prosperity Presbyterian,5533 Prosperity Church Rd,Charlotte,NC,28269
Providence Presbyterian Church,10140 Providence Church Ln,Charlotte,NC,28277
Robinson Presbyterian Church,9424 Harrisburg Rd,Charlotte,NC,28215
Sardis Presbyterian Pre-School,6100 Sardis Rd,Charlotte,NC,28270
Seigle Avenue Presbyterian Chr,PO Box 36524,Charlotte,NC,28236
Selwyn Ave Presbyterian Church,2929 Selwyn Ave,Charlotte,NC,28209
Sharon Presbyterian Church,5201 Sharon Rd,Charlotte,NC,28210
St Giles Presbyterian Church,5101 Oak Park Rd,Raleigh,NC,27612
Statesville Avenue Prsbytrn,PO Box 16206,Charlotte,NC,28297
Steele Creek Presbyterian Chr,7407 Steele Creek Rd,Charlotte,NC,28217
Stonebridge Church Community,3700 Prosperity Church Rd,Charlotte,NC,28269
Sugar Creek Presbyterian Chr,101 W Sugar Creek Rd,Charlotte,NC,28213
Trinity Presbyterian Church,300 S Caldwell St,Salisbury,NC,28144
Uptown Christ Covenant Church,127 Brevard Ct,Charlotte,NC,28202
Westminster Presbyterian Chr,301 E Whitaker Mill Rd,Raleigh,NC,27608
United House Of Prayer,740 Matthews School Rd,Matthews,NC,28105
Renovatus Church Of God,1209 Little Rock Rd,Charlotte,NC,28214
Calvary Church Of Nazarene,4000 N Sharon Amity Rd,Charlotte,NC,28205
Islamic Center Of Charlotte,1700 Progress Ln,Charlotte,NC,28205
United Church Of God,1859 Slater Rd,Charlotte,NC,28216
Mission Church Of Lord,3039 Amy James Ave,Charlotte,NC,28208
First Choice Of God,5300 Albemarle Rd,Charlotte,NC,28212
Jerusalem House Of God,1704 W Trade St,Charlotte,NC,28216
Zion Temple Of Pentecostal,8731 Mount Holly Rd,Charlotte,NC,28214
Foundation Ministries Of Charlotte,4336 Glenwood Dr,Charlotte,NC,28208
Southwest Church Of Christ,11610 Green Willow Ln,Charlotte,NC,28226
Grace Tabernacle Of Prayer,2007 Beatties Ford Rd,Charlotte,NC,28216
2X Salt,1900 Queen City Dr,Charlotte,NC,28208
Abiding Apostolic Chrstn Chr,2414 N Sharon Amity Rd,Charlotte,NC,28205
Abundant Grace Ministries,725 Tom Hunter Rd,Charlotte,NC,28213
Adams Memorial Apostolic Hlnss,406 State St,Charlotte,NC,28208
Advancing Renewal Ministries,11616 Sir Francis Drake Dr,Charlotte,NC,28277
After School,7130 Old Pineville Rd,Charlotte,NC,28217
Agapa Global Ministries,2841 Old Steele Creek Rd,Charlotte,NC,28208
Albemarle Road Prsbytrn Church,6740 Albemarle Rd,Charlotte,NC,28212
Aldersgate United Mthdst Chr,5338 Nations Ford Rd,Charlotte,NC,28217
All Nations Church,301 S Davidson St,Charlotte,NC,28202
All Saints Anglican Church,1312 Matthews Mint Hill Rd,Matthews,NC,28105
All Saints Episcopal Church,525 Lake Concord Rd NE,Concord,NC,28025
All Saints Lutheran Church,17030 Lancaster Hwy,Charlotte,NC,28277
All Saints Lutheran Church Lcm,17200 Carolina Academy Rd,Charlotte,NC,28277
All Saints Presbyterian Church,3901 McKee Rd,Charlotte,NC,28270
Arden Seventh-Day Adventist,35 Airport Rd,Arden,NC,28704
Arden First Baptist Church,3839 Sweeten Creek Rd,Arden,NC,28704
Biltmore Baptist Church,35 Clayton Rd,Arden,NC,28704
Long Shoals Baptist Church,661 Long Shoals Rd,Arden,NC,28704
St Barnabas Catholic Church,PO Box 38,Arden,NC,28704
Lutheran Church-the Nativity,PO Box 208,Arden,NC,28704
Mountain Vintage Fellowship,3867 Sweeten Creek Rd,Arden,NC,28704
Arden Presbyterian Church,2215 Hendersonville Rd,Arden,NC,28704
Banner Chapel Advent Christian,PO Box 423,Benson,NC,27504
Benson Baptist Church,PO Box 323,Benson,NC,27504
St Mary's Free Will Baptist Ch,7987 Raleigh Rd,Benson,NC,27504
Benson United Methodist Church,PO Box 72,Benson,NC,27504
Benson Pentecosta Free Will,63 Byrdtown Rd,Benson,NC,27504
Friendly Chapel Church,11455 Nc-50 N,Benson,NC,27504
Hodges Chapel Church,780 Hodges Chapel Rd,Benson,NC,27504
Ephesus Seventh Day Adventist,PO Box 486,Winston-Salem,NC,27102
Antioch Baptist Church,3413 E Highway 150,Lincolnton,NC,28092
Ardmore Baptist Church,PO Box 5507,Winston-Salem,NC,27113
Becks Baptist Church,5505 Becks Church Rd,Winston-Salem,NC,27106
Berean Baptist Church,517 Glensford Dr,Fayetteville,NC,28314
Bethany Baptist Church,1077 9 Mile Rd,Richlands,NC,28574
College Park Baptist Church,1601 Walker Ave,Greensboro,NC,27403
Crestwood Baptist Church,530 Motor Rd,Winston-Salem,NC,27105
Edgewood Baptist Church,PO Box 57,Cooleemee,NC,27014
First Calvary Baptist Church,1311 Morehead Ave,Durham,NC,27707
First Waughtown Baptist Church,838 Moravia St,Winston-Salem,NC,27107
Forest Hill Baptist Church,402 Polo Rd,Winston-Salem,NC,27105
Forsyth Park Baptist Church,1600 S Hawthorne Rd,Winston-Salem,NC,27103
Friendship Baptist Church,1352 S Friendship Rd,Germanton,NC,27019
Galilee Baptist Church,575 N Martin Luther King Jr Dr,Winston-Salem,NC,27101
Glenn View Baptist Church,4275 Glenn Hi Rd,Winston-Salem,NC,27107
Grace Baptist Temple,3305 Peters Creek Pky,Winston-Salem,NC,27127
Griffith Baptist Church,1987 Old Salisbury Rd,Winston-Salem,NC,27127
Knollwood Baptist Church,330 Knollwood St,Winston-Salem,NC,27104
Konnoak Baptist Church,400 McLean Ave,Winston-Salem,NC,27127
Marshall Baptist Church,5739 Old Rural Hall Rd,Winston-Salem,NC,27105
Mineral Springs Baptist Church,124 Ridge St,Jonesville,NC,28642
Mt Olive Baptist Church,5043 Mt Olive Church Rd,Pittsboro,NC,27312
Mt Pleasant Baptist Church,2524 Stack Rd,Monroe,NC,28112
Mt Zion Baptist Church,109 Laurel Mill Centerville Rd,Louisburg,NC,27549
New Bethel Baptist Church,2508 Crest St,Durham,NC,27705
New Friendship Baptist Church,4258 Old Lexington Rd,Winston-Salem,NC,27107
New Jerusalem Missionary Bapt,1212 Dunleith Ave,Winston-Salem,NC,27101
Northwest Baptist Church,407 Petree Rd,Winston-Salem,NC,27106
Oaklawn Baptist Church,700 Wayside Dr,Winston-Salem,NC,27107
Old Town Baptist Church,4386 Shattalon Dr,Winston-Salem,NC,27106
Peace Haven Baptist Church,PO Box 382,Yadkinville,NC,27055
Phillip Chapel Baptist Church,PO Box 865,Winston-Salem,NC,27102
Piney Grove Baptist Church,PO Box 1277,Swansboro,NC,28584
Pleasant View Baptist Church,1834 Us-70 E,Morganton,NC,28655
Robin Hood Baptist Church,5422 Robinhood Rd,Winston-Salem,NC,27106
Salem Baptist Church,PO Box 394,Sneads Ferry,NC,28460
Shiloh Baptist Church,719 Walnut St,Wilmington,NC,28401
South Fork Baptist Church,4112 S Fork Ave,Hickory,NC,28602
St Stephen Baptist Church,5000 Noble St,Winston-Salem,NC,27105
Twin City Baptist Church,1337 Ebert St,Winston-Salem,NC,27103
Vernon Forest Baptist Church,274 Mt Vernon Church Rd,Winston-Salem,NC,27107
Wake Forest Baptist Church,118 E South Ave,Wake Forest,NC,27587
Waughtown Baptist Church,1538 Waughtown St,Winston-Salem,NC,27107
Woodland Baptist Christian,3665 N Patterson Ave,Winston-Salem,NC,27105
Our Lady of Fatima Chapel,211 W 3rd St,Winston-Salem,NC,27101
Our Lady of Mercy Catholic Chr,1918 S Main St,Winston-Salem,NC,27127
St Benedicts Catholic Church,1625 E 12th St,Winston-Salem,NC,27101
St Leo's Catholic Church,335 Springdale Ave,Winston-Salem,NC,27104
First Christian Church,PO Box 531,Ramseur,NC,27316
Greater Cleveland Ave Chrstn,5095 Lansing Dr,Winston-Salem,NC,27105
Pinedale Christian Church,3395 Peters Creek Pky,Winston-Salem,NC,27127
Carver School Rd-Church-Christ,4399 Carver School Rd,Winston-Salem,NC,27105
St Paul's Episcopal Chr,520 Summit St,Winston-Salem,NC,27101
St Timothy's Episcopal Church,107 Louis St,Greenville,NC,27858
Faith Missionary Alliance Chr,1077 Gumtree Rd,Winston-Salem,NC,27107
Temple Emanuel,1129 Jefferson Rd,Greensboro,NC,27410
Augsburg Lutheran Church,845 W 5th St,Winston-Salem,NC,27101
Lutheran Church-the Epiphany,5220 Silas Creek Pky,Winston-Salem,NC,27106
St John's Lutheran Church,200 W Innes St,Salisbury,NC,28144
Ardmore United Methodist Chr,630 S Hawthorne Rd,Winston-Salem,NC,27103
Bethel United Methodist Church,12698 Idlebrook Rd,Midland,NC,28107
Burkhead United Methodist Chr,5250 Silas Creek Pky,Winston-Salem,NC,27106
Canaan United Methodist Church,1760 Shady Grove Church Rd,Winston-Salem,NC,27107
Centenary United Methodist Chr,620 Centenary Church Rd,Mt Ulla,NC,28125
Central Terrace Methodist Chr,3 E Devonshire St,Winston-Salem,NC,27127
Goler Memorial Ame Zion Chr,630 Patterson Ave,Winston-Salem,NC,27101
Goler Metropolitan Ame Chr,1435 E 4th St,Winston-Salem,NC,27101
Konnoak Hills Methodist Church,430 Weisner St,Winston-Salem,NC,27127
Maple Springs United Methodist,2569 Reynolda Rd,Winston-Salem,NC,27106
Marvin United Methodist Church,PO Box 11527,Winston-Salem,NC,27116
Mount Carmel United Methodist,4265 Ebert Rd,Winston-Salem,NC,27127
Mount Pleasant United Meth Chr,4737 Mount Pleasant Dr,Winston-Salem,NC,27105
Mt Tabor United Methodist Chr,3100 Creek Ridge Rd,Greensboro,NC,27406
New Mount Vernon Parsonage,6408 Friendship Ledford Rd,Winston-Salem,NC,27107
Oak Forest United Meth Church,11461 Old Us-52,Winston-Salem,NC,27107
Oak Summit United Methodist,732 Oak Summit Rd,Winston-Salem,NC,27105
Shady Grove Methodist Church,167 Shady Grove Church Rd,Winston-Salem,NC,27107
St John Cme Church,650 Crawford St,Winston-Salem,NC,27105
Wesley Memorial United Meth,1401 S College Rd,Wilmington,NC,28403
Advent Moravian Church,1514 W Clemmonsville Rd,Winston-Salem,NC,27127
Ambassadors for Christ Revival,1500 Harriet Tubman Dr,Winston-Salem,NC,27105
Ardmore Moravian Church,2013 W Academy St,Winston-Salem,NC,27103
Bethabara Moravian Church,2100 Bethabara Rd,Winston-Salem,NC,27106
Calvary Moravian Church,600 Holly Ave,Winston-Salem,NC,27101
Christ Moravian Church,919 W Academy St,Winston-Salem,NC,27101
Christian Faith Ctr,1218 NE 25th St,Winston-Salem,NC,27105
Church of Christ at South Fork,205 Keating Dr,Winston-Salem,NC,27104
Fairview Moravian Church,6550 Silas Creek Pky,Winston-Salem,NC,27106
Friedberg Moravian Church,2178 Friedberg Church Rd,Winston-Salem,NC,27127
Friedland Moravian Church,2750 Friedland Church Rd,Winston-Salem,NC,27107
Fries Memorial Moravian Church,251 N Hawthorne Rd,Winston-Salem,NC,27104
Home Moravian Church,PO Box J,Winston-Salem,NC,27108
Hope Community Church,PO Box 16604,Winston-Salem,NC,27115
Hope Moravian Church,2759 Hope Church Rd,Winston-Salem,NC,27127
Hopewell Moravian Church,701 Hopewell Church Rd,Winston-Salem,NC,27127
Iglesia Nueva Vida/Spanish,4423 S Main St,Winston-Salem,NC,27127
Konnoak Hills Moravian Church,3401 Konnoak Dr,Winston-Salem,NC,27127
Messiah Moravian Church,1401 N Peace Haven Rd,Winston-Salem,NC,27104
New Philadelphia Moravian Chr,4440 Country Club Rd,Winston-Salem,NC,27104
Oak Grove Moravian Chr,120 Hammock Farm Rd,Winston-Salem,NC,27105
Olivet Moravian Church,2205 Olivet Church Rd,Winston-Salem,NC,27106
Pine Chapel Moravian Church,324 Goldfloss St,Winston-Salem,NC,27127
Trinity Moravian Church,220 E Sprague St,Winston-Salem,NC,27127
Union Cross Moravian Church,4295 High Point Rd,Winston-Salem,NC,27107
Greek Orthodox Church,435 Keating Dr,Winston-Salem,NC,27104
Christ Rescue Temple Church,1500 N Dunleith Ave,Winston-Salem,NC,27105
Christ Temple,2935 Cole Rd,Winston-Salem,NC,27107
First Assembly of God,PO Box 1599,Smithfield,NC,27577
Greater Faith Chapel Church,520 Glenbrook Dr,Winston-Salem,NC,27101
Heavenview United Pentecostal,1410 W Clemmonsville Rd,Winston-Salem,NC,27127
Mt Sinai Full Gospel Dlvrnc,2721 Manchester St,Winston-Salem,NC,27105
Parkview Church of God,3263 Kernersville Rd,Winston-Salem,NC,27107
Praise Assembly Christian Ctr,2252 Queen St,Winston-Salem,NC,27103
Hebron United Church-Christ,129 Hebron Church Rd,Winston-Salem,NC,27107
Highland Presbyterian,2380 Cloverdale Ave,Winston-Salem,NC,27103
Parkway Presbyterian Church,1000 Yorkshire Rd,Winston-Salem,NC,27106
Redeemer Presbyterian Church,1046 Miller St,Winston-Salem,NC,27103
Reynolda Presbyterian Church,2200 Reynolda Rd,Winston-Salem,NC,27106
St Andrews Presbyterian,7506 Falls of Neuse Rd,Raleigh,NC,27615
Shattalon Church Of Christ,5490 Shattalon Dr,Winston-Salem,NC,27106
Community Mosque Of Ws,1419 Waughtown St,Winston-Salem,NC,27107
Greater Church Of Deliverance,4198 Cherry St,Winston-Salem,NC,27105
2Nd Chance Ministries Global,128 Blaze St,Winston-Salem,NC,27105
Abiding Faith Lutheran Church,1355 Jonestown Rd,Winston-Salem,NC,27103
Adams W M Rev,3036 N Patterson Ave,Winston-Salem,NC,27105
Agape Care ,3650 N Patterson Ave,Winston-Salem,NC,27105
Alicia Bailey Ministries,30254 PO Box,Winston-Salem,NC,0
All Nations Worship Center,619 Coliseum Dr,Winston-Salem,NC,27106
Alpha ,1210 Clingman St,Goldsboro,NC,27534
Fayetteville Seventh-Day Chr,PO Box 64397,Fayetteville,NC,28306
Aaron Johnson Family Life Ctr,1217 Murchison Rd,Fayetteville,NC,28301
Arran Lake Baptist Church,1130 Bingham Dr,Fayetteville,NC,28304
Bladen Union Baptist Church,2224 W Bladen Union Church Rd,Fayetteville,NC,28306
Carroll Memorial Baptist,2220 Camden Rd,Fayetteville,NC,28306
Cedar Creek Baptist Church,4170 Tabor Church Rd,Fayetteville,NC,28312
Cedar Falls Baptist Church,6181 Ramsey St,Fayetteville,NC,28311
Christian Educational Dept,5414 Raeford Rd,Fayetteville,NC,28304
Cumberland Baptist Church,4957 Cumberland Rd,Fayetteville,NC,28306
Falling Run Missionary,2852 Cedar Creek Rd,Fayetteville,NC,28312
Faymont Baptist Church,3663 Cumberland Rd,Fayetteville,NC,28306
Good Hope Baptist Church,4038 Graham Sherron Rd,Wake Forest,NC,27587
Immanuel Baptist Church,1101 S Elm St,Greenville,NC,27858
Jesus Peace Free Will Baptist,980 Kennesaw Dr,Fayetteville,NC,28314
Judson Baptist Church,505 Judson Church Rd,Fayetteville,NC,28312
Korean Baptist Church,6881 Cliffdale Rd,Fayetteville,NC,28314
La Grange Park Baptist Church,7502 Ascot Ave,Fayetteville,NC,28303
Lafayette Baptist Church,501 Hope Mills Rd,Fayetteville,NC,28304
Lake Lynn Baptist Church,3363 Gillespie St,Fayetteville,NC,28306
Lebanon Baptist Church,4635 Hicone Rd,Greensboro,NC,27405
Massey Hill Baptist Church,1027 Southern Ave,Fayetteville,NC,28306
Mt Gilead Baptist Church,PO Box 11877,Durham,NC,27703
Mt Olive Missionary Bapt Chr,118 Johnson St,Fayetteville,NC,28303
Mt Pisgah Baptist Church,RR 1 Box 442,Upper Hominy,NC,28715
Parks Chapel Baptist Church,2503 Murchison Rd,Fayetteville,NC,28301
Pleasant Grove Baptist Church,1241 Old Fairground Rd,Willow Spring,NC,27592
Savannah Baptist Church,6675 Tabor Church Rd,Fayetteville,NC,28312
Second Baptist Church,740 Rankin Ave,Mt Holly,NC,28120
Snyder Memorial Baptist Church,PO Box 58149,Fayetteville,NC,28305
Stoney Point Baptist Church,6554 Rockfish Rd,Fayetteville,NC,28306
Trinity Baptist Church,PO Box 27,Spencer,NC,28159
Village Baptist Church,906 S McPherson Church Rd,Fayetteville,NC,28303
West Fayetteville Baptist Chr,2465 Gillis Hill Rd,Fayetteville,NC,28304
St Ann's Catholic Church,4057 Us Highway 70 Bus W,Clayton,NC,27520
St Elizabeth Ann Seton,700 Carnegie Dr,Fayetteville,NC,28311
St Patrick Catholic Chr,2840 Village Dr,Fayetteville,NC,28304
Peace Memorial Christian Chr,511 Cumberland St,Fayetteville,NC,28301
New Testament Christian Church,3324 Rogers Dr,Fayetteville,NC,28303
Holy Trinity Episcopal Church,1601 Raeford Rd,Fayetteville,NC,28305
Christus Victor Lutheran,1615 E Nc-54,Durham,NC,27713
St James Lutheran Church,1942 Saint James Church Rd,Newton,NC,28658
Camp Ground United Methodist,4625 Campground Rd,Fayetteville,NC,28314
Culbreth Mem United Meth Ch,730 Blackwell St,Fayetteville,NC,28312
Cumberland United Methodist,2262 George Owen Rd,Fayetteville,NC,28306
Gardners United Methodist Chr,4555 Rosehill Rd,Fayetteville,NC,28311
Hay Mt United Methodist Chr,1450 Pine Valley Loop,Fayetteville,NC,28305
Hay Street United Methodist,PO Box 456,Fayetteville,NC,28302
Haymount United Methodist,1700 Fort Bragg Rd,Fayetteville,NC,28303
John Wesley United Methodist,616 Cumberland St,Fayetteville,NC,28301
Johnson Memorial United Mthdst,306 McArthur Rd,Fayetteville,NC,28311
New Bethel Ame Zion Church,PO Box 42604,Fayetteville,NC,28309
Person St United Methodist Chr,509 Person St,Fayetteville,NC,28301
Salem Preschool and Child Care,2171 Middle Rd,Fayetteville,NC,28312
Simon Temple Ame Zion,PO Box 11031,Fayetteville,NC,28303
St Andrews United Methodist,1201 Maxwell Dr,Raleigh,NC,27603
St Luke Ame Church,522 Hillsboro St,Fayetteville,NC,28301
St Matthews United Methodist,202 Hope Mills Rd,Fayetteville,NC,28304
Victory United Methodist Chr,PO Box 64132,Fayetteville,NC,28306
Wesley Hts United Methodist Ch,304 Trinity Dr,Fayetteville,NC,28301
Christ Cathedral Gospel,PO Box 2709,Fayetteville,NC,28302
Church of Christ,PO Box 576,Jacksonville,NC,28541
Church of the Open Door,4584 Reedy Branch Rd,Winterville,NC,28590
Covenant Love Family Church,PO Box 53948,Fayetteville,NC,28305
Deliverance Temple,5315 Raeford Rd,Fayetteville,NC,28304
Fayetteville Community Church,2010 Middle River Loop,Fayetteville,NC,28312
Manna Church,5117 Cliffdale Rd,Fayetteville,NC,28314
New Life Bible Church,1420 Hoke Loop Rd,Fayetteville,NC,28314
Trinity Full Gospel Non-Denom,PO Box 42252,Fayetteville,NC,28309
Saints Constantine ,614 Oakridge Ave,Fayetteville,NC,28305
C ,514 Adams St,Fayetteville,NC,28301
Calvary Assembly of God,1665 Pleasant Ridge Rd,Greensboro,NC,27409
Cedar Creek Church of God,PO Box 175,Fayetteville,NC,28302
Mt Carmel Pentecostal Holiness,2569 Owen Dr,Fayetteville,NC,28306
North Ramsey Church of God,PO Box 35686,Fayetteville,NC,28303
Northwood Temple Church,4250 Ramsey St,Fayetteville,NC,28311
Person Street Pent Holiness Ch,918 Person St,Fayetteville,NC,28301
Rivers of Living Water Church,1764 Bingham Dr,Fayetteville,NC,28304
Smith Temple Church of God,2296 Slater Ave,Fayetteville,NC,28301
St Paul Full Gospel Baptist,602 Mann St,Fayetteville,NC,28301
United Pentecostal Church,315 Spence St,Burlington,NC,27217
Galatia Presbyterian Church,8800 Galatia Church Rd,Fayetteville,NC,28304
Highland Presbyterian Church,PO Box 53036,Fayetteville,NC,28305
Mac Pherson Presbyterian,PO Box 40436,Fayetteville,NC,28309
Peace Presbyterian Church,770 W Firetower Rd,Winterville,NC,28590
Victory Of Worship,305 Cross Creek St,Fayetteville,NC,28301
Freedom Temple Of Deliverance,120 Preston Ave,Fayetteville,NC,28301
Calvary House Of Prayer,2611 Dumbarton Rd,Fayetteville,NC,28306
Faith House Of Prayer,824 Old Wilmington Rd,Fayetteville,NC,28301
Faith ,3950 Victory Ln,Winterville,NC,28590
Fayetteville Assembly Of God,2754 Gillespie St,Fayetteville,NC,28306
Antioch Church Of God,542 Shaw Rd,Fayetteville,NC,28303
Lakedale Church Of God,2211 Southern Ave,Fayetteville,NC,28306
Gethsemane Gardens Of Christ,1500 Bragg Blvd,Fayetteville,NC,28301
Aaron Johnson Family Life Center,1222 Coley Dr,Fayetteville,NC,28301
Abiding In Him Ministries,1963 Graham Rd,Fayetteville,NC,28304
Abney Chapel Sda Church,2996 Rosehill Rd,Fayetteville,NC,28301
Abundant Life Church Of God,220 Pelt Dr,Fayetteville,NC,28301
Agape Ministry,868 Amye St,Fayetteville,NC,28301
Aliv Ministries,851 Bragg Blvd,Fayetteville,NC,28301
Foster Memorial Sda Church,375 Hendersonville Rd,Asheville,NC,28803
Beaverdam Baptist Church,399 Beaverdam Rd,Asheville,NC,28804
Berea Baptist Church,2578 Riceville Rd,Asheville,NC,28805
Beverly Hills Baptist Church,777 Tunnel Rd,Asheville,NC,28805
Grassy Branch Baptist Church,PO Box 9862,Asheville,NC,28815
Hill Street Baptist Church,135 Hill St,Asheville,NC,28801
Merrimon Avenue Baptist Chr,283 Merrimon Ave,Asheville,NC,28801
Morningside Baptist Church,14 Mineral Springs Rd,Asheville,NC,28805
Mt Zion Missionary Baptist Chr,47 Eagle St,Asheville,NC,28801
New Bridge Baptist Church,199 Elkwood Ave,Asheville,NC,28804
New Life Community Church,56 Ravenscroft Dr,Asheville,NC,28801
North Ashville Baptist Church,20 Reynolds Mountain Blvd,Asheville,NC,28804
Oakley Baptist Church,2300 Siler City Glendon Rd,Siler City,NC,27344
Oteen Baptist Church,PO Box 9128,Asheville,NC,28815
Richland Baptist Church,PO Box 8352,Asheville,NC,28814
Rock Hill Baptist Church,PO Box 15298,Asheville,NC,28813
South Asheville Baptist Church,61 Rock Hill Rd,Asheville,NC,28803
Starnes Cove Baptist Church,149 Starnes Cove Rd,Asheville,NC,28806
Sunrise Baptist Church,2643 Mission Rd,Hudson,NC,28638
Victory Baptist Church,4765 Hampton Rd,Clemmons,NC,27012
West Asheville Baptist Church,926 Haywood Rd,Asheville,NC,28806
Westwood Baptist Church,830 High House Rd,Cary,NC,27513
Woodfin Baptist Church,55 Elkwood Ave,Asheville,NC,28804
Woodland Hills Baptist Church,50 Woodland Hills Rd,Asheville,NC,28804
Basilica of St Lawrence,97 Haywood St,Asheville,NC,28801
St Eugene's Catholic Church,PO Box 188,Wendell,NC,27591
St Joan of Arc Catholic Church,919 Haywood Rd,Asheville,NC,28806
Biltmore Church of Christ,823 Fairview St,Asheville,NC,28803
All Souls Cathedral,PO Box 5978,Asheville,NC,28813
Grace Episcopal Church,419 S Main St,Lexington,NC,27292
Trinity Episcopal Church,60 Church St,Asheville,NC,28801
Beth Ha-Tephila Congregation,43 N Liberty St,Asheville,NC,28801
St Mark's Lutheran Church-Elca,PO Box 8608,Asheville,NC,28814
Abernethy United Methodist Chr,1418 Patton Ave,Asheville,NC,28806
Acton United Methodist Church,171 Sand Hill School Rd,Asheville,NC,28806
Asbury Memorial United Mthdst,171 Beaverdam Rd,Asheville,NC,28804
Bethesda United Methodist Chr,315 Old Haw Creek Rd,Asheville,NC,28805
Biltmore United Methodist Chr,376 Hendersonville Rd,Asheville,NC,28803
Covenant Community United,11 Rocket Dr,Asheville,NC,28803
Oakley United Methodist Church,607 Fairview Rd,Asheville,NC,28803
Holy Trinity Greek Orthodox,5000 Lead Mine Rd,Raleigh,NC,27612
Crossroads Assembly of God,20 S Bear Creek Rd,Asheville,NC,28806
Johnson Memorial Church of God,PO Box 688,Asheville,NC,28802
River of Life Full Gospel Chr,826 Haywood Rd,Asheville,NC,28806
Woodfin Church of God,142 Elk Mountain Rd,Asheville,NC,28804
Covenant Reformed Presbyterian,PO Box 8953,Asheville,NC,28814
First Congregational Church,PO Box 25687,Raleigh,NC,27611
First Presbyterian Child Care,40 Church St,Asheville,NC,28801
Grace Covenant Presbyterian,789 Merrimon Ave,Asheville,NC,28804
Warren Wilson Presbyterian Chr,PO Box 9000,Asheville,NC,28815
Biltmore Church Of God,1390 Sweeten Creek Rd,Asheville,NC,28803
Unity Church Of Asheville,130 Shelburne Rd,Asheville,NC,28806
First Church Of Nazarene,300 W 2nd St,Cherryville,NC,28021
Islamic Center Of Asheville,941 Old Fairview Rd,Asheville,NC,28803
Uu Church Of Asheville,1 Edwin Pl,Asheville,NC,28801
Lord's Church Of Asheville,36 Michigan Ave,Asheville,NC,28806
A Servant's Heart Ministries,26 Lovers Loop Rd,Asheville,NC,28803
Aaron Baptist Church,300 View St,Asheville,NC,28806
Abccm,30 Cumberland Ave,Asheville,NC,28801
Garner Advent Christian Church,PO Box 381,Garner,NC,27529
Aversboro Road Baptist Church,1600 Aversboro Rd,Garner,NC,27529
First Baptist Church of Garner,PO Box 285,Garner,NC,27529
Garner Freewill Baptist Church,PO Box 326,Garner,NC,27529
St Mary's Mother of the Church,1008 Vandora Springs Rd,Garner,NC,27529
First Church of the Nazarene,1410 Elder Way,Burlington,NC,27215
Lord of Life Lutheran Church,2100 Buffaloe Rd,Garner,NC,27529
Garner United Methodist Church,PO Box 2179,Garner,NC,27529
Mt Zion United Methodist Chr,19600 Zion St,Cornelius,NC,28031
Mt Herman Christian Church,8925 White Oak Rd,Garner,NC,27529
Victory Fellowship,1250 Aversboro Rd,Garner,NC,27529
Capital Pentecostal Holiness,1308 Us Highway 70 W,Garner,NC,27529
Mt Hermon United Ch of Christ,5916 Raynor Rd,Garner,NC,27529
Garner Church Of Christ,1364 Benson Rd,Garner,NC,27529
Cleveland Church Of Christ,162 Josephine Rd,Garner,NC,27529
Mt Pisgah Academy Sda Church,21 Academy Dr,Candler,NC,28715
Hominy Baptist Church,135 Candler School Rd,Candler,NC,28715
Maple Ridge Baptist Church,PO Box 118,Candler,NC,28715
New Morgan Hill Baptist Church,370 Case Cove Rd,Candler,NC,28715
Pole Creek Baptist Church,96 Snow Hill Church Rd,Candler,NC,28715
Ridgeway Baptist Church,525 Old Us 19 23 Hwy,Candler,NC,28715
White Rock Baptist Church,3400 Fayetteville St,Durham,NC,27707
Francis Asbury Methodist,PO Box 67,Candler,NC,28715
Montmorenci United Methodist,PO Box 610,Candler,NC,28715
Oak Hill United Methodist Chr,277 Oak Hill Rd,Candler,NC,28715
Snow Hill United Methodist Chr,84 Snow Hill Church Rd,Candler,NC,28715
Candler House of Prayer,PO Box 705,Candler,NC,28715
Rock of Asheville,273 Monte Vista Rd,Candler,NC,28715
Candler House Of Prayer,1945 Smoky Park Hwy,Candler,NC,28715
Candler Church Of God,45 Hill St,Candler,NC,28715
Seventh Day Adventist Church,PO Box 38335,Greensboro,NC,27438
Anderson Grove Baptist Church,424 Fisher Park Cir,Greensboro,NC,27401
Buchanan Baptist Church,301 Buchanan Church Rd,Greensboro,NC,27405
Cedar Grove Baptist Church,612 Norwalk St,Greensboro,NC,27407
Clifton Road Baptist Church,3815 Clifton Rd,Greensboro,NC,27407
East White Oak Baptist Church,PO Box 20367,Greensboro,NC,27420
Eller Memorial Baptist Church,1111 Summit Ave,Greensboro,NC,27405
First Baptist Pre-School,PO Box 5443,Greensboro,NC,27435
Florida Street Baptist Church,1403 W Florida St,Greensboro,NC,27403
Friendly Avenue Baptist Church,4800 W Friendly Ave,Greensboro,NC,27410
Garden-Prayer Sovereign Grace,PO Box 14951,Greensboro,NC,27415
Gate City Baptist Church,PO Box 7096,Greensboro,NC,27417
Genesis Baptist Church,PO Box 20326,Greensboro,NC,27420
Guilford Baptist Church,5904 W Market St,Greensboro,NC,27409
Hunter Hills Baptist Church,1806 Merritt Dr,Greensboro,NC,27407
Jessup Grove Baptist Church,4530 Jessup Grove Rd,Greensboro,NC,27410
Lankford Memorial Baptist Chr,3708 Yanceyville St,Greensboro,NC,27405
Lawndale Baptist Church,3505 Lawndale Dr,Greensboro,NC,27408
Lindley Park Baptist Church,4010 Walker Ave,Greensboro,NC,27403
New Zion Missionary Bapt Chr,1310 Martin Luther King Jr Dr,Greensboro,NC,27406
Parkway Baptist Church,1411 Benjamin Pky,Greensboro,NC,27408
Philadelphia Baptist Chapel,5515 N Church St,Greensboro,NC,27455
Pinecroft Baptist Church,2022 W Vandalia Rd,Greensboro,NC,27407
Rankin Baptist Church,3317 Summit Ave,Greensboro,NC,27405
Rocky Knoll Baptist Church,501 Kirkland St,Greensboro,NC,27406
Rolling Roads Baptist Church,2800 Vanstory St,Greensboro,NC,27407
Saint Paul Baptist Church,PO Box 2742,Greensboro,NC,27402
Sedgefield Baptist Church,PO Box 7814,Greensboro,NC,27417
Sharpe Road Baptist Church,1908 Sharpe Rd,Greensboro,NC,27406
Shining Light Baptist,4530 W Wendover Ave,Greensboro,NC,27409
South Elm Street Baptist Chr,4212 S Elm Eugene St,Greensboro,NC,27406
Southeast Baptist Church,5011 Liberty Rd,Greensboro,NC,27406
St James Baptist Church,PO Box 2323,Rocky Mt,NC,27802
Tabernacle Baptist Church,1225 29th Ave Dr NE,Hickory,NC,28601
United Institutional Bapt Chr,802 E Market St,Greensboro,NC,27401
Vandalia Baptist Church,3925 Pleasant Garden Rd,Greensboro,NC,27406
Our Lady of Grace Catholic Sch,201 S Chapman St,Greensboro,NC,27403
Saint Benedict's Catholic Chr,109 W Smith St,Greensboro,NC,27401
Saint Mary's Catholic Church,PO Box 21012,Greensboro,NC,27420
Saint Paul the Apostle Cthlc,2715 Horse Pen Creek Rd,Greensboro,NC,27410
St Pius the Tenth Catholic Chr,2210 N Elm St,Greensboro,NC,27408
Greensboro Christian Church,3232 Yanceyville St,Greensboro,NC,27405
Mount Pleasant Christian,1515 Britton St,Greensboro,NC,27406
Saint Andrew's Episcopal Chr,2105 W Market St,Greensboro,NC,27403
Saint Francis Episcopal Church,3506 Lawndale Dr,Greensboro,NC,27408
Christ Wesleyan Church,2400 S Holden Rd,Greensboro,NC,27407
Fruit of the Spirit Daycare,1401 S Elm Eugene St,Greensboro,NC,27406
Cathedral of His Glory,4501 Lake Jeanette Rd,Greensboro,NC,27455
Cross of Christ Lutheran Chr,4500 Rimer Rd,Concord,NC,28025
Ebenezer Lutheran Church Lc,310 S Tremont Dr,Greensboro,NC,27403
First Lutheran Church,PO Box 308,Lexington,NC,27293
Grace Lutheran Church-Ms,1315 E Washington St,Greensboro,NC,27401
Our Father Lutheran Church,3304 Groometown Rd,Greensboro,NC,27407
Asbury United Methodist Church,PO Box 676,Lincolnton,NC,28093
Bessemer United Methodist Chr,3015 E Bessemer Ave,Greensboro,NC,27405
Bethel Ame Church,200 N Regan St,Greensboro,NC,27401
Carraway United Methodist Chr,1301 16th St,Greensboro,NC,27405
Center United Methodist Church,PO Box 179,Welcome,NC,27374
College Place United Meth Chr,509 Tate St,Greensboro,NC,27403
Gethsemane United Meth Church,102 Nc-150 W,Greensboro,NC,27455
Guilford College United Meth,1205 Fleming Rd,Greensboro,NC,27410
Irving Park United Methodist,1510 W Cone Blvd,Greensboro,NC,27408
Lee's Chapel United Meth Chr,2303 Lees Chapel Rd,Greensboro,NC,27405
Moriah United Methodist Church,3611 Liberty Rd,Greensboro,NC,27406
Mount Pisgah United Meth Chr,2600 Pisgah Church Rd,Greensboro,NC,27455
Mount Pleasant United Meth,5120 Burlington Rd,Greensboro,NC,27405
Muir's Chapel United Methodist,314 Muirs Chapel Rd,Greensboro,NC,27410
New Goshen United Meth Church,3300 Randleman Rd,Greensboro,NC,27406
Newlyn Street United Meth Chr,212 E Newlyn St,Greensboro,NC,27408
Rehobeth United Methodist Chr,4475 Rehobeth Church Rd,Greensboro,NC,27406
Saint Johns United Meth Chr,1304 Merritt Dr,Greensboro,NC,27407
Saint Paul United Meth Chr,2900 N Ohenry Blvd,Greensboro,NC,27405
St Matthews United Meth Chr,600 E Florida St,Greensboro,NC,27406
Tabernacle United Meth Church,5601 Liberty Rd,Greensboro,NC,27406
Trinity Ame Zion Church,631 E Florida St,Greensboro,NC,27406
Union Memorial United Meth Chr,1012 E Lee St,Greensboro,NC,27406
West Market Street United Meth,PO Box 870,Greensboro,NC,27402
Centre Friends Meeting,325 Nc-62 E,Greensboro,NC,27406
Christ Covenant Church,800 Fullwood Rd,Matthews,NC,28105
First Friends Meeting,2100 W Friendly Ave,Greensboro,NC,27403
First Moravian Church,304 S Elam Ave,Greensboro,NC,27403
God's House of Deliverance,PO Box 77561,Greensboro,NC,27417
Grace Community Church,6561 Meridian Dr,Raleigh,NC,27616
Harvest World Outreach Church,PO Box 7118,Greensboro,NC,27417
Living Way Christian Fllwshp,4433 Rehobeth Church Rd,Greensboro,NC,27406
Love ,PO Box 3282,Greensboro,NC,27402
New Jerusalem Cathedral,PO Box 20832,Greensboro,NC,27420
South English St Chr of Christ,1417 S English St,Greensboro,NC,27401
Trinity Church,5200 W Friendly Ave,Greensboro,NC,27410
Westover Church,505 Muirs Chapel Rd,Greensboro,NC,27410
Dormition of the Theotokos,800 Westridge Rd,Greensboro,NC,27410
Evangel Fellowship Chr of God,2207 E Cone Blvd,Greensboro,NC,27405
Mt Zion United Church of God,PO Box 21211,Greensboro,NC,27420
Power House of Deliverance Chr,PO Box 20186,Greensboro,NC,27420
Sanctuary Deliverance Church,3631 Summit Ave,Greensboro,NC,27405
St Thomas Chapel Pentecostal,633 Nc-150 W,Greensboro,NC,27455
Alamance Presbyterian Church,4000 Presbyterian Rd,Greensboro,NC,27406
Buffalo Presbyterian Church,803 16th St,Greensboro,NC,27405
Christ Community Church,PO Box 1186,Huntersville,NC,28070
Community in Christ Prsbtrn,5401 Liberty Rd,Greensboro,NC,27406
Cong United Church of Christ,400 W Radiance Dr,Greensboro,NC,27403
Fellowship Presbyterian Church,2005 New Garden Rd,Greensboro,NC,27410
Guilford Park Presbyterian Chr,2100 Fernwood Dr,Greensboro,NC,27408
Peace United Church of Christ,2714 W Market St,Greensboro,NC,27403
Pleasant Ridge United Church,2409 Pleasant Ridge Rd,Greensboro,NC,27410
Presbyterian Church-the Cross,PO Box 13670,Greensboro,NC,27415
Saint James Presbyterian Chr,820 Ross Ave,Greensboro,NC,27406
Sedgefield Presbyterian Church,4216 Wayne Rd,Greensboro,NC,27407
St Stephen United Chr-Christ,1000 Gorrell St,Greensboro,NC,27406
Starmount Presbyterian Church,3501 W Market St,Greensboro,NC,27403
Vandalia Presbyterian Church,101 W Vandalia Rd,Greensboro,NC,27406
Islamic Center Of Triad,4930 Mary St,Greensboro,NC,27409
Islamic Center Of Greensboro,2023 16th St,Greensboro,NC,27405
Central Assembly Of God,1709 Vernondale Rd,Greensboro,NC,27406
Korean Church Of Greensboro,613 Pompano Dr,Greensboro,NC,27410
Church Alive Of Triad,235 Burgess Rd,Greensboro,NC,27409
Presbyterian Church Of Covenant,501 S Mendenhall St,Greensboro,NC,27403
A Church Without Walls,4004 Spring Garden St,Greensboro,NC,27407
Abundant Life Fellowship,2717 E Market St,Greensboro,NC,27405
Abundant Life Ministries,1012 Philadelphia Church Rd,Dallas,NC,28034
Abundant Of Joy Ministry,215 Ward Rd,Greensboro,NC,27405
Al-ummil Ummat Islamic Center,2109 Martin Luther King Jr Dr,Greensboro,NC,27406
Alamance Presbyterian Church Child Development Center,4009 Presbyterian Rd,Greensboro,NC,27406
All Nations Evangelical Church,2721 Ring Rd,Greensboro,NC,27405
Seventh-Day Adventist Church,PO Box 2954,Morganton,NC,28680
Kerwin Baptist Church,4520 Old Hollow Rd,Kernersville,NC,27284
Main Street Baptist Church,PO Box 62,China Grove,NC,28023
Triad Baptist Church,PO Box 860,Kernersville,NC,27285
Union Cross Baptist Church,4350 High Point Rd,Kernersville,NC,27284
Linville Forest Church-Christ,450 Linville Rd,Kernersville,NC,27284
Kernersville Wesleyan Church,930 N Main St,Kernersville,NC,27284
Fountain of Life Lutheran Chr,323 Hopkins Rd,Kernersville,NC,27284
Bunker Hill United Methodist,1510 Bunker Hl Sandy Ridge Rd,Kernersville,NC,27284
Main St United Methodist Chr,306 S Main St,Kernersville,NC,27284
Pine Grove United Methodist,1018 Piney Grove Rd,Kernersville,NC,27284
Pisgah United Methodist Church,3191 Brady Hoffman Rd,Lincolnton,NC,28092
Sedge Garden Pre-School,794 Sedge Garden Rd,Kernersville,NC,27284
Calvary Chapel,1210 E Mountain St,Kernersville,NC,27284
Kernersville Moravian Church,504 S Main St,Kernersville,NC,27284
Grace Presbyterian Church,360 Hopkins Rd,Kernersville,NC,27284
Faith Assembly Of God,241 Hopkins Rd,Kernersville,NC,27284
Bethel Assembly Of God,325 Blue Creek School Rd,Jacksonville,NC,28540
Calvary Chapel Of Triad,1080 Old Greensboro Rd,Kernersville,NC,27284
Abundant Grace Tabernacle,972 Twin Creek Rd,Kernersville,NC,27284
Bethel Baptist Church,PO Box 910,Bethel,NC,27812
Burkemont Baptist Church,4668 Burkemont Rd,Morganton,NC,28655
Catawba Valley Baptist Church,PO Box 1580,Morganton,NC,28680
Cross Memorial Baptist Church,650 Enola Rd,Morganton,NC,28655
El Bethel Baptist Church,PO Box 2518,Morganton,NC,28680
First Baptist Church-Morganton,PO Box 459,Morganton,NC,28680
Hartland Baptist Church,3730 Hartland Rd,Morganton,NC,28655
Hopewell Baptist Church,18841 Davidson-Concord Rd,Davidson,NC,28036
Missionary Ridge Baptist Ch,3970 US-64,Morganton,NC,28655
Mountain View Second Bapt Ch,5510 Watson Price Rd,Morganton,NC,28655
Mt Home Baptist Church,2272 Mt Home Church Rd,Morganton,NC,28655
Mull's Grove Baptist Church,5106 Burkemont Rd,Morganton,NC,28655
North Morganton Baptist Church,PO Box 1628,Morganton,NC,28680
Pleasant Ridge Baptist Church,PO Box 1159,Morganton,NC,28680
Walker Road Baptist Church,100 Walker Rd,Morganton,NC,28655
Zion Baptist Church,2437 Propst St,Gastonia,NC,28056
St Charles Catholic Church,728 W Union St,Morganton,NC,28655
First Church of God Morganton,675 Summers Rd,Morganton,NC,28655
Calvary Lutheran Church,950 Bradley St,Concord,NC,28025
First Umc Child Develop Ctr,200 N King St,Morganton,NC,28655
North Morganton Untd Meth Chr,990 Sanford Dr,Morganton,NC,28655
Oak Hill Methodist Church,2239 NC-181,Morganton,NC,28655
Salem United Methodist Church,PO Box 218,Simpson,NC,27879
Slades Chapel Ame Zion Chr,PO Box 2385,Morganton,NC,28680
St Matthew's United Methodist,201 Shady Rest Rd,Morganton,NC,28655
Celebration Family Worship Ctr,PO Box 2058,Morganton,NC,28680
Christian Outreach Ctr,PO Box 1003,Morganton,NC,28680
Iglesia Emmanuel Asambleas,PO Box 3024,Morganton,NC,28680
Praise Assembly Of God,3925 Maloney Ave,Morganton,NC,28655
Abundant Life Tabernacle,10512 N Main St,Archdale,NC,27263
1st Baptist Church-East Campus,PO Box 270,Marshville,NC,28103
Austin Grove Baptist Church,5919 Austin Grove Ch Rd,Marshville,NC,28103
Euto Baptist Church,6019 Highway 205,Marshville,NC,28103
Fairfield Baptist Church,7607 Olive Branch Rd,Marshville,NC,28103
Faulks Baptist Church,2234 Faulks Church Rd,Marshville,NC,28103
Hamilton Cross Roads Bapt Ch,6133 Old Goldmine Rd,Marshville,NC,28103
Mt Moriah Baptist Church,PO Box 3555,Matthews,NC,28106
Philadelphia Baptist Church,5700 Philadelphia Church Rd,Marshville,NC,28103
First Church Of God,2311 Dawson Cabin Rd,Jacksonville,NC,28540
1St Baptist Church-east Campus,6140 W Marshville Blvd,Marshville,NC,28103
Abbott's Creek Missionary Chr,2816 Abbotts Creek Church Rd,High Point,NC,27265
Allen Jay Baptist Church,1100 E Fairfield Rd,High Point,NC,27263
Conrad Memorial Baptist Church,1920 N Centennial St,High Point,NC,27262
Emerywood Baptist Church,1300 Country Club Dr,High Point,NC,27262
English Road Baptist Church,1111 W English Rd,High Point,NC,27262
Fairmont Park Baptist Church,3001 W English Rd,High Point,NC,27262
Greater New Hope Baptist Chr,906 Meredith St,High Point,NC,27260
Green Street Baptist Church,303 N Rotary Dr,High Point,NC,27262
Hilliard Memorial Baptist Chr,2311 Westchester Dr,High Point,NC,27262
Jewel Baptist Church,PO Box 7121,High Point,NC,27264
Lexington Ave Baptist Church,620 E Lexington Ave,High Point,NC,27262
Mount Vernon Baptist Church,7600 Falls of Neuse Rd,Raleigh,NC,27615
Oak View Baptist Church,810 Oakview Rd,High Point,NC,27265
Reavis Memorial Baptist Church,712 Knightdale Ave,High Point,NC,27263
Solid Rock Baptist Church,903 E Kearns Ave,High Point,NC,27260
Temple Memorial Baptist Church,1458 Cedrow Dr,High Point,NC,27260
Christ the King Church,1505 E Kivett Dr,High Point,NC,27260
Immaculate Heart of Mary Chr,605 Barbee St,High Point,NC,27262
St Mary's Episcopal Church,108 W Farriss Ave,High Point,NC,27262
First Wesleyan Church,PO Box 682,Bessemer City,NC,28016
Hayworth Wesleyan Church,1696 Westchester Dr,High Point,NC,27262
Hickory Chapel Wesleyan Church,301 Hickory Chapel Rd,High Point,NC,27260
Emmanuel Lutheran Church,216 S Aspen St,Lincolnton,NC,28092
Covenant Church United Mthdst,1526 Skeet Club Rd,High Point,NC,27265
Fairfield United Methodist Chr,1505 Nc-62 W,High Point,NC,27263
First United Methodist Church,1630 Westbrook Ave,Elon College,NC,27244
Lebanon United Methodist Chr,PO Box 6052,High Point,NC,27262
Mitchell's Grove Methodist,3511 E Kivett Dr,High Point,NC,27260
Oakview United Methodist Chr,321 Oakview Rd,High Point,NC,27265
Rankin Memorial United Meth,314 Barker Ave,High Point,NC,27262
Welch Memorial United Meth Chr,2405 Bellemeade St,High Point,NC,27263
Williams Memorial Cme Church,PO Box 1395,High Point,NC,27261
Community Bible Church,4125 Johnson St,High Point,NC,27265
Full Armour Christian Ctr,2857 S Main St,High Point,NC,27263
Grace Church,3551 Charles Blvd,Greenville,NC,27858
High Point Friends Meeting,PO Box 5166,High Point,NC,27262
Peace Christian Church,2066 Deep River Rd,High Point,NC,27265
Triad Community Church,922 Gallimore Dairy Rd,High Point,NC,27265
Victorious Life Church,PO Box 6414,High Point,NC,27262
First Reformed United Church,901 English Rd,High Point,NC,27262
Forest Hills Presbyterian Chr,PO Box 5445,High Point,NC,27262
Journey Church Of Triad,1221 E Hartley Dr,High Point,NC,27262
A New Beginning Tchng Mnstry,700 W English Rd,High Point,NC,27262
Abbott's Creek Missionary,2817 Abbotts Creek Church Rd,High Point,NC,27265
Abbott's Creek Missionary Baptist Church,2747 Abbotts Creek Church Rd,High Point,NC,27265
Agape Ministry For Kids,800 Quaker Ln,High Point,NC,27262
Albertson Road Baptist Church,1506 Blandwood Dr,High Point,NC,27260
Allendale Baptist Church,900 E Springfield Rd,High Point,NC,27263
Abee's Chapel Baptist Church,4229 Mineral Spgs Mountain Rd,Connellys Springs,NC,28612
East Valdese Baptist Church,PO Box 56,Valdese,NC,28690
High Peak Baptist Church,3073 High Peak Rd,Valdese,NC,28690
Mount Calvary Baptist Church,PO Box 207,Valdese,NC,28690
United Baptist Church,2638 Messer Rd,Valdese,NC,28690
Valdese Church of God,935 Main St W,Valdese,NC,28690
Waldensian Presbyterian Church,PO Box 216,Valdese,NC,28690
Abee's Grove Baptist Church,654 Abees Grove Church Rd,Valdese,NC,28690
Aircle Tech,4221 Jacumin Rd,Valdese,NC,28690
Alexander Memorial Baptist Chr,208 S Main St,Belmont,NC,28012
Catawba Heights Baptist Day Ca,311 Belmont-Mt Holly Rd,Belmont,NC,28012
Centerview Baptist Church,415 Walter St,Kannapolis,NC,28083
East Belmont Baptist Church,501 Catawba St,Belmont,NC,28012
First United Methodist Chr,PO Box 748,Belmont,NC,28012
South Point Baptist Church,124 Horsley Ave,Belmont,NC,28012
Unity Baptist Church,482 N Myrtle School Rd,Gastonia,NC,28052
Holy Comforter Lutheran Church,PO Box 666,Belmont,NC,28012
Brotherhood/Sisterhood Wncc,120 Park St,Belmont,NC,28012
Ebenezer United Methodist Chr,8840 Cooksville Rd,Vale,NC,28168
South Point Methodist Church,501 Southpoint Church Rd,Belmont,NC,28012
South Point United Methodist,510 Southpoint Church Rd,Belmont,NC,28012
Forest Pointe Church,PO Box 392,Belmont,NC,28012
East Belmont Church of God,PO Box 1668,Belmont,NC,28012
First Foursquare Gospel Church,8 Elizabeth St,Belmont,NC,28012
North Belmont Church of God,PO Box 471,Belmont,NC,28012
Alexis Baptist Church,PO Box 39,Alexis,NC,28006
Altamahaw Baptist Church,3445 Altamahaw Church St,Elon,NC,27244
Elon First Baptist Church,PO Box 515,Elon,NC,27244
First Baptist Church-Elon Clg,PO Box 163,Elon,NC,27244
Kerrs Chapel Baptist Church,2980 Kerr's Chapel Rd,Elon,NC,27244
Ossipee Baptist Church,2470 Old Nc-87,Elon,NC,27244
Antioch Community Church,PO Box 40,Elon,NC,27244
Elon Community Church,PO Box 625,Elon,NC,27244
Amity Hills Baptist Church,PO Box 3322,Asheboro,NC,27204
Bailey's Grove Baptist Church,105 E Beasley St,Asheboro,NC,27203
Balfour Baptist Church,1642 N Fayetteville St,Asheboro,NC,27203
Cross Road Baptist Church,PO Box 2042,Asheboro,NC,27204
East Side Baptist Church,1616 E Dixie Dr,Asheboro,NC,27203
Fayetteville Street Baptist,901 N Fayetteville St,Asheboro,NC,27203
Panther Creek Baptist Church,5653 Old Nc-13,Asheboro,NC,27205
St Joseph's Catholic Church,108 Saint Joseph St,Kannapolis,NC,28083
Episcopal Church-the Shepherd,505 Mountain Rd,Asheboro,NC,27205
Neighbors Grove Wesleyan Chr,1928 N Fayetteville St,Asheboro,NC,27203
Rushwood Park Wesleyan Church,1810 Old Farmer Rd,Asheboro,NC,27205
Sawyersville Wesleyan Church,157 Sawyersville Rd,Asheboro,NC,27205
West Bend United Methodist Chr,PO Box 1845,Asheboro,NC,27204
Missionaries Mormon,"22 Kingsway Rd, #e",Asheboro,NC,27203
Asheboro Friends Meeting,PO Box 987,Asheboro,NC,27204
Central Carolina Community Chr,PO Box 1536,Asheboro,NC,27204
Church of God,3217 Hamp Stone Rd,Siler City,NC,27344
First Evangelical ,PO Box 1002,Asheboro,NC,27204
United Church of Christ,1712 Pleasant Hill Liberty Rd,Liberty,NC,27298
First Baptist Of Seagrove,7931 Us Highway 220 S,Asheboro,NC,27205
Abundant Life,468 N Fayetteville St,Asheboro,NC,27203
Agape Outreach Ministries,955 Meadowbrook Rd,Asheboro,NC,27203
Amity Southern Baptist Church,2400 Amity Church Rd,Denver,NC,28037
Beth Haven Baptist Church,PO Box 156,Denver,NC,28037
Denver Baptist Church,PO Box 383,Denver,NC,28037
Westport Baptist Church,2372 Lake Shore Rd S,Denver,NC,28037
Holy Spirit Catholic Church,537 N Highway 16,Denver,NC,28037
St Peter By-the-Lake Episcopal,8433 Fairfield Forest Rd,Denver,NC,28037
Denver United Methodist Church,PO Box 661,Denver,NC,28037
Unity Presbyterian Church,8210 Unity Church Rd,Denver,NC,28037
Andrews Memorial Baptist Chr,301 W Elm St,Graham,NC,27253
Riverside Baptist Church,1568 E Harden St,Graham,NC,27253
Cedar Cliff Methodist Church,4683 Cedar Cliff Rd,Graham,NC,27253
Mt Hermon United Methodist Chr,4178 Mount Hermon Rock Crk Rd,Graham,NC,27253
Bethany Presbyterian Church,2237 Castle Hayne Rd,Wilmington,NC,28401
Graham Presbyterian Church,PO Box 1089,Graham,NC,27253
Allied Churches Dropping Center,124 E Pine St,Graham,NC,27253
Angier Avenue Baptist Church,2101 Angier Ave,Durham,NC,27703
Bell Yeager Freewill Baptist,128 E Cornwallis Rd,Durham,NC,27707
Bethesda Baptist Church,4967 Us Highway 70 Bus W,Clayton,NC,27520
Bible Baptist Church,2724 Margaret Wallace Rd,Matthews,NC,28105
Braggtown Baptist Church,PO Box 15399,Durham,NC,27704
Cresset Baptist Church,3707 Garrett Rd,Durham,NC,27707
Faith Baptist Church,PO Box 539,Trinity,NC,27370
Gorman Baptist Church,3315 E Geer St,Durham,NC,27704
Greater Joy Baptist Church,PO Box 11655,Durham,NC,27703
Grey Stone Baptist Church,2601 Hillsborough Rd,Durham,NC,27705
Guess Road Baptist Church,3102 Guess Rd,Durham,NC,27705
Hope Valley Baptist Church,6900 Garrett Rd,Durham,NC,27707
Immanuel Free Will Baptist Chr,2013 Ellis Rd,Durham,NC,27703
Lakewood Baptist Church,806 Klutz St,Kannapolis,NC,28081
Lowes Grove Baptist Church,4430 S Alston Ave,Durham,NC,27713
Markham Chapel Baptist Church,3630 Durham Chapel Hill Blvd,Durham,NC,27707
Morehead Avenue Baptist Church,1008 Morehead Ave,Durham,NC,27707
Mount Herman Baptist Church,PO Box 697,Taylorsville,NC,28681
Mt Level Missionary Bapt Chr,316 Hebron Rd,Durham,NC,27704
Oak Grove Free Will Baptist,801 Colfax St,Durham,NC,27701
Orange Grove Baptist Church,PO Box 11277,Durham,NC,27703
Page Road Baptist Church,1912 Page Rd,Durham,NC,27703
Park View Baptist Church,2500 Acadia St,Durham,NC,27704
Parkwood Baptist Church,1069 Central Dr NW,Concord,NC,28027
Plainview Baptist Church,5200 Cheek Rd,Durham,NC,27704
Ridgecrest Baptist Church,PO Box 53,Ridgecrest,NC,28770
Rose of Sharon Baptist Church,4109 Guess Rd,Durham,NC,27712
Sherron Acres Freewill Baptist,1300 Lynn Rd,Durham,NC,27703
St James Baptist Church Office,1305 W Club Blvd,Durham,NC,27705
St John Baptist Church,1282 Bradford Heights Rd,Gastonia,NC,28054
Summit Church,4007 Holt School Rd,Durham,NC,27704
Union Baptist Church,4595 Union Baptist Rd,Lenoir,NC,28645
Watts Street Baptist Church,800 Watts St,Durham,NC,27701
Yates Baptist Church,2819 Chapel Hill Rd,Durham,NC,27707
Holy Cross Catholic Church,1400 S Alston Ave,Durham,NC,27707
Holy Infant Catholic Church,5000 Southpark Dr,Durham,NC,27713
Immaculate Conception Catholic,725 Burch Ave,Durham,NC,27701
St Matthew Catholic Cemetery,1001 Mason Rd,Durham,NC,27712
Faith Assembly Christian Ctr,3120 Fayetteville St,Durham,NC,27707
Southside Church of Christ,PO Box 3821,Durham,NC,27702
St Luke's Episcopal Church,131 W Council St,Salisbury,NC,28144
St Philips Episcopal Church,PO Box 218,Durham,NC,27702
St Stephens Episcopal Church,82 Kimberly Dr,Durham,NC,27707
New Covenant Holy,2811 Dearborn Dr,Durham,NC,27704
New Shiloh Holiness Church,2507 S Alston Ave,Durham,NC,27713
B Eth-El Conservative Orthdx,1004 Watts St,Durham,NC,27701
Judea Reform Congregation,1933 W Cornwallis Rd,Durham,NC,27705
Church of the Abiding Savior,1625 S Alston Ave,Durham,NC,27707
Grace Lutheran Church,115 Unity St,Thomasville,NC,27360
St Paul's Lutheran Church,531 Hardin Rd,Dallas,NC,28034
Aldersgate United Methodist,632 Laurel Hill Rd,Chapel Hill,NC,27514
Bethany United Methodist Chr,193 Bethany Rd,Lexington,NC,27292
Carr United Methodist Church,107 N Driver St,Durham,NC,27703
Duke Memorial United Methodist,504 W Chapel Hill St,Durham,NC,27701
Epworth United Methodist Chr,1030 Burrage Rd NE,Concord,NC,28025
Fletcher's Chapel United,2034 Fletcher's Chapel Rd,Durham,NC,27703
Glendale Heights United,908 Leon St,Durham,NC,27704
Lakewood United Methodist Chr,2317 Chapel Hill Rd,Durham,NC,27707
Mc Mannen United Methodist,4102 Neal Rd,Durham,NC,27705
Mount Sylvan United Methodist,5731 N Roxboro Rd,Durham,NC,27712
Parkwood United Methodist Chr,5123 Revere Rd,Durham,NC,27713
Pleasant Green United Meth,3005 Pleasant Green Rd,Durham,NC,27705
Resurrection United Methodist,4705 Old Chapel Hill Rd,Durham,NC,27707
Russell Memorial Cme Church,703 S Alston Ave,Durham,NC,27701
St Joseph Ame Church,2521 Fayetteville St,Durham,NC,27707
St Mark Ame Zion Church,531 S Roxboro St,Durham,NC,27701
Bethel Family Worship Ctr,515 Dowd St,Durham,NC,27701
Christ the King Moravian Chr,4405 Hope Valley Rd,Durham,NC,27707
Duke University Chapel,PO Box 90974,Durham,NC,27708
Eagle's Summit Christian Chr,PO Box 14185,Durham,NC,27709
Grove Park Chapel Preschool,805 Sherron Rd,Durham,NC,27703
Hope Creek Church,4723 Erwin Rd,Durham,NC,27705
New Hope Community Church,PO Box 52268,Durham,NC,27717
New Life Christian Ctr,PO Box 191,Durham,NC,27702
Westbrook ,3518 Rose of Sharon Rd,Durham,NC,27712
Greater Emmanuel Pentecostal,PO Box 431,Durham,NC,27702
Victorious Praise Fellowship,PO Box 14392,Durham,NC,27709
Blacknall Memorial Church,1902 Perry St,Durham,NC,27705
Church of the Good Shepherd,PO Box 7791,Rocky Mt,NC,27804
Mount Calvary United Church,1715 Athens St,Durham,NC,27707
Mt Bethel Presbyterian Church,3541 Rose of Sharon Rd,Durham,NC,27712
Pilgrim United Church-Christ,3011 Academy Rd,Durham,NC,27707
Triangle Presbyterian Church,5001 Tudor Pl,Durham,NC,27713
Trinity Ave Presby Church,927 W Trinity Ave,Durham,NC,27701
Grace Church Of Durham,102 E Cornwallis Rd,Durham,NC,27707
Church Of God Of Prophecy,135 Wright St,Ramseur,NC,27316
Evangel Assembly Of God,625 Neal Hawkins Rd,Gastonia,NC,28056
Ecclesia House Of Prayer,601 N Alston Ave,Durham,NC,27701
Highway House Of Prayer,3112 Rowena Ave,Durham,NC,27703
God's House Of Refuge,622 Gary St,Durham,NC,27703
Apostolic House Of Deliverance,2806 Cheek Rd,Durham,NC,27704
Cornerstone Church Of God,222 Robbins Rd,Durham,NC,27703
Disciples Church Of Christ,3607 Dearborn Dr,Durham,NC,27704
Central Church Of Christ,215 S 17th St,Wilmington,NC,28401
Friendship House Of Prayer,399 Bobs Ln,Durham,NC,27704
A More Excellent Way Temple,126 W Parrish St,Durham,NC,27701
A More Execellent Way Temple,302 S Driver St,Durham,NC,27703
A Place Of Hope Comm Wesleyan,615 E Geer St,Durham,NC,27701
Abundant Hope Christian Church,1920 E Nc Highway 54,Durham,NC,27713
Abundant Life Assembly Church,1058 W Club Blvd,Durham,NC,27701
Aldersgate United Methodist Church,4008 Chaucer Dr,Durham,NC,27705
All Saints Church,4310 Garrett Rd,Durham,NC,27707
All Souls Church Unitarian,724 Foster St,Durham,NC,27701
Anthony Grove Baptist Church,281 Hephzibah Church Rd,Crouse,NC,28033
Crouse United Methodist Church,PO Box 43,Crouse,NC,28033
Antioch Bapt Chr Parsonage,4142 Antioch Church Rd,Middlesex,NC,27557
Lees Chapel Baptist Church,14551 Taylors Mill Rd,Middlesex,NC,27557
Middlesex Baptist Church,PO Box 446,Middlesex,NC,27557
Samaria Baptist Church,3621 Poole Rd,Raleigh,NC,27610
Middlesex Church of God,5407 S Nc 231,Middlesex,NC,27557
Mill Creek Baptist Church,5417 Morgan Mill Rd,Monroe,NC,28110
Bethlehem Baptist Church,PO Box 7035,Rocky Mt,NC,27804
East Taylorsville Church,PO Box 906,Taylorsville,NC,28681
Liledoun Baptist Church,PO Box 475,Taylorsville,NC,28681
Millersville Baptist Church,130 Millersville Church Rd,Taylorsville,NC,28681
Oxford Memorial Baptist Parson,2889 Old Nc-90,Taylorsville,NC,28681
Poplar Springs Baptist Church,4710 All Healing Springs Rd,Taylorsville,NC,28681
Smyrna Baptist Church,6174 Church Rd,Taylorsville,NC,28681
Three Forks Baptist Church,4685 Three Forks Church Rd,Taylorsville,NC,28681
Friendship Lutheran Church,5300 Church Rd,Taylorsville,NC,28681
Reformation Lutheran Church,509 W Main Ave,Taylorsville,NC,28681
Salem Lutheran Church,5080 Sherrills Ford Rd,Salisbury,NC,28147
St Lukes Lutheran Church,3916 Springs Rd NE,Conover,NC,28613
New Life Christian Fellowship,PO Box 1063,Taylorsville,NC,28681
Holy Trinity Catholic Church,1041 Nc-90 W,Taylorsville,NC,28681
Taylorsville Presbyterian Chr,PO Box 507,Taylorsville,NC,28681
Alexander Baptist Association,215 5th Ave SW,Taylorsville,NC,28681
Benton Heights Baptist Church,1411 Helms St,Monroe,NC,28110
Benton's Crossroads Baptist,109 E Lawyers Rd,Monroe,NC,28110
Bible Baptist Tabernacle,2900 Walkup Ave,Monroe,NC,28110
Corinth Baptist Church,7929 W Nc 10 Hwy,Vale,NC,28168
Elizabeth Baptist Church,503 Maurice St,Monroe,NC,28112
Lakeview Baptist Church,PO Box 486,McAdenville,NC,28101
Lee Park Baptist Church,1407 Lockhart St,Monroe,NC,28112
Mountain Spring Baptist Church,2509 Mountain Springs Ch Rd,Monroe,NC,28112
Open Book Baptist Church,PO Box 809,Monroe,NC,28111
Sandy Ridge Baptist Church,3702 16th St NE,Hickory,NC,28601
Shining Light Baptist Church,2541 Old Charlotte Hwy,Monroe,NC,28110
Sunset Park Baptist Church,231 Central Blvd,Wilmington,NC,28401
West Monroe Baptist Church,1301 Icemorlee St,Monroe,NC,28110
Our Lady of Lourdes Church,725 Deese St,Monroe,NC,28112
St Paul Episcopal Church,PO Box 293,Monroe,NC,28111
Prospect United Methodist Chr,6020 Prospect Rd,Monroe,NC,28112
Hour of the Redeem,PO Box 3061,Monroe,NC,28111
Monroe Christian Worship Ctr,1721 N Charlotte Ave,Monroe,NC,28110
Benton Heights Presbyterian,2701 Concord Hwy,Monroe,NC,28110
Faith Assembly Of Christ,815 McLarty St,Monroe,NC,28112
Agape Universal Ministries,3005 Tiffany Dr,Monroe,NC,28110
Eagle Heights Baptist Church,2705 N Park Dr,Goldsboro,NC,27534
Faith Free Will Baptist Church,1200 W Grantham St,Goldsboro,NC,27530
Falling Creek Baptist Church,498 Falling Creek Church Rd,Goldsboro,NC,27530
First Free Will Baptist Church,3150 Western Blvd,Tarboro,NC,27886
Freedom Baptist Church,PO Box 159,Rural Hall,NC,27045
Goldsboro First Baptist Church,PO Box 1538,Goldsboro,NC,27533
Love Memorial Baptist Church,311 E Walnut Ave,Gastonia,NC,28054
Madison Ave Baptist Church,1703 Laurel St,Goldsboro,NC,27530
Mt Calvary Baptist Church,408 N Marietta St,Gastonia,NC,28052
Pineview Baptist Church,3357 Us-117 N,Goldsboro,NC,27530
Stoney Creek Free Will Church,752 Stoney Creek Church Rd,Goldsboro,NC,27534
Greenleaf Christian Church,PO Box 597,Goldsboro,NC,27533
Mt Zion Disciples Church,323 Whitfield Dr,Goldsboro,NC,27530
St Mark Church of Christ,PO Box 2105,Goldsboro,NC,27533
St Stephen's Episcopal Church,PO Box 984,Goldsboro,NC,27533
Guiding Star Holy Church,PO Box 840,Goldsboro,NC,27533
Daniels Memorial Methodist,2802 E Ash St,Goldsboro,NC,27534
New Hope United Methodist Chr,200 E New Hope Rd,Goldsboro,NC,27534
Pine Forest United Methodist,867 Nc Highway 581 S,Goldsboro,NC,27530
Providence United Mthdst Chr,202 Providence Church Rd,Goldsboro,NC,27530
St James Ame Zion Church,PO Box 335,Goldsboro,NC,27533
St Luke United Methodist,1608 E Pine St,Goldsboro,NC,27530
Westwood United Methodist,130 Short St,Goldsboro,NC,27530
Christ Memorial Church Ctr,PO Box 852,Goldsboro,NC,27533
Harvest Fellowship,126 W Walnut St,Goldsboro,NC,27530
Lord's Table,1215 Parkway Dr,Goldsboro,NC,27534
New Hope Friends Church,4451 Us-70 E,Goldsboro,NC,27534
New Stoney Hill Church,PO Box 1596,Goldsboro,NC,27533
Tabernacle Christian Univ,PO Box 1256,Goldsboro,NC,27533
Deeper Life Church Ministries,PO Box 1356,Goldsboro,NC,27533
First Pentecostal Holiness Chr,700 W Howard Ave,Tarboro,NC,27886
Goldsboro Chapel Free Will,716 E Elm St,Goldsboro,NC,27530
Patetown Church of God,223 Church of God Rd,Goldsboro,NC,27534
Woods Grove Church,4009 Central Heights Rd,Goldsboro,NC,27534
Sheepfold Church Of Jesus,800 Sunny South St,Goldsboro,NC,27530
Deliverance Temple Of God,2499 Us Highway 117 S,Goldsboro,NC,27530
First Assembly Of God,3000 Summit Rd,Goldsboro,NC,27534
Judah Place Of Deliverance,1706 Shamrock Ave,Goldsboro,NC,27530
Patetown Church Of God,215 Church of God Rd,Goldsboro,NC,27534
Adamsville Baptist Church,1302 N Berkeley Blvd,Goldsboro,NC,27534
Goldston Baptist Church,PO Box 100,Goldston,NC,27252
Ephesus Baptist Church,6767 Hillsborough St,Raleigh,NC,27606
Hill Song Church,201 Culbreth Rd,Chapel Hill,NC,27516
Olin T Binkley Memorial Bapt,1712 Willow Dr,Chapel Hill,NC,27514
University Baptist Church,100 S Columbia St,Chapel Hill,NC,27514
Newman-Catholic Student Ctr,218 Pittsboro St,Chapel Hill,NC,27516
St Thomas More Catholic Church,940 Carmichael St,Chapel Hill,NC,27514
Chapel of the Cross,304 E Franklin St,Chapel Hill,NC,27514
Church of the Holy Family,200 Hayes Rd,Chapel Hill,NC,27517
Holy Trinity Lutheran Church,PO Box 9580,Hickory,NC,28603
Amity United Methodist Church,825 N Estes Dr,Chapel Hill,NC,27514
Orange Chapel United Methodist,1634 Orange Chapel Clover Garden Rd,Chapel Hill,NC,27516
Orange United Methodist Church,1220 Martin Luther King Jr Blvd,Chapel Hill,NC,27514
St Paul's Ame Church,101 S Merritt Mill Rd,Chapel Hill,NC,27516
University United Methodist,PO Box 728,Chapel Hill,NC,27514
Chapel Hill Bible Church,260 Erwin Rd,Chapel Hill,NC,27514
Chapel Hill Friends Meeting,531 Raleigh Rd,Chapel Hill,NC,27514
Church of Reconciliation,2123 Dimmocks Mill Rd,Hillsborough,NC,27278
United Church of Chapel Hill,1321 Martin Luther King Jr Blvd,Chapel Hill,NC,27516
University Presbyterian Church,PO Box 509,Chapel Hill,NC,27514
Celebration Assembly Of God,114 Weaver Dairy Rd,Chapel Hill,NC,27514
Triangle Church Of Christ,5510 Barbee Chapel Rd,Chapel Hill,NC,27517
Boger City Baptist Church,2201 E Main St,Lincolnton,NC,28092
David Memorial Baptist Church,2533 Country Club Rd,Lincolnton,NC,28092
First Baptist Children Mnstry,201 Robin Rd,Lincolnton,NC,28092
Gainsville Baptist Church,270 Gainsville Church Rd,Lincolnton,NC,28092
Highland Drive Free Will Chr,2810 Highland Dr,Lincolnton,NC,28092
Lincoln Avenue Baptist Church,PO Box 441,Lincolnton,NC,28093
New Vision Ministries Respite,661 Clark Creek Rd,Lincolnton,NC,28092
Oak Grove Baptist Church,4013 New Town Rd,Waxhaw,NC,28173
Riverview Baptist Church,2230 Riverview Rd,Lincolnton,NC,28092
St Dorothy's Catholic Church,148 Saint Dorothys Ln,Lincolnton,NC,28092
Covenant Bible Church,PO Box 654,Lincolnton,NC,28093
Bethphage Lutheran Church,3440 Highway 182,Lincolnton,NC,28092
Daniel Lutheran Church,3290 Reepsville Rd,Lincolnton,NC,28092
Holy Cross Lutheran Church,612 S College Ave,Newton,NC,28658
Boger City Methodist Church,2320 E Main St,Lincolnton,NC,28092
Rhyne Heights United Methodist,520 Madison St,Lincolnton,NC,28092
Church of God of Lincolnton,PO Box 1006,Lincolnton,NC,28093
Church Of God Of Lincolnton,1435 Riverview Rd,Lincolnton,NC,28092
Apex Baptist Church,110 S Salem St,Apex,NC,27502
New Horizons Fellowship,820 E Williams St,Apex,NC,27502
Olive Chapel Baptist Church,600 New Hill Olive Chapel Rd,Apex,NC,27502
Woodhaven Baptist Church,4000 Kildaire Farm Rd,Apex,NC,27539
St Andrew's Catholic Church,PO Box 1406,Mars Hill,NC,28754
Catawba Springs Christian Chr,6801 Ten-Ten Rd,Apex,NC,27539
Apex First Baptist Church,PO Box 44,Apex,NC,27502
Apex United Methodist Chr,PO Box 723,Apex,NC,27502
Calvary Chapel of Cary,1600 Center St,Apex,NC,27502
Community Life Church,411 W Williams St,Apex,NC,27502
Hope Chapel,6175 Old Jenks Rd,Apex,NC,27523
Christian Chapel United Church,PO Box 22,Apex,NC,27502
Benvenue Baptist Church,2464 Benvenue Rd,Rocky Mount,NC,27804
Dortches Baptist Church,4776 Dortches Blvd,Rocky Mount,NC,27804
Ebenezer Missionary Baptist,2929 Princess Place Dr,Wilmington,NC,28405
Englewood Baptist Church,1350 S Winstead Ave,Rocky Mount,NC,27803
Lakeside Baptist Church,1501 Sunset Ave,Rocky Mount,NC,27804
Light of Peace Baptist Church,510 S Glendale Ave,Rocky Mount,NC,27801
Mount Zion First Baptist Chr,320 W Thomas St,Rocky Mount,NC,27804
North End Missionary Baptist,500 E Grand Ave,Rocky Mount,NC,27801
North Rocky Mount Baptist Chr,119 W Ridge St,Rocky Mount,NC,27804
Northside Community Church,1660 Beaver Pond Dr,Rocky Mount,NC,27804
Oakdale Baptist Church,PO Box 233,Spencer,NC,28159
Parkwood Missionary Baptist,1731 Hunter Hill Rd,Rocky Mount,NC,27804
Proctors Chapel Baptist Church,2917 Old Wilson Rd,Rocky Mount,NC,27801
Sunset Ave Baptist Church,3732 Sunset Ave,Rocky Mount,NC,27804
West Edgecombe Baptist Church,3741 Cokey Rd,Rocky Mount,NC,27801
New Morning Star Church-Christ,PO Box M,Rocky Mount,NC,27802
Rocky Mount Church-Nazarene,1530 Hunter Hill Rd,Rocky Mount,NC,27804
Trinity Lutheran Church,108 W Rice St,Landis,NC,28088
St Marks Ame Church,1150 Tarboro St,Rocky Mount,NC,27801
Genesis Full Gospel Christian,907 E Holly St,Rocky Mount,NC,27801
Englewood Presbyterian Church,100 S Englewood Dr,Rocky Mount,NC,27804
Unity Of Faith Worship Center,300 N Grace St,Rocky Mount,NC,27804
Church Faith Family Worship,4839 Redman Rd,Rocky Mount,NC,27803
Abundant Life Ministries Of Rm,3027 Sunset Ave,Rocky Mount,NC,27804
Arlington First Baptist Church,345 S Main St,Jonesville,NC,28642
Fall Creek Baptist Church,1745 Fall Creek Church Rd,Bennett,NC,27208
Swan Creek Baptist Church,2501 Swan Creek Rd,Jonesville,NC,28642
Asbury Baptist Church,395 Asbury Church Rd,Seagrove,NC,27341
First Baptist of Seagrove,PO Box 177,Seagrove,NC,27341
Needham's Grove Church,359 Dover Church Rd,Seagrove,NC,27341
Bethel Church Of God,1183 Chrisco Rd W,Seagrove,NC,27341
Aspen Grove Free Will Baptist,PO Box 174,Fountain,NC,27829
Fountain Baptist Church,PO Box 276,Fountain,NC,27829
Athens Drive Baptist Church,1601 Athens Dr,Raleigh,NC,27606
Baptist Grove Church,7109 Leesville Rd,Raleigh,NC,27613
Bay Leaf Baptist Church,12200 Bayleaf Church Rd,Raleigh,NC,27614
Bethany Hills Baptist Church,11701 Leesville Rd,Raleigh,NC,27613
Calvary Baptist Temple,7900 Ten Ten Rd,Raleigh,NC,27603
Caraleigh Baptist Church,1400 Green St,Raleigh,NC,27603
Carolina Pines Baptist Church,2655 S Saunders St,Raleigh,NC,27603
Christ Baptist Church,400 Newton Rd,Raleigh,NC,27615
Christian Faith Baptist Church,PO Box 28181,Raleigh,NC,27611
Crabtree Valley Baptist Church,PO Box 30954,Raleigh,NC,27622
Creedmoor Road Baptist Church,6001 Creedmoor Rd,Raleigh,NC,27612
First Cosmopolitan Baptist Chr,1515 Cross Link Rd,Raleigh,NC,27610
Forest Hills Baptist Church,201 Dixie Trl,Raleigh,NC,27607
Glenwood South Fellowship Chr,400 N Boylan Ave,Raleigh,NC,27603
Greystone Baptist Church,7509 Lead Mine Rd,Raleigh,NC,27615
Hayes Barton Baptist Church,1800 Glenwood Ave,Raleigh,NC,27608
Highland Baptist Church,4456 Legion Rd,Hope Mills,NC,28348
Inwood Baptist Church,3700 Lake Wheeler Rd,Raleigh,NC,27603
Korean First Baptist Church,8905 Ray Rd,Raleigh,NC,27613
Longview Baptist Church,2308 N New Hope Rd,Raleigh,NC,27604
Martin Street Baptist Church,1001 E Martin St,Raleigh,NC,27601
Mid-Way Baptist Church,6910 Fayetteville Rd,Raleigh,NC,27603
Millbrook Baptist Church,1519 E Millbrook Rd,Raleigh,NC,27609
Morning Star Missionary Church,4610 Fayetteville Rd,Raleigh,NC,27603
Mount Olivet Baptist Church,1245 Mt Olivet Church Rd,Franklinton,NC,27525
Mt Peace Baptist Church,1601 Martin Luther King Jr Blvd,Raleigh,NC,27610
Neuse Baptist Church,8700 Capital Blvd,Raleigh,NC,27616
Oak City Baptist Church,PO Box 33286,Raleigh,NC,27636
Open Door Baptist Church,9801 Durant Rd,Raleigh,NC,27614
Pilot Baptist Church,8103 NC-39,Zebulon,NC,27597
Pullen Memorial Baptist Church,1801 Hillsborough St,Raleigh,NC,27605
Springfield Baptist Church,PO Box 515,Stanley,NC,28164
St Matthews Baptist Church,5410 Louisburg Rd,Raleigh,NC,27616
Swift Creek Baptist Church,9300 Penny Rd,Raleigh,NC,27606
Tupper Memorial Baptist Church,501 S Blount St,Raleigh,NC,27601
Wake Cross Roads Baptist,3329 Forestville Rd,Raleigh,NC,27616
Watts Chapel Baptist Church,3703 Tryon Rd,Raleigh,NC,27606
Doggett Center,600 Bilyeu St,Raleigh,NC,27606
Our Lady of Lourdes Catholic,2718 Overbrook Dr,Raleigh,NC,27608
Sacred Heart Cathedral,219 W Edenton St,Raleigh,NC,27603
St Francis of Assisi Church,11401 Leesville Rd,Raleigh,NC,27613
St Joseph Catholic Church,720 W 13th St,Newton,NC,28658
St Luke Evangelist Catholic,12333 Bayleaf Church Rd,Raleigh,NC,27614
Capital City Christian Church,4112 Garland Dr,Raleigh,NC,27606
Hillyer Memorial Christian Chr,718 Hillsborough St,Raleigh,NC,27603
St Paul's Christian Church,3331 Blue Ridge Rd,Raleigh,NC,27612
Brooks Avenue Church of Christ,700 Brooks Ave,Raleigh,NC,27607
Christ Covenant Christian Chr,410 Lord Berkley Rd,Raleigh,NC,27610
North Raleigh Church of Christ,8701 Falls of Neuse Rd,Raleigh,NC,27615
Christ Episcopal Church,120 E Edenton St,Raleigh,NC,27601
Church of the Nativity,8849 Ray Rd,Raleigh,NC,27613
St Ambrose Episcopal Church,813 Darby St,Raleigh,NC,27610
St Mark's Episcopal Church,8600 Mount Holly Hntrsvlle Rd,Huntersville,NC,28078
St Michaels Episcopal Church,1520 Canterbury Rd,Raleigh,NC,27608
Deliverance Cathedral of Love,PO Box 26285,Raleigh,NC,27611
North Raleigh Church-Nazarene,9200 Strickland Rd,Raleigh,NC,27615
Penny Road Church of Nazarene,8509 Penny Rd,Raleigh,NC,27606
Beth Meyer Synagogue,504 Newton Rd,Raleigh,NC,27615
Our Saviour's Lutheran Church,1500 Glenwood Ave,Raleigh,NC,27608
St Philip Lutheran Church,7304 Falls of Neuse Rd,Raleigh,NC,27615
Unity Church of Raleigh,9225 Leesville Rd,Raleigh,NC,27613
Unity Church of the Triangle,524 E Whitaker Mill Rd,Raleigh,NC,27608
Asbury After School,6612 Creedmoor Rd,Raleigh,NC,27613
Benson Memorial Untd Meth Chr,4706 Creedmoor Rd,Raleigh,NC,27612
Edenton Street United,228 W Edenton St,Raleigh,NC,27603
Fairmont United Methodist Chr,2501 Clark Ave,Raleigh,NC,27607
Grace Ame Zion Church,102 Hill St,Raleigh,NC,27610
Hayes Barton United Methodist,PO Box 6088,Raleigh,NC,27628
Highland United Methodist Chr,1020 12th St Pl NE,Hickory,NC,28601
Holland United Methodist Chr,9433 Ten Ten Rd,Raleigh,NC,27603
Layden Memorial United Meth,2607 S Wilmington St,Raleigh,NC,27603
Millbrook United Methodist,1712 E Millbrook Rd,Raleigh,NC,27609
North Raleigh United Methodist,8501 Honeycutt Rd,Raleigh,NC,27615
Pleasant Grove United Meth Chr,4415 Pleasant Grove Church Rd,Raleigh,NC,27613
Rush Metropolitan Ame Zion,558 E Cabarrus St,Raleigh,NC,27601
Soapstone Chapel,12837 Norwood Rd,Raleigh,NC,27613
St James United Methodist Ch,3808 Saint James Church Rd,Raleigh,NC,27604
St Matthew Ame Church,1629 Bennett St,Raleigh,NC,27604
Westover United Methodist Chrc,300 Powell Dr,Raleigh,NC,27606
Wilson Temple United Methodist,1023 Oberlin Rd,Raleigh,NC,27605
Young Missionary Temple Cme,PO Box 14105,Raleigh,NC,27620
Missionaries of Latter Day Sts,"6508 Falls of Neuse Rd, #100",Raleigh,NC,27615
Body of Christ Ministries,4501 Spring Forest Rd,Raleigh,NC,27616
Celebration Family Church,PO Box 98208,Raleigh,NC,27624
Covenant Church of Raleigh,12621 Strickland Rd,Raleigh,NC,27613
Crossroads Fellowship,2721 E Millbrook Rd,Raleigh,NC,27604
Higher Call Christian Church,6638 Old Wake Forest Rd,Raleigh,NC,27616
North Ridge Bible Chapel,7100 Harps Mill Rd,Raleigh,NC,27615
Raleigh International Church,"4020 Capital Blvd, #152",Raleigh,NC,27604
Raleigh Moravian Church,1816 Ridge Rd,Raleigh,NC,27607
Raleigh's Worshipping Church,9725 Fayetteville Rd,Raleigh,NC,27603
River,"3200 Wellington Ct, #h",Raleigh,NC,27615
Wake Chapel Baptist Church,4509 Bland Rd,Raleigh,NC,27609
Word of God Fellowship,PO Box 46891,Raleigh,NC,27620
St Mary Coptic Orthodox Church,3405 N New Hope Rd,Raleigh,NC,27604
Abundant Life Child Care Ctr,4400 Old Poole Rd,Raleigh,NC,27610
Bible Way Church,1110 Holmes St,Raleigh,NC,27601
Church of God of Prophecy,1200 S State St,Raleigh,NC,27610
Lincoln Park Holiness Church,13 Heath St,Raleigh,NC,27610
Living Word Family Church,PO Box 61129,Raleigh,NC,27661
North Haven Church,6620 Six Forks Rd,Raleigh,NC,27615
Powerhouse of Deliverance,PO Box 46533,Raleigh,NC,27620
Raleigh Christian Comm Church,7000 Destiny Dr,Raleigh,NC,27604
Solid Rock Ministry Intl,PO Box 26535,Raleigh,NC,27611
Triangle Vineyard Christian,3915 Western Blvd,Raleigh,NC,27606
United House of Prayer,409 E South St,Raleigh,NC,27601
Upper Room Church of God Chr,3300 Idlewood Village Dr,Raleigh,NC,27610
Vineyard Christian Fellowship,6894 Litchford Rd,Raleigh,NC,27615
Calvary Presbyterian Church,6520 Ray Rd,Raleigh,NC,27613
Community United Church-Christ,814 Dixie Trl,Raleigh,NC,27607
Duraleigh Korean Presbyterian,5408 Duraleigh Rd,Raleigh,NC,27612
Ernest Myatt Presbyterian Ch,4926 Fayetteville Rd,Raleigh,NC,27603
Hudson Memorial Presbyterian,4921 Six Forks Rd,Raleigh,NC,27609
Macedonia United Church-Christ,2004 Rock Quarry Rd,Raleigh,NC,27610
New Bethel United Church,4307 Old Poole Rd,Raleigh,NC,27610
North Raleigh Presbyterian Chr,11905 Strickland Rd,Raleigh,NC,27613
Pleasant Hill United Ch Christ,1408 Altama Cir,Raleigh,NC,27610
Pleasant Hill United Church,8100 Lake Wheeler Rd,Raleigh,NC,27603
Pleasant Union United Church,2321 Pleasant Union Church Rd,Raleigh,NC,27614
Poplar Springs United Church,6115 Old Stage Rd,Raleigh,NC,27603
West Raleigh Presbyterian Chr,PO Box 5635,Raleigh,NC,27650
Western Boulevard Presbyterian,4900 Kaplan Dr,Raleigh,NC,27606
White Memorial Presbyterian,1704 Oberlin Rd,Raleigh,NC,27608
Unity Church Of Triangle,118 S Person St,Raleigh,NC,27601
Bethel House Of God,3500 Woodmeadow Pky,Raleigh,NC,27610
Sanctuary Church Of God,600 Mount Vernon Church Rd,Raleigh,NC,27614
Raleigh Church Of Christ,911 Barringer Dr,Raleigh,NC,27606
Lds Institute Of Relilgion,6 Enterprise St,Raleigh,NC,27607
North Carolina Council Of Churches,1307 Glenwood Ave,Raleigh,NC,27605
Deliverance Cathedral Of Love,1705 Curtis Dr,Raleigh,NC,27610
Christian Community Of Fuquay,1805 Balfour Downs Cir,Fuquay-Varina,NC,27526
First Church Of Christ,201 Fayetteville St,Raleigh,NC,27601
Trinity United Methodist Church,1301 Mordecai Dr,Raleigh,NC,27604
Praise Temple Church,501 E Lane St,Raleigh,NC,27601
Adiele Gospel,1509 Tivoli Ct,Raleigh,NC,27604
Glorious Church,725 Glascock St,Raleigh,NC,27604
El Buen Pastor,705 Pershing Rd,Raleigh,NC,27608
Halifax Missionary Baptist Church,1130 N Blount St,Raleigh,NC,27604
Salvation Army,215 S Person St,Raleigh,NC,27601
Building Together,1116 N Blount St,Raleigh,NC,27604
Faith Victory ,1323 Capital Blvd,Raleigh,NC,27603
Open Door Clinic Pharmacy,1390 Capital Blvd,Raleigh,NC,27603
Fuller Memorial Baptist Church,800 N Bloodworth St,Raleigh,NC,27604
Christian Science Practitioner,600 Leonidas Ct,Raleigh,NC,27604
Emmanuel Pentecostal Holiness,521 Polk St,Raleigh,NC,27604
Tiger Lilly Christian Outreach Ministries,806 N Blount St,Raleigh,NC,27604
Greater Love Church,2413 Crabtree Blvd,Raleigh,NC,27604
Baha'i Faith-center ,212 Linden Ave,Raleigh,NC,27601
Triangle Bible Church,2309 Laurelbrook St,Raleigh,NC,27604
Deliverance Holy Church Of God,626 Capital Blvd,Raleigh,NC,27603
Maskil Fellowship Church,2227 Milburnie Rd,Raleigh,NC,27610
Wesleyan First Church,1201 Boyer St,Raleigh,NC,27610
True Gospel Pentecostal Church,2412 Paula St,Raleigh,NC,27608
New Day Restoration Outreach,1327 Hodges St,Raleigh,NC,27604
Kingdom Missionary Baptist Church,2401 Paula St,Raleigh,NC,27608
Methodist Home,1305 Glenwood Ave,Raleigh,NC,27605
True Gospel Penecostal Church Of Christ,817 New Bern Ave,Raleigh,NC,27601
New Mercy Baptist Church,541 New Bern Ave,Raleigh,NC,27601
Newbern House,501 New Bern Ave,Raleigh,NC,27601
Longview United Methodist Chr,2312 Milburnie Rd,Raleigh,NC,27610
Trinity United Faith Center Chr,715 W Johnson St,Raleigh,NC,27603
St Johns Mcc,805 Glenwood Ave,Raleigh,NC,27605
All Saints Chapel,110 S East St,Raleigh,NC,27601
Capital Ministries,206 New Bern Pl,Raleigh,NC,27601
Raleigh District Office United,1024 Washington St,Raleigh,NC,27605
Eastern Star Church,1412 Poole Rd,Raleigh,NC,27610
Holy Trinity Church,879 Washington St,Raleigh,NC,27605
Believe,610 W Peace St,Raleigh,NC,27605
Jenkins Memorial United Mthdst,725 N Boylan Ave,Raleigh,NC,27605
Christ King Prsbytrn Chr,616 Tucker St,Raleigh,NC,27603
Mt Sinai Holy Chr Of America,301 S Swain St,Raleigh,NC,27601
Church Of Good Shepherd,125 Hillsborough St,Raleigh,NC,27603
Cathedral Of Sacred Heart,226 Hillsborough St,Raleigh,NC,27603
Hayes Barton Methodist Preschl,2209 Fairview Rd,Raleigh,NC,27608
Episcopal Diocese Of North Carolina,200 W Morgan St,Raleigh,NC,27601
Smith Temple Church,322 S East St,Raleigh,NC,27601
Trinity Free Will Baptist Church,805 E Davie St,Raleigh,NC,27601
Vintage 21,12 E Hargett St,Raleigh,NC,27601
Miracle Ministries,5 W Hargett St,Raleigh,NC,27601
St Paul Employment Inst,402 W Edenton St,Raleigh,NC,27603
Milner Memorial Presbyterian,1950 New Bern Ave,Raleigh,NC,27610
Kenya Christian Fellowship In,743 W Johnson St,Raleigh,NC,27603
Presbyterian Chaplaincy,120 W Hargett St,Raleigh,NC,27601
Arc Of North Carolina,343 E Six Forks Rd,Raleigh,NC,27609
Upchurch Municipal Building,222 W Hargett St,Raleigh,NC,27601
Davie Street Presbyterian Chr,300 E Davie St,Raleigh,NC,27601
Our Lady-lourdes Catholic Chr,2906 Anderson Dr,Raleigh,NC,27608
Soul Reapers Worship Center International,2660 Yonkers Rd,Raleigh,NC,27604
Rush Metropolitan Ame Zion Church,554 E Cabarrus St,Raleigh,NC,27601
As Salaam Islamic Center,110 Lord Anson Dr,Raleigh,NC,27610
Vintage 21 Church,117 S West St,Raleigh,NC,27603
Cloud Randolph E ,11 Glenwood Ave,Raleigh,NC,27603
Raleigh Apostolic Faith Temple,212 Lord Anson Dr,Raleigh,NC,27610
Raleigh Apostolc Faith Temple,216 Lord Anson Dr,Raleigh,NC,27610
Woman's Missionary Union Of North Carolina,1200 Front St,Raleigh,NC,27609
Church-jesus Holy Tabernacle,708 S State St,Raleigh,NC,27601
Dominican Friars Of Raleigh Nc,304 E Park Dr,Raleigh,NC,27605
Step-up Ministry,2000 McDonald Ln,Raleigh,NC,27608
Step Up Ministry,1701 Oberlin Rd,Raleigh,NC,27608
St James Apostolic Church,701 Bart St,Raleigh,NC,27610
Baptist Headquarters,603 S Wilmington St,Raleigh,NC,27601
Alliance Francaise De Raleigh,305 Calvin Rd,Raleigh,NC,27605
Hickory Grove United Ch Christ,435 Lansing St,Raleigh,NC,27610
Iglesia Cristiana Casa De Restauration,2773 Milburnie Rd,Raleigh,NC,27610
Catholic Diocese-hargett,727 W Hargett St,Raleigh,NC,27603
Catholic Charities Raleigh,3000 Highwoods Blvd,Raleigh,NC,27604
Urban Ministry Center,401 W Cabarrus St,Raleigh,NC,27601
Williams Grove Baptist Church,735 Rock Quarry Rd,Raleigh,NC,27610
First Church-christ Scientist,1400 Hillsborough St,Raleigh,NC,27605
Oberlin Baptist Chr,806 Oberlin Rd,Raleigh,NC,27605
Victory Tabernacle Church,328 W South St,Raleigh,NC,27601
Peace Chapel Of Deliverance,1001 Garner Rd,Raleigh,NC,27601
AMC Ministries,916 Rock Quarry Rd,Raleigh,NC,27610
Greater Life Tabernacle Of Praise,1014 Garner Rd,Raleigh,NC,27601
Miracle Temple Christian Center,918 Rock Quarry Rd,Raleigh,NC,27610
Calvary Baptist Church (Raleigh),2500 New Bern Ave,Raleigh,NC,27610
Fulfilled Promise Tabernacle,320 Bledsoe Ave,Raleigh,NC,27601
Congregational Holiness Church,1113 S State St,Raleigh,NC,27601
United Church For All People,2527 Poole Rd,Raleigh,NC,27610
Camp Oak Hill ,3824 Barrett Dr,Raleigh,NC,27609
Maple Temple United Church,304 Dacian Rd,Raleigh,NC,27610
Christ King Presbyterian,401 Oberlin Rd,Raleigh,NC,27605
Shalom Christian Community Chr,1113 S Bloodworth St,Raleigh,NC,27601
Friends Meeting Of Raleigh,625 Tower St,Raleigh,NC,27607
South Central Church Of Christ,2010 Martin Luther King Jr Blvd,Raleigh,NC,27610
Christ Wonderful World Outrch,3605 Bastion Ln,Raleigh,NC,27604
Episcopal Campus Ministry,2208 Hope St,Raleigh,NC,27607
Wells Church,3408 Lake Woodard Dr,Raleigh,NC,27604
Amerson Ministry,1111 S Blount St,Raleigh,NC,27601
Greater Pentecostal Church,414 Rose Ln,Raleigh,NC,27610
Madonna House,424 Rose Ln,Raleigh,NC,27610
Celestial Church Of Christ,2708 Poole Rd,Raleigh,NC,27610
Master's Touch,1640 N Market Dr,Raleigh,NC,27609
Mount Pleasant Worship ,1424 Sawyer Rd,Raleigh,NC,27610
Wesley Foundation,2503 Clark Ave,Raleigh,NC,27607
Bright Hope Divine Holy Church,16 Bragg St,Raleigh,NC,27601
Zina Christian Center,3700 Bastion Ln,Raleigh,NC,27604
Mission Raleigh,3101 Stony Brook Dr,Raleigh,NC,27604
Fountian Of Living World,3540 Maitland Dr,Raleigh,NC,27610
Saint Joseph Catholic Church,2809 Poole Rd,Raleigh,NC,27610
Presbyterian Campus Ministry,27 Horne St,Raleigh,NC,27607
St. Joseph Catholic Church,630 Donald Ross Dr,Raleigh,NC,27610
Priority Associates,1005 Dresser Ct,Raleigh,NC,27609
From Heart Chr Ministries,2940 Trawick Rd,Raleigh,NC,27604
Shekinah Glory Cathedral,1500 Garner Rd,Raleigh,NC,27610
God Church Of Christ,804 Grantland Dr,Raleigh,NC,27610
End Time Ministries Church-god,1421 S Wilmington St,Raleigh,NC,27603
Church Of Apostles,333 Saint Albans Dr,Raleigh,NC,27609
Baptist Campus Ministry,2702 Hillsborough St,Raleigh,NC,27607
Clark Jack Rev,1308 Duplin Rd,Raleigh,NC,27607
Tabernacle Christian Worship Center,1801 Saint Albans Dr,Raleigh,NC,27609
Riverview Congregation,1913 Trawick Rd,Raleigh,NC,27604
Fairmont United Methodist Church,117 Brooks Ave,Raleigh,NC,27607
Church In Raleigh,1109 Plainview Dr,Raleigh,NC,27610
Christian Library International,3800 Hillcrest Dr,Raleigh,NC,27610
Pan-lutheran Ministries,908 Plainview Dr,Raleigh,NC,27610
Grace Baptist Church (Raleigh),512 Sunnybrook Rd,Raleigh,NC,27610
Powerhouse Of Deliverance Church,1825 Garner Rd,Raleigh,NC,27610
Morning Star Childcare Lrnng,524 Sunnybrook Rd,Raleigh,NC,27610
St George's Anglican Church,1220 Dixie Trl,Raleigh,NC,27607
Reflection Jesus Outreach,740 Saint George Rd,Raleigh,NC,27610
Matthew Chapel Holy Church,1516 Montrose St,Raleigh,NC,27603
Catholic Diocese Of Raleigh,715 Nazareth St,Raleigh,NC,27606
Emmaus Puritan Apostolic Bapt,3304 Poole Rd,Raleigh,NC,27610
Foundation Of Truth Center,306 Hubert St,Raleigh,NC,27603
Iglesia Cristiana,4000 Atlantic Ave,Raleigh,NC,27604
Unitarian Universalist Fllwshp,3313 Wade Ave,Raleigh,NC,27607
Northeast Friends Fellowship,1669 N Market Dr,Raleigh,NC,27609
Sign Of Fish Christian,1657 N Market Dr,Raleigh,NC,27609
Loving Word Baptist Church,1616 N Market Dr,Raleigh,NC,27609
New Horizon Cme Church,1125 Corporation Pky,Raleigh,NC,27610
Atkinson Temple Ministries,2235 Garner Rd,Raleigh,NC,27610
Upper Room Chr-god In Christ,1300 Londonderry Cir,Raleigh,NC,27610
St Timothys School,4523 Six Forks Rd,Raleigh,NC,27609
Bright Hope Divine Church,1701 Tee Dee St,Raleigh,NC,27610
Ridge Road Baptist Church,2011 Ridge Rd,Raleigh,NC,27607
First Trinity Freewill Baptist,2141 Rock Quarry Rd,Raleigh,NC,27610
Lord Jesus Christ's House,2286 Fox Ridge Manor Rd,Raleigh,NC,27610
Rk ,1436 Ridge Rd,Raleigh,NC,27607
Bible Truth Apostolic Pentecostal Church,2400 N New Hope Rd,Raleigh,NC,27604
7Th Day Advent,4807 Dillard Dr,Raleigh,NC,27606
Adom Fellowship Conference,2635 S Saunders St,Raleigh,NC,27603
Agape Word Fellowship,7129 Capital Blvd,Raleigh,NC,27616
All Saints Antiochian Orthodox,520 Buck Jones Rd,Raleigh,NC,27606
All Saints United Mthdst Chr,8311 Brier Creek Pky,Raleigh,NC,27617
Bahama Baptist Church,7917 Willardville Station Rd,Bahama,NC,27503
Mount Bethel United Methodist,318 Telephone Exchange Rd,Hickory,NC,28601
Baptist Center Church,2163 Ranch Rd,Clayton,NC,27520
Cleveland Community Church,8246 Cleveland Rd,Clayton,NC,27520
Hocutt Memorial Baptist Church,PO Box 339,Clayton,NC,27520
Johnston Piney Grove Bapt Chr,PO Box 926,Clayton,NC,27520
New Trinity Missionary Baptist,115 S Robertson St,Clayton,NC,27520
Trinity Free Will Baptist Chr,3111 Golden Rd,Greenville,NC,27858
Way of Life Baptist Church,2100 Harmony Ct,Clayton,NC,27520
White Oak Baptist Church,13943 Buffalo Rd,Clayton,NC,27527
Christ Community United Meth,1082 Amelia Church Rd,Clayton,NC,27520
Southside Community Church,PO Box 494,Clayton,NC,27520
Amelia United Church of Christ,1696 Amelia Church Rd,Clayton,NC,27520
Mt Vernon United Church,PO Box 556,Clayton,NC,27520
Oakland Presbyterian Church,8927 Cleveland Rd,Clayton,NC,27520
317 Community Center,317 W 2nd St,Clayton,NC,27520
Baptist Tabernacle Church,1599 NC-231,Wendell,NC,27591
Central Baptist Church,602 Spring Ave,Spring Lake,NC,28390
Clyde's Chapel Baptist Church,16659 Buffalo Rd,Wendell,NC,27591
Hephzibah Baptist Church,4633 Us-70 E,Princeton,NC,27569
Wendell Baptist Church,PO Box 187,Wendell,NC,27591
Wendell Christian Church,PO Box 874,Wendell,NC,27591
Wendell United Methodist Chr,PO Box 1925,Wendell,NC,27591
Eagle Rock Christian Church,6471 Falconwood Dr,Wendell,NC,27591
Baton Baptist Church,1332 Baton Church Rd,Granite Falls,NC,28630
Clover Baptist Church,100 Pinewood Rd,Granite Falls,NC,28630
Concord Baptist Church,74 Falls Ave,Granite Falls,NC,28630
Dry Ponds Baptist Church,5235 Union Church Rd,Granite Falls,NC,28630
Dudley Shoals Baptist Church,1882 Dudley Shoals Rd,Granite Falls,NC,28630
Lovelady Baptist Church,760 Dudley Shoals Rd,Granite Falls,NC,28630
Mountain Grove Baptist Church,834 Alert Rd,Louisburg,NC,27549
Temple-Hill Baptist Church,4400 Temple Hill Church Rd,Granite Falls,NC,28630
Rock Chapel Church of God,PO Box 1153,Granite Falls,NC,28630
Philadelphia Lutheran Church,1910 Philadelphia Church Rd,Dallas,NC,28034
Abundant Grace Church,221 Durham Lake Rd,Dudley,NC,28333
Beach Road Baptist Church,PO Box 11457,Southport,NC,28461
Southport Baptist Church,PO Box 10009,Southport,NC,28461
Sacred Heart Catholic Church,128 N Fulton St,Salisbury,NC,28144
St Philip's Episcopal,PO Box 10476,Southport,NC,28461
St Peter's Lutheran Church,4843 Southport-Supply Rd SE,Southport,NC,28461
Beacon Baptist Church,PO Box 159,Alamance,NC,27201
Alamance Lutheran Church,4008 S Nc Highway 62,Burlington,NC,27215
Bear Creek Baptist Church,116 Great Neck Landing Rd,Hubert,NC,28539
Queens Creek United Methodist,PO Box 398,Hubert,NC,28539
Swansboro Church Of God,115 Avery Rd,Hubert,NC,28539
Bear Marsh Mssnry Baptist Ch,1649 Beautancus Rd,Mt Olive,NC,28365
Eureka Christian Church,2036 Dobbersville Rd,Mt Olive,NC,28365
Rones Chapel United Methodist,138 Garner Chapel Rd,Mt Olive,NC,28365
Abundant Grace Holiness Church,207 Wooten St,Mt Olive,NC,28365
Belvoir Free Will Baptist Chr,3695 Nc 33 W,Greenville,NC,27834
Black Jack Free Will Baptist,2972 Black Jack-Simpson Rd,Greenville,NC,27858
Gum Swamp Free Will Baptist,2072 Gum Swamp Church Rd,Greenville,NC,27834
Memorial Baptist Church,1785 Dale Earnhardt Blvd,Kannapolis,NC,28083
Mt Calvary Free Will Baptist,411 Watauga Ave,Greenville,NC,27834
Oakmont Baptist Church,1100 Red Banks Rd,Greenville,NC,27858
Pactolus Baptist Church,5980 U.S. 264,Greenville,NC,27834
Parkers Chapel Free Will Chr,2241 Old Pactolus Rd,Greenville,NC,27834
People's Baptist Church,1621 Greenville Blvd SW,Greenville,NC,27834
Progressive Free Will Baptist,1503 Hooker Rd,Greenville,NC,27834
St Peter's Missionary Baptist,PO Box 7362,Greenville,NC,27835
Unity Free Will Baptist Church,2725 E 14th St,Greenville,NC,27858
St Gabriel's Catholic Church,1120 Martin Luther King Jr Dr,Greenville,NC,27834
Hooker Memorial Christian Chr,1111 Greenville Blvd SE,Greenville,NC,27858
Red Oak Christian Church,1827 Greenville Blvd SW,Greenville,NC,27834
Greenville Christian Fellowshp,1407 S Evans St,Greenville,NC,27834
St Paul's Episcopal,PO Box 1924,Greenville,NC,27835
Pentecostal Temply Holy Church,PO Box 983,Greenville,NC,27835
Our Redeemer Lutheran Church,1801 S Elm St,Greenville,NC,27858
Jarvis Memorial United Meth,510 S Washington St,Greenville,NC,27858
St James United Methodist Chr,211 E St James St,Tarboro,NC,27886
York Memorial Ame Zion Chr,PO Box 8325,Greenville,NC,27835
Koinonia Christian Ctr,PO Box 62,Greenville,NC,27835
Philippi Church of Christ,PO Box 1116,Greenville,NC,27835
Community Christian Church,PO Box 968,Greenville,NC,27835
Greenville Church of God,3105 S Memorial Dr,Greenville,NC,27834
Holy Trinity United Holy Chr,PO Box 20397,Greenville,NC,27858
Tabernacle Ctr of Deliverance,PO Box 7372,Greenville,NC,27835
Philippi Church Of Christ,3760 Phillippi Dr,Greenville,NC,27834
House Of Worship Holiness Chr,1575 Ellwood Dr,Greenville,NC,27834
University Church Of God,2215 B Stokes Rd,Greenville,NC,27858
A Touch Of God Ministry,1300 Dickinson Ave,Greenville,NC,27834
Agape Christian Fellowship,1348 Greenville Blvd SW,Greenville,NC,27834
Al-masjid Islamic Center ,1303 Evans St,Greenville,NC,27834
Alice D White Ministries,1119 Teakwood Dr,Greenville,NC,27834
Bennett Baptist Church,PO Box 91,Bennett,NC,27208
Beulah Baptist Church,1070 Thomasboro Rd SW,Calabash,NC,28467
Pleasant Grove Christian Chr,5946 Pleasant Grove Church Rd,Bennett,NC,27208
Richlands United Methodist Chr,PO Box 1217,Richlands,NC,28574
Potter's House,PO Box 40,Richlands,NC,28574
Praise Tabernacle,PO Box 785,Richlands,NC,28574
Bread Of Life Family Worship,220 Francktown Rd,Richlands,NC,28574
Agape Family Church,109 Sylvester St,Richlands,NC,28574
Aglow Ministries ,98 Grassy Pond Ln,Richlands,NC,28574
Colonial Baptist Church,6051 Tryon Rd,Cary,NC,27518
Green Level Baptist Church,8509 Green Level Church Rd,Cary,NC,27519
Greenwood Forest Baptist Chr,110 SE Maynard Rd,Cary,NC,27511
North Cary Baptist Church,505 Reedy Creek Rd,Cary,NC,27513
St Michael Catholic Church,804 High House Rd,Cary,NC,27513
Crosspointe Church at Cary,6911 Carpenter Fire Station Rd,Cary,NC,27519
Cary Church of Christ,PO Box 279,Cary,NC,27512
St Pauls Episcopal Church,221 Union St,Cary,NC,27511
Cary Alliance Church,555 SW Maynard Rd,Cary,NC,27511
Christ the King Lutheran Chr,PO Box 164,Cary,NC,27512
Genesis United Methodist Chr,850 High House Rd,Cary,NC,27513
White Plains United Methodist,PO Box 158,Cary,NC,27512
Cary Presbyterian Church,614 Griffis St,Cary,NC,27511
Fellowship of Christ-Epc,1788 Kildaire Farm Rd,Cary,NC,27511
Kirk of Kildaire Presbyterian,200 High Meadow Dr,Cary,NC,27511
Peace Presbyterian Church-Pca,1777 W Chatham St,Cary,NC,27513
Cary Church Of God,1427 Walnut St,Cary,NC,27606
Cary Church Of Christ,6640 Tryon Rd,Cary,NC,27518
Alpha Care Ministries,11301 Penny Rd,Cary,NC,27518
St Mary Baptist Church,1801 Staton Mill Rd,Bethel,NC,27812
Bethel Independent Baptist Chr,PO Box 655,Rockwell,NC,28138
Phaniels Baptist Church,2685 Phaniel Church Rd,Rockwell,NC,28138
West Park Baptist Church,715 W Park Dr,Rockwell,NC,28138
Grace Bible Church,6725 Highway 152 E,Rockwell,NC,28138
Immanuel Lutheran Church,2070 Imanuel Church Rd,Rockwell,NC,28138
Rockwell United Methodist Chr,PO Box 337,Rockwell,NC,28138
Grace Lower Stone Church,2405 Lower Stone Church Rd,Rockwell,NC,28138
Rockwell Church Of God,509 China Grove Hwy,Rockwell,NC,28138
Chapel Grove Baptist Church,716 Camp Rotary Rd,Gastonia,NC,28052
Covenant Baptist Church,3131 Erskine Dr,Gastonia,NC,28054
East Garrison Baptist Church,1226 E Garrison Blvd,Gastonia,NC,28054
Fairview Baptist Church,PO Box 1339,Fairview,NC,28730
Flint Groves Baptist Church,2023 Flint Ln,Gastonia,NC,28054
Greater Mt Zion Church,PO Box 1594,Gastonia,NC,28053
Loray Baptist Church,1128 W Franklin Blvd,Gastonia,NC,28052
Midway Baptist Church,2782 Fairview Dr,Gastonia,NC,28052
Promised Land Baptist Church,207 Rhyne Oakland Rd,Gastonia,NC,28054
Ranlo Baptist,1517 Spencer Mountain Rd,Gastonia,NC,28054
Ridge Baptist Church,3818 Old York Rd,Gastonia,NC,28056
Sandy Plains Baptist Day Care,5323 Union Rd,Gastonia,NC,28056
South Marietta Street Baptist,911 S Marietta St,Gastonia,NC,28054
West Franklin Avenue Baptist,450 S Myrtle School Rd,Gastonia,NC,28052
St Michael's Catholic Church,708 Saint Michaels Ln,Gastonia,NC,28052
Firestone Wesleyan Church,1700 Union Rd,Gastonia,NC,28054
Lutheran Church-Redeemer,1915 S New Hope Rd,Gastonia,NC,28054
Bradley Memorial United Church,1425 W Franklin Blvd,Gastonia,NC,28052
Maylo United Methodist Church,1900 Spencer Mountain Rd,Gastonia,NC,28054
Myers Memorial United Meth,301 S New Hope Rd,Gastonia,NC,28054
Myrtle United Methodist Church,PO Box 12825,Gastonia,NC,28052
Family Christian Ctr,4004 York Hwy,Gastonia,NC,28052
First Institute Family Worship,3908 S New Hope Rd,Gastonia,NC,28056
Word of Power Ministries Inc,4010 Old York Rd,Gastonia,NC,28056
Linwood Church of God,830 Linwood Rd,Gastonia,NC,28052
New Hope Church of God,4553 S New Hope Rd,Gastonia,NC,28056
Ranlo Church of God,1800 Spencer Mountain Rd,Gastonia,NC,28054
South Gastonia Church of God,310 Carolina Ave,Gastonia,NC,28052
Union Road Church of God,2315 Union Rd,Gastonia,NC,28054
Yorkwood Church of God,405 Stagecoach Rd,Gastonia,NC,28052
Crowders Creek Arp Church,207 Crowders Creek Church Rd,Gastonia,NC,28052
First Ar Presbyterian Church,317 S Chester St,Gastonia,NC,28052
New Hope Presbyterian Church,PO Box 98,Willow Spring,NC,27592
Pisgah Associate Reformed Chr,3600 Linwood Rd,Gastonia,NC,28052
South Minister Presbyterian,1401 Hoffman Rd,Gastonia,NC,28054
Bright Light Baptist Church,954 Old Charlotte Rd SW,Concord,NC,28027
Broadus Memorial Baptist,59 Green St SW,Concord,NC,28027
Cold Water Baptist Church,1045 Union St S,Concord,NC,28025
Glorieta Baptist Church,4912 Highway 73 E,Concord,NC,28025
Kerr Memorial Baptist Church,25 Highway 49 S,Concord,NC,28025
King Way Baptist Church,7550 Ruben Linker Rd NW,Concord,NC,28027
Mc Gill Baptist Church,5300 Poplar Tent Rd,Concord,NC,28027
New Life Baptist Church,3784 Exum Rd NW,Ash,NC,28420
Oak Ridge Baptist Church,RR 1 Box 62,Sandy Ridge,NC,27046
Pitts Baptist Church,140 Pitts School Rd NW,Concord,NC,28027
Poplar Grove Baptist Church,3476 Poplar Tent Rd,Concord,NC,28027
Roberta Baptist Church,3301 Roberta Rd,Concord,NC,28027
Rocky Ridge Missionary Baptist,3345 Heathcliff Rd,Concord,NC,28025
West Cabarrus Church,7655 Bruton Smith Blvd,Concord,NC,28027
West Concord Baptist Church,99 White St S,Concord,NC,28027
Young Memorial Baptist Church,2635 Hwy 49 N,Concord,NC,28025
St James Catholic Church,PO Box 123,Concord,NC,28026
Mt Olive Christian Church,311 Lincoln St SW,Concord,NC,28025
Kannapolis Church of Christ,2315 Concord Lake Rd,Concord,NC,28025
Mt Hermon Lutheran Church,3600 Us Highway 601 S,Concord,NC,28025
St John's Lutheran Play School,100 Saint Johns Church Rd,Concord,NC,28025
Center United Methodist,1119 Union St S,Concord,NC,28025
Cold Springs United Methodist,2550 Cold Springs Rd E,Concord,NC,28025
Crossroads United Methodist,220 George W Liles Pky NW,Concord,NC,28027
Forest Hill United Methodist,265 Union St N,Concord,NC,28025
Kerr Street United Methodist,419 Kerr St NW,Concord,NC,28025
Mt Olivet United Methodist Chr,1082 Community Rd,Lexington,NC,27295
Rocky Ridge United Methodist,1428 Old Charlotte Rd,Concord,NC,28027
Shiloh United Methodist Church,4718 N Nc-87,Gibsonville,NC,27249
Westford United Methodist Ch,273 N Carolina 49,Concord,NC,28025
Concord Christian Church,3101 Davidson Hwy,Concord,NC,28027
Evangel Worship Ctr,484 Cabarrus Ave W,Concord,NC,28027
Victory Temple,PO Box 797,Concord,NC,28026
Faith Covenant Church,PO Box 910,Concord,NC,28026
First Assembly,150 Warren C Coleman Blvd N,Concord,NC,28027
First Foursquare Church,452 Brookwood Ave NE,Concord,NC,28025
Mt Calvary Holy Church-America,PO Box 114,Concord,NC,28026
Bethpage Presbyterian Church,6020 Mooresville Rd,Kannapolis,NC,28081
Gilwood Presbyterian School,2993 Odell School Rd,Concord,NC,28027
New Gilead Reformed United Chr,2380 Old Salisbury Rd,Concord,NC,28025
Poplar Tent Presbyterian Chr,6841 Poplar Tent Rd,Concord,NC,28027
Rocky River Presbyterian Chr,7940 Rocky River Rd,Concord,NC,28025
Trinity Reformed United Church,217 2nd Ave NE,Conover,NC,28613
Word Of Faith Worship Center,757 Harris St NW,Concord,NC,28025
Graceland House Of Prayer,589 Old Charlotte Rd SW,Concord,NC,28027
River Of Life Family Worship,788 Central Dr NW,Concord,NC,28027
Abundant Life Faith Church,955 Warren Coleman Blvd,Concord,NC,28025
Alive Ministries,2445 Windingbrook Dr,Kannapolis,NC,28083
Blue Creek Baptist Church,1251 Burgaw Hwy,Jacksonville,NC,28540
Brookwood Baptist Church,903 Henderson Dr,Jacksonville,NC,28540
Emmanuel Free Will Baptist Chr,1694 Halltown Rd,Jacksonville,NC,28546
Enon Chapel Baptist Church,102 Barbara Ave,Jacksonville,NC,28546
Harris Creek Mssnry Baptist Ch,698 Holly Shelter Rd,Jacksonville,NC,28540
Kellum Baptist Church,1175 Kellum Loop Rd,Jacksonville,NC,28546
Midville Baptist Church,10 East Dr,Jacksonville,NC,28546
New River Baptist Church,1310 Hargett St,Jacksonville,NC,28540
Tar Landing Baptist Church,3884 Richlands Hwy,Jacksonville,NC,28540
Union Missionary Baptist Chr,2711 Princess Place Dr,Wilmington,NC,28405
Infant of Prague Catholic Chr,205 Chaney Ave,Jacksonville,NC,28540
East Coast Southern District,PO Box 70143,Jacksonville,NC,28540
Church of Christ-Bell Fork,321 Bell Fork Rd,Jacksonville,NC,28540
St Anne's Episcopal Church,PO Box 7621,Jacksonville,NC,28540
Lutheran Church of Our Savior,1115 Lejeune Blvd,Jacksonville,NC,28540
Northwoods United Methodist,PO Box 7026,Jacksonville,NC,28540
Pine Valley Methodist Church,910 Pine Valley Rd,Jacksonville,NC,28546
St Julia Ame Zion Church,112 Kerr St,Jacksonville,NC,28540
Deliverance Evangelistic Tmpl,PO Box 5258,Jacksonville,NC,28540
Jacksonville Bible Church,501 Anne St,Jacksonville,NC,28540
River of Life Church,1940 Gum Branch Rd,Jacksonville,NC,28540
Word of Life Fellowship,PO Box 12221,Jacksonville,NC,28546
Abundant Life Baptist Church,4138 Us Highway 70 W,Princeton,NC,27569
United Temple Church of God,PO Box 7037,Jacksonville,NC,28540
Word of Faith Office,PO Box 12216,Jacksonville,NC,28546
Jacksonville Church Of God,210 S Shore Dr,Jacksonville,NC,28540
Calvary Assembly Of God,3980 Gum Branch Rd,Jacksonville,NC,28540
God's House Of Deliverance,2542 Onslow Dr,Jacksonville,NC,28540
Abundant Life Christian Center,506 Bell Fork Rd,Jacksonville,NC,28540
Allen Chapel Ame Parsonage,890 Fire Tower Rd,Jacksonville,NC,28540
Harris Chapel Baptist Church,2960 Tarboro Rd,Youngsville,NC,27596
River Of Life Worship Center,3504 Carolina Beach Rd,Wilmington,NC,28412
Green Pines Baptist Church,1498 Hodge Rd,Knightdale,NC,27545
Knightdale Baptist Church,PO Box 21,Knightdale,NC,27545
Knightdale United Methodist,PO Box 83,Knightdale,NC,27545
Agape Christian Center Cogic,101 S Smithfield Rd,Knightdale,NC,27545
Edgemont Baptist Church,PO Box 7293,Rocky Mt,NC,27804
Falls Rd Baptist Church,PO Box 1948,Rocky Mt,NC,27802
Metropolitan Baptist Church,PO Box 1952,Rocky Mt,NC,27802
Oak Level Baptist Church,PO Box 161,Stokesdale,NC,27357
West Mount Baptist Church,8487 W Mt Dr,Rocky Mt,NC,27803
Christ Fellowship Church,PO Box 1419,Rocky Mt,NC,27802
Englewood United Methodist,PO Box 7128,Rocky Mt,NC,27804
Showers of Blessing Chrstn Ctr,PO Box 2916,Rocky Mt,NC,27802
Church-God South Rocky Mount,PO Box 8108,Rocky Mt,NC,27804
St Paul's Church of God-Christ,PO Box 662,Rocky Mt,NC,27802
Beulah Christian Church,8225 Mitchell Mill Rd,Zebulon,NC,27597
Hales Chapel Baptist Church,13396 NC-39,Zebulon,NC,27597
Heritage Baptist Church,615 Mack Todd Rd,Zebulon,NC,27597
Hopkins Chapel Church,4525 Hopkins Chapel Rd,Zebulon,NC,27597
Pearce Baptist Church,4634 Pearces Rd,Zebulon,NC,27597
Union Chapel Baptist Church,2520 Zebulon Rd,Zebulon,NC,27597
Zebulon Baptist Church,PO Box 366,Zebulon,NC,27597
Zebulon First Baptist,304 E Barbee St,Zebulon,NC,27597
Zebulon United Methodist Chrch,118 W Sycamore St,Zebulon,NC,27597
Abernathy William,13430 Nc 96 Hwy N,Zebulon,NC,0
Center Grove Baptist Church,3176 Deal Mill Rd,Hudson,NC,28638
Clemmons First Baptist Church,PO Box 279,Clemmons,NC,27012
Clemmons United Methodist Chr,PO Box 829,Clemmons,NC,27012
Agape Faith Church,2101 Lewisville Clemmons Rd,Clemmons,NC,27012
Clemmons Moravian Church,PO Box 236,Clemmons,NC,27012
Clemmons Presbyterian Church,PO Box 475,Clemmons,NC,27012
Carmel Baptist Church,1145 Pineville-Matthews Rd,Matthews,NC,28105
First Baptist Church-Matthews,PO Box 248,Matthews,NC,28106
Idlewild Baptist Church,12701 Idlewild Rd,Matthews,NC,28105
Mt Harmony Baptist Church,1655 Mount Harmony Church Rd,Rougemont,NC,27572
Pleasant Plains Baptist Church,3316 Pleasant Plains Rd,Matthews,NC,28105
Cross ,300 Pineville-Matthews Rd,Matthews,NC,28105
Morning Star Lutheran Church,12509 Idlewild Rd,Matthews,NC,28105
Matthews United Methodist Chr,801 S Trade St,Matthews,NC,28105
Stallings United Methodist Chr,1115 Stallings Rd,Matthews,NC,28104
Joy Christian Fellowship,11516 Idlewild Rd,Matthews,NC,28105
Evangel Christian Ctr,4017 Weddington Rd,Matthews,NC,28105
Word of Faith World Family Chr,4124 Margaret Wallace Rd,Matthews,NC,28105
Matthews Presbyterian Church,PO Box 97,Matthews,NC,28106
Siler Presbyterian Church,6301 Weddington Monroe Rd,Matthews,NC,28104
Matthews Church Of God,517 E John St,Matthews,NC,28105
Baptist Church Of Salvation,1924 Marglyn Dr,Matthews,NC,28105
12 Mile Creek Church,4315 Weddington-Matthews Rd,Matthews,NC,28104
Abundant Life Center,3321 Matthews Mint Hill Rd,Matthews,NC,28105
All Nations Christian Fellowship,5207 Old Monroe Rd,Indian Trail,NC,28079
Blackwelder Park Baptist,2204 Summit Ave,Kannapolis,NC,28081
Brookdale Baptist Church,2511 S Ridge Ave,Kannapolis,NC,28025
Charity Baptist Church,1500 Charity Church Rd,Boonville,NC,27011
Eastwood Baptist Church,320 Cook St,Kannapolis,NC,28083
Franklin Heights Baptist Chr,526 Wright Ave,Kannapolis,NC,28083
Jackson Park Baptist Church,1005 Jackson St,Kannapolis,NC,28083
Lane Street Baptist Church,2532 Lane St,Kannapolis,NC,28083
North Kannapolis Baptist,312 Locust St,Kannapolis,NC,28081
Royal Oaks Baptist Church,904 Texas St,Kannapolis,NC,28083
Shadybrook Baptist Church,1009 Oakwood Ave,Kannapolis,NC,28081
Skyland Baptist Church,PO Box 278,Skyland,NC,28776
West Point Baptist Church,1100 Pine St,Kannapolis,NC,28081
Center Grove Lutheran,1601 S Cannon Blvd,Kannapolis,NC,28083
Kimball Memorial Lutheran Chr,101 Vance Ave,Kannapolis,NC,28081
Mt Calvary Lutheran Church,PO Box 579,Claremont,NC,28610
New Hope Lutheran Church,1615 Brantley Rd,Kannapolis,NC,28083
St Enoch Lutheran Church,701 Campbell Ave,Kannapolis,NC,28081
Bethpage United Methodist Chr,109 Fellowship Dr,Kannapolis,NC,28081
Jackson Park United Methodist,715 Mable Ave,Kannapolis,NC,28083
Midway United Methodist Church,9795 Old Us-52,Lexington,NC,27295
Mt Mitchell United Methodist,6000 Old Salisbury-Concord Rd,Kannapolis,NC,28083
North Kannapolis United Meth,1307 N Main St,Kannapolis,NC,28081
Blessed Assurance Church,1900 Lane St,Kannapolis,NC,28083
Metro Worship Ctr,310 Brookdale St,Kannapolis,NC,28083
Truth Temple,PO Box 8186,Kannapolis,NC,28081
Jackson Park Pentecostal,1008 Moose Rd,Kannapolis,NC,28083
Kannapolis Church of God,2211 W A St,Kannapolis,NC,28081
St John's United Church,901 N Main St,Kannapolis,NC,28081
Kannapolis Church Of Christ,2315 Concord Lake Rd,Kannapolis,NC,28025
Enochville Church Of God,1725 Shadowbrook Dr,Kannapolis,NC,28081
Blaise Baptist Church,134 Blaise Church Rd,Mocksville,NC,27028
Fork Baptist Church,3140 Us-64 E,Mocksville,NC,27028
Green Meadows Baptist Church,1646 Nc-801 N,Mocksville,NC,27028
Ijames Cross Road Baptist Chr,1038 Ijames Church Rd,Mocksville,NC,27028
Jerusalem Baptist Church,3203 Us-601 S,Mocksville,NC,27028
Trinity Baptist Academy,2722 Us-601 S,Mocksville,NC,27028
St Francis of Assisi Catholic,PO Box 642,Mocksville,NC,27028
Davie United Methodist Charge,491 S Salisbury St,Mocksville,NC,27028
Liberty Methodist Church,129 Liberty Cir,Mocksville,NC,27028
Mocksville Church Of God,844 Us-64 E,Mocksville,NC,27028
A Storehouse For Jesus,685 E Lexington Rd,Mocksville,NC,27028
Abundant Life Christian Victor,143 E Depot St,Mocksville,NC,27028
Bonlee Baptist Church,PO Box 75,Bonlee,NC,27213
West End United Methodist Chr,600 Lexington Ave,Thomasville,NC,27360
Boonville Baptist Church,PO Box 429,Boonville,NC,27011
Union Grove Baptist Church,5424 Union Grove Rd,Oak Ridge,NC,27310
Boonville United Methodist Chr,PO Box 178,Boonville,NC,27011
Branch Chapel Free Will Bapt,8021 N Carolina 42,Selma,NC,27576
Selma Baptist Church,1500 N Webb St,Selma,NC,27576
Selma-Edgerton Mem United Meth,PO Box 487,Selma,NC,27576
Selma Church Of Christ,801 E Lizzie St,Selma,NC,27576
Selma Church Of God,905 W Oak St,Selma,NC,27576
Broad River Baptist Church,3003 NC-9,Black Mountain,NC,28711
Grove Stone Baptist Church,1568 Grovestone Rd,Black Mountain,NC,28711
Mountain View Baptist Church,5045 E Maiden Rd,Maiden,NC,28650
Black Mountain United Meth Chr,PO Box 517,Black Mountain,NC,28711
Black Mountain Presbyterian,PO Box 39,Black Mountain,NC,28711
Brown's Chapel Missionary Bapt,461 Brown's Chapel Rd,Gibsonville,NC,27249
Apple's Chapel Christian Chr,7345 Nc Highway 61 N,Gibsonville,NC,27249
Frieden's Lutheran Church,6001 Nc Highway 61 N,Gibsonville,NC,27249
Gibsonville United Meth Church,PO Box 82,Gibsonville,NC,27249
Christian Bible Fellowship,1290 Springwood Ave,Gibsonville,NC,27249
Brunswick Islands Baptist Chr,1672 Mt Pisgah Rd SW,Supply,NC,28462
Sabbath Home Baptist Church,990 Sabbath Home Rd SW,Supply,NC,28462
Sharon United Methodist Church,2030 Holden Beach Rd SW,Supply,NC,28462
Buckeye Baptist Church,102 W Buckeye Rd,Swannanoa,NC,28778
Swannanoa Free Will Baptist,200 Park St,Swannanoa,NC,28778
Swannanoa Valley Independent,PO Box 969,Swannanoa,NC,28778
St Margaret Mary Catholic Chr,102 Andrews Pl,Swannanoa,NC,28778
Bull Creek Baptist Church,290 Mill Creek Rd,Marshall,NC,28753
Long Branch Baptist Church,1394 Long Branch Rd,Marshall,NC,28753
Peek's Baptist Church,950 E Fork Rd,Marshall,NC,28753
Bunn Baptist Church,PO Box 144,Bunn,NC,27508
Bunn Chapel Church,4218 Pleasant Grove Church Rd,Nashville,NC,27856
Elm Grove Baptist Church,2385 Old Bailey Hwy,Nashville,NC,27856
Momeyer Baptist Church,4967 Momeyer Way,Nashville,NC,27856
Nashville Baptist Church,PO Box 637,Nashville,NC,27856
Rock Creek Baptist Church,1198 Cross Creek Dr,Nashville,NC,27856
Union Hill Baptist Church,PO Box 904,Nashville,NC,27856
Beulah Church of Christ,RR 5 Box 295,Nashville,NC,27856
Nashville United Methodist Chr,PO Box 86,Nashville,NC,27856
Nashville Praise ,PO Box 280,Nashville,NC,27856
Christ United Baptist Church,PO Box 4075,Hickory,NC,28603
East Hickory Baptist Church,130 16th St SE,Hickory,NC,28602
First Baptist Church-Hickory,339 2nd Ave NW,Hickory,NC,28601
Morning Star Baptist Church,126 4th Ave SW,Hickory,NC,28602
Mt View Baptist Church,1232 Mountain View Church Rd,Hamptonville,NC,27020
Penelope Baptist Church,3310 Main Ave NW,Hickory,NC,28601
Springs Road Baptist Church,3580 Springs Rd NE,Hickory,NC,28601
Viewmont Baptist Church,1246 2nd St NE,Hickory,NC,28601
Wilkies Grove Baptist Church,5780 Wilkies Grove Church Rd,Hickory,NC,28602
Winkler's Grove Baptist Church,3320 9th Ave Dr NW,Hickory,NC,28601
Episcopal Church-the Ascension,726 1st Ave NW,Hickory,NC,28601
St Alban's Episcopal Church,PO Box 970,Davidson,NC,28036
First Church of God,PO Box 218,Drexel,NC,28619
First Hmong Alliance Church,349 33rd St SW,Hickory,NC,28602
Augustana Lutheran Church,1523 16th St SE,Hickory,NC,28602
Bethany Lutheran Church,1644 Main Avenue Dr NW,Hickory,NC,28601
Bethlehem Lutheran Church,1686 6th St SE,Hickory,NC,28602
Millers Lutheran Church,2280 12th Ave NE,Hickory,NC,28601
Mt Pisgah Lutheran Church,9379 Nc Highway 127,Hickory,NC,28601
New Jerusalem Lutheran Church,2120 Startown Rd,Hickory,NC,28658
Our Savior Lutheran Church,2160 35th Avenue Dr NE,Hickory,NC,28601
Shiloh Lutheran Church,1011 Shiloh Church Rd,Hickory,NC,28601
St Andrew's Lutheran Church,629 8th St NE,Hickory,NC,28601
St Stephens Lutheran Church,4503 Saint Stephens Church Rd,Gold Hill,NC,28071
Zion Lutheran Church,1911 Zion Church Rd,Hickory,NC,28602
St Johns Methodist Church,2805 Kool Park Rd NE,Hickory,NC,28601
St Luke's Methodist Church,52 16th Ave NW,Hickory,NC,28601
Westview United Methodist Chr,1309 1st Ave SW,Hickory,NC,28602
Hickory Community Chapel,3240 6th St Dr NW,Hickory,NC,28601
Living Work Fellowship,PO Box 3707,Hickory,NC,28603
Healing Springs Church,PO Box 10009,Hickory,NC,28603
Huntington Hills Church of God,PO Box 5038,Hickory,NC,28603
Longview Church of God,PO Box 4057,Hickory,NC,28603
Resurrection Family Church,PO Box 3032,Hickory,NC,28603
Corinth Reformed United Church,150 16th Ave NW,Hickory,NC,28601
Faith United Church of Christ,204 19th Ave SW,Hickory,NC,28602
Northminster Presbyterian Chr,PO Box 5459,Hickory,NC,28603
316 Christian Community Church,1406 2nd St Dr SW,Hickory,NC,28602
A Family Called Church,195 10th Ave NW,Hickory,NC,28601
Clarks Chapel Baptist Church,3212 Clarks Chapel Rd,Lenoir,NC,28645
College Avenue Baptist Church,1201 College Ave SW,Lenoir,NC,28645
Crest View Baptist Church,1908 Blowing Rock Blvd,Lenoir,NC,28645
First Baptist Church of Lenoir,304 Main St NW,Lenoir,NC,28645
First Baptist Church of Whitne,PO Box 2999,Lenoir,NC,28645
Flemings Chapel Baptist Church,4430 Littlejohn Church Rd,Lenoir,NC,28645
Kings Creek Baptist Church,4698 Kings Creek Church Rd,Lenoir,NC,28645
Lower Creek Baptist Church,633 Lower Creek Dr NE,Lenoir,NC,28645
Meadowbrook Baptist Church,PO Box 1226,Lenoir,NC,28645
Miller Hill Baptist Church,1230 Virginia St SW,Lenoir,NC,28645
Mount Pilgrim Baptist Church,PO Box 2397,Lenoir,NC,28645
North Catawba Baptist Church,1596 N Catawba Church Ave,Lenoir,NC,28645
Setzer Creek Baptist Church,3163 Warrior Rd,Lenoir,NC,28645
West Lenoir Baptist Church,311 Abington Rd NW,Lenoir,NC,28645
St Stephen's Lutheran Church,1406 Harper Ave NW,Lenoir,NC,28645
Smith Memorial Methodist Chr,426 Woodsway Ln NW,Lenoir,NC,28645
Whitnel United Methodist,1373 Delwood Dr SW,Lenoir,NC,28645
Lenoir Community Church,1002 Lower Creek Dr NE,Lenoir,NC,28645
Whitnel Pentecostal Holiness,1890 Connelly Springs Rd,Lenoir,NC,28645
Bethel Colony Of Mercy,1675 Bethel Colony Rd,Lenoir,NC,28645
Christ Church Of Lenoir,2879 Morganton Blvd SW,Lenoir,NC,28645
Eastlawn Baptist Church,432 N Sellars Mill Rd,Burlington,NC,27217
Glen Hope Baptist Church,911 North Ave,Burlington,NC,27217
Glen Raven Baptist Church,PO Box 4158,Burlington,NC,27215
Glencoe Baptist Church,2556 Glencoe St,Burlington,NC,27217
Grove Park Baptist Church,108 Trail 1,Burlington,NC,27215
Holly Hill Baptist Church,2818 Edgewood Ave,Burlington,NC,27215
Kinnett Memorial Baptist Chr,1106 E Morehead St,Burlington,NC,27215
Morgantown Baptist Church,PO Box 705,Burlington,NC,27216
Blessed Sacrament Church,PO Box 619,Burlington,NC,27216
Episcopal Chr-Holy Comforter,PO Box 1336,Burlington,NC,27216
New Covenant United Holy Chr,1258 Apple St,Burlington,NC,27217
Macedonia Lutheran Elca Chr,421 W Front St,Burlington,NC,27215
Bellemont United Methodist Chr,4039 Markwood Rd,Burlington,NC,27215
Davis Street Methodist Church,606 E Davis St,Burlington,NC,27215
Emmanuel United Methodist Chr,2331 Lavista Dr,Burlington,NC,27215
Faith United Methodist Church,3708 Faith Church Rd,Indian Trail,NC,28079
Friendship United Methodist,PO Box 1373,Newton,NC,28658
Front Street United Methodist,PO Box 2597,Burlington,NC,27216
St Paul's United Methodist Chr,609 Trail 2,Burlington,NC,27215
Lakeview Community Church,105 Boone Rd,Burlington,NC,27217
People's Memorial Christian,247 N Nc-87,Burlington,NC,27217
Burlington Assembly of God,821 Tucker St,Burlington,NC,27215
Gospel Tabernacle Church,421 Fulton St,Burlington,NC,27217
Harvest Hills Church of God,3110 Maple Ave,Burlington,NC,27215
Trinity Worship Ctr,3157 S Church St,Burlington,NC,27215
Child Development Ctr,508 W Davis St,Burlington,NC,27215
Ebenezer United Church-Christ,734 Apple St,Burlington,NC,27217
First Associate Presbyterian,2250 Saddle Club Rd,Burlington,NC,27215
First Christian Church Ucc,PO Box 1678,Burlington,NC,27216
First Reformed Untd Chr-Christ,513 W Front St,Burlington,NC,27215
Northside Presbyterian Church,1805 Vaughn Rd,Burlington,NC,27217
Union Chapel United Church,5087 Union Ridge Rd,Burlington,NC,27217
Union Ridge United Church,115 Altamahaw Union Ridge Rd,Burlington,NC,27217
Visitor's Chapel Ucc,PO Box 1805,Burlington,NC,27216
Allied Churches-alamance County,206 N Fisher St,Burlington,NC,27217
Gateway Baptist Church,3105 Sandy Ford Rd,Newton,NC,28658
Startown First Baptist Church,2615 Sigmon Dairy Rd,Newton,NC,28658
Episcopal Church-the Epiphany,750 W 13th St,Newton,NC,28658
Beth Eden Lutheran Church,400 N Main Ave,Newton,NC,28658
Mt Olive Lutheran Church,9400 Gold Hill Rd,Mt Pleasant,NC,28124
Old St Paul's Lutheran,2035 Old Conover-Startown Rd,Newton,NC,28658
Abernethy Memorial Methodist,PO Box 403,Newton,NC,28658
St Paul's Reformed Church,3562 Startown Rd,Newton,NC,28658
Grace Reformed Church-Christ,117 E J St,Newton,NC,28658
Abernethy Laurels,102 Leonard Ave,Newton,NC,28658
Abernethy Memorial United Methodist Church,109 W 13th St,Newton,NC,28658
Abernethy Memorial Untd Mthdst,111 W 13th St,Newton,NC,28658
Canaan Baptist Church,630 Barringer St,Salisbury,NC,28146
Enon Baptist Church,6321 E Old Us 421 Hwy,East Bend,NC,27018
First Baptist Church-Salisbury,223 N Fulton St,Salisbury,NC,28144
Franklin Baptist Church,3810 US-601,Salisbury,NC,28147
Gospel Light Baptist Church,PO Box 38,Walkertown,NC,27051
North Main Baptist Church,1501 N Main St,Salisbury,NC,28144
Stallings Memorial Baptist,817 S Main St,Salisbury,NC,28144
Trading Ford Baptist Chr,3600 Long Ferry Rd,Salisbury,NC,28146
Landmark Church,1910 Mooresville Rd,Salisbury,NC,28147
Trinity Wesleyan Church,2200 Mooresville Rd,Salisbury,NC,28147
Bethel Lutheran Church,5759 Bolick Rd,Claremont,NC,28610
Christiana Lutheran Church,6190 US-52,Salisbury,NC,28146
Organ Lutheran Church,1515 Organ Church Rd,Salisbury,NC,28146
St Matthews Lutheran Church,9275 Bringle Ferry Rd,Salisbury,NC,28146
St Peters Lutheran Church,6175 St Peters Church Rd,Conover,NC,28613
Union Lutheran Church,4770 Bringle Ferry Rd,Salisbury,NC,28146
Coburn Memorial United Meth,901 S Church St,Salisbury,NC,28144
Gay's Chapel United Methodist,5545 Woodleaf Rd,Salisbury,NC,28147
Milford Hills United Methodist,1630 Statesville Blvd,Salisbury,NC,28144
New Testament Word of Faith,PO Box 1413,Salisbury,NC,28145
Cornerstone Church,PO Box 726,Maiden,NC,28650
Salisbury Foursquare Church,2203 Mooresville Rd,Salisbury,NC,28147
First United Church of Christ,207 W Horah St,Salisbury,NC,28144
Franklin Presbyterian Church,280 Franklin Church Dr,Salisbury,NC,28147
Mt Hope United Church-Christ,7008 Old Concord Rd,Salisbury,NC,28146
Second Presbyterian Church,PO Box 1334,Lexington,NC,27293
Thyatira Presbyterian Church,220 White Rd,Salisbury,NC,28147
Salisbury Church Of God,1715 2nd St,Salisbury,NC,28144
Quaker Gap Baptist Church,2265 Flat Shoals Rd,King,NC,27021
Good Shepherd Catholic Church,PO Box 1149,King,NC,27021
Capella Church of Christ,1187 Flat Shoals Rd,King,NC,27021
Poplar Springs Christian Ch,7120 Nc 66 Hwy S,King,NC,27021
King Moravian Church,234 W Dalton Rd,King,NC,27021
Church of God-Harvest Temple,PO Box 633,King,NC,27021
King Christian Ctr,PO Box 1706,King,NC,27021
New Beginnings Community Chr,201 Village Rd SW,Shallotte,NC,28470
Shallotte First Baptist Church,4510 Main St,Shallotte,NC,28470
St Brendan's Catholic Church,PO Box 2984,Shallotte,NC,28459
St James Episcopal Church,25 S 3rd St,Wilmington,NC,28401
Camp United Methodist Church,PO Box 776,Shallotte,NC,28459
Highest Praise Worship Ctr,PO Box 1189,Shallotte,NC,28459
Shallotte Presbyterian,PO Box 3256,Shallotte,NC,28459
Mc Leansville Baptist Church,PO Box 197,McLeansville,NC,27301
New Bessemer Baptist Church,4115 Hines Chapel Rd,McLeansville,NC,27301
One Way Baptist Chapel,1117 Mt Hope Church Rd,McLeansville,NC,27301
Hines Chapel,4476 Hines Chapel Rd,McLeansville,NC,27301
College Acres Baptist Church,702 Eastwood Rd,Wilmington,NC,28403
Lake Forest Baptist Church,1626 Lake Branch Dr,Wilmington,NC,28401
Long Leaf Baptist Church,317 Shipyard Blvd,Wilmington,NC,28412
Mount Nebo Baptist Church,801 S 10th St,Wilmington,NC,28401
Mt Hermon Missionary Baptist,504 Evans St,Wilmington,NC,28405
Myrtle Grove Baptist Church,5524 Myrtle Grove Rd,Wilmington,NC,28409
Peace Baptist Church,320 Military Cutoff Rd,Wilmington,NC,28405
Pine Valley Baptist Church,3940 Shipyard Blvd,Wilmington,NC,28403
Scotts Hill Baptist Church,185 Scotts Hill Loop Rd,Wilmington,NC,28411
Seagate Baptist Church,6115 Oleander Dr,Wilmington,NC,28403
Winter Park Baptist Church,4700 Wrightsville Ave,Wilmington,NC,28403
Wrightsboro Baptist Church,2736 Castle Hayne Rd,Wilmington,NC,28401
Church of Good Shepherd,PO Box 928,Wilmington,NC,28402
Church of the Servant,4925 Oriole Dr,Wilmington,NC,28403
St Andrew Episcopal Church,101 Airlie Rd,Wilmington,NC,28403
St John's Episcopal Chr,1219 Forest Hills Dr,Wilmington,NC,28403
St Marks Episcopal Church,600 Grace St,Wilmington,NC,28401
St Paul's Episcopal Church,16 N 16th St,Wilmington,NC,28401
Macedonia Missionary Baptist,3701 Princess Place Dr,Wilmington,NC,28405
B'Nai Israel Synagogue,PO Box 7104,Wilmington,NC,28406
Lutheran Church-Reconciliation,7500 Market St,Wilmington,NC,28411
St Matthew Lutheran Church,612 S College Rd,Wilmington,NC,28403
St Paul's Evangelical Lutheran,12 N 6th St,Wilmington,NC,28401
Unity Christ Church-Wilmington,717 Orchard Ave,Wilmington,NC,28403
Fifth Avenue United Methodist,409 S 5th St,Wilmington,NC,28401
Harbor United Methodist Church,4853 Masonboro Loop Rd,Wilmington,NC,28409
Mount Olive Ame Church,1001 S 7th St,Wilmington,NC,28401
Pine Valley United Methodist,3788 Shipyard Blvd,Wilmington,NC,28403
St Luke Ame Zion Church,709 Church St,Wilmington,NC,28401
St Phillip Ame Church,815 N 8th St,Wilmington,NC,28401
Warner Temple Ame Zion Chr,PO Box 1113,Wilmington,NC,28402
Wesleyan Chapel United Meth,10256 Us Highway 17,Wilmington,NC,28411
Wrightsboro United Methodist,3300 N Kerr Ave,Wilmington,NC,28405
Bethesda Christian Life Church,PO Box 606,Wilmington,NC,28402
The Living Church of Jesus Christ,N 4th St,Wilmington,NC,28401
Upper Room Praise ,406 Central Blvd,Wilmington,NC,28401
St Nicholas Church,608 S College Rd,Wilmington,NC,28403
Apostolic Tabernacle Church,712 Wellington Ave,Wilmington,NC,28401
Church of God Pine Valley,3810 Shipyard Blvd,Wilmington,NC,28403
Pentecostals of Wilmington,3615 Chippenham Dr,Wilmington,NC,28412
Vineyard Community Church,4702 S College Rd,Wilmington,NC,28412
Cape Fear Presbyterian Church,2606 Newkirk Ave,Wilmington,NC,28412
Myrtle Grove Presbyterian Chr,800 Piner Rd,Wilmington,NC,28409
Pearsall Memorial Presbyterian,3902 Market St,Wilmington,NC,28403
St Andrews-Covenent Church,1416 Market St,Wilmington,NC,28401
Windermere Presbyterian Church,104 Windemere Rd,Wilmington,NC,28405
Winter Park Presbyterian Chr,4501 Wrightsville Ave,Wilmington,NC,28403
Sanctuary Church Of Wilmington,6339 Carolina Beach Rd,Wilmington,NC,28412
Islamic Center Of Wilmington,6336 Myrtle Grove Rd,Wilmington,NC,28409
Brookfield Church Of God,131 Elliot Dr,Wilmington,NC,28405
Calvary Chapel Of Wilmington,2831 Carolina Beach Rd,Wilmington,NC,28412
Abundant Life Christian,6860 Walnut Cove Rd,Walkertown,NC,27051
All Saints Anglican Parish,2623 N College Rd,Wilmington,NC,28405
Calvary Baptist Tabernacle,305 Andrea Dr,Jamestown,NC,27282
Bales Memorial Wesleyan Church,1000 Bales Chapel Rd,Jamestown,NC,27282
Jamestown United Methodist Chr,PO Box 339,Jamestown,NC,27282
Friendly Hills Church,1450 Guilford College Rd,Jamestown,NC,27282
Jamestown Presbyterian Church,PO Box 817,Jamestown,NC,27282
Church Of God Of Jamestown,5073 Harvey Rd,Jamestown,NC,27282
Abundant Life Church,512 Us Highway 70 E,Hillsborough,NC,27278
Adams Farm Community Church,5113 Mackay Rd,Jamestown,NC,27282
Camp Herman Baptist Church,5756 Summit Ave,Browns Summit,NC,27214
Reedy Fork Baptist Church,4709 Yanceyville Rd,Browns Summit,NC,27214
Cane Creek Baptist Church,6901 Orange Grove Rd,Hillsborough,NC,27278
Cross Roads Baptist Church,3106 Orange Grove Rd,Hillsborough,NC,27278
Mars Hill Baptist Church,PO Box 218,Mars Hill,NC,28754
Mt Bright Baptist Church,211 W Union St,Hillsborough,NC,27278
Holy Family Catholic Church,216 Governor Burke Rd,Hillsborough,NC,27278
St Matthews Episcopal Church,PO Box 628,Hillsborough,NC,27278
Hillsborough United Meth Chr,130 W Tryon St,Hillsborough,NC,27278
Mt Zion Ame Church,5124 Nc-86 N,Hillsborough,NC,27278
New Sharon United Methodist,1601 New Sharon Church Rd,Hillsborough,NC,27278
Carolina Memorial Baptist Chr,422 Liberty Dr,Thomasville,NC,27360
Cedar Lodge Baptist Church,1305 Cedar Dr,Thomasville,NC,27360
Greenwood Baptist Church,PO Box 1088,Thomasville,NC,27361
Hasty Baptist Church,161 Joe Moore Rd,Thomasville,NC,27360
Hillside Park Baptist Church,7593 E Holly Grove Rd,Thomasville,NC,27360
Hilltop Baptist Church,160 Gate Rd,Thomasville,NC,27360
Hughes Grove Baptist Church,547 Hughes Grove Church Rd,Thomasville,NC,27360
Mills Home Baptist Church,PO Box 338,Thomasville,NC,27361
Oak Hill Memorial Baptist,1793 Tower Rd,Thomasville,NC,27360
Rich Fork Baptist Church,3993 Old Us Highway 29,Thomasville,NC,27360
Southgate Baptist Church,104 Cloniger Dr,Thomasville,NC,27360
Central Wesleyan Church,300 Hinkle St,Thomasville,NC,27360
Mt Zion Wesleyan Church,222 Mount Zion Church Rd,Thomasville,NC,27360
Pneuma Pentecostal Church,200 Kern St,Thomasville,NC,27360
Fairgrove United Methodist Chr,204 Cedar Lodge Rd,Thomasville,NC,27360
First Ev Methodist Church,PO Box 2011,Thomasville,NC,27361
Johnsontown United Meth Church,1057 Johnsontown Rd,Thomasville,NC,27360
Mt Pleasant United Methodist,9289 S Nc Highway 581,Bailey,NC,27807
Pleasant Grove United Meth,PO Box 1049,Thomasville,NC,27361
Trinity Methodist Church,205 Rebecca Dr,Thomasville,NC,27360
Unity United Methodist Church,608 National Hwy,Thomasville,NC,27360
Cornerstone Church of Christ,1102 Short St,Thomasville,NC,27360
Calvary United Church-Christ,1410 Lexington Ave,Thomasville,NC,27360
Emanuel United Church-Christ,128 Cedarland Dr,Thomasville,NC,27360
Zion United Church of Christ,RR 6,Thomasville,NC,27360
Castle Hayne Baptist Church,4535 Parmele Rd,Castle Hayne,NC,28429
St Stanislaus Church,4849 Castle Hayne Rd,Castle Hayne,NC,28429
St James Ame Church,2606 Chair Rd,Castle Hayne,NC,28429
First Baptist Church of Hudson,345 Main St,Hudson,NC,28638
Poovey's Chapel Baptist Church,2822 Pooveys Chapel Church Rd,Hudson,NC,28638
Hudson United Methodist Church,PO Box 726,Hudson,NC,28638
Mt Herman United Methodist Chr,PO Box 625,Hudson,NC,28638
Center Hill Baptist Church,3759 NC-8,Lexington,NC,27292
Churchland Baptist Church,7516 S Nc-150,Lexington,NC,27295
Coggins Memorial Baptist Chr,1306 S Main St,Lexington,NC,27292
New Testament Baptist Church,3591 Old Linwood Rd,Lexington,NC,27292
North Lexington Baptist Church,201 Mize Rd,Lexington,NC,27295
Reeds Baptist Church,180 Reeds Baptist Church Rd,Lexington,NC,27295
Sheets Memorial Baptist Chr,210 Cotton Grove Rd,Lexington,NC,27292
Becks Lutheran Church,441 Becks Church Rd,Lexington,NC,27292
Bethesda Methodist Church,2922 Bethesda Rd,Lexington,NC,27295
Cotton Grove United Methodist,175 Jersey Church Rd,Lexington,NC,27292
Friendship United Meth Church,2840 Friendship Church Rd,Lexington,NC,27295
Good Hope United Methodist,10253 Hampton Rd,Lexington,NC,27295
Reeds United Methodist Church,4731 W Us-64,Lexington,NC,27295
Shiloh Methodist Church,943 N Nc-150,Lexington,NC,27295
Tyro United Methodist Church,4484 S Nc-150,Lexington,NC,27295
Wesley Heights United Meth Chr,100 Western Blvd,Lexington,NC,27295
Community Church,224 Ruth Dr,Lexington,NC,27292
Faith Chapel,5855 NC-8,Lexington,NC,27292
Psalm 91,930 Michael Rd,Lexington,NC,27295
First Pentecostal Church,1448 E Us-64,Lexington,NC,27292
Becks United Church of Christ,2845 Becks Church Rd,Lexington,NC,27292
First Reformed Church,210 N Central Ave,Landis,NC,28088
Hedrick's Grove United Church,3840 Allred Rd,Lexington,NC,27292
Meadowview Presbyterian Church,1 Grace Way Dr,Lexington,NC,27295
Mt Tabor United Ch of Christ,974 E Holly Grove Rd,Lexington,NC,27292
Pauls Chapel Church of Christ,2791 W Center St Ext,Lexington,NC,27295
Pilgrim Reformed United Church,797 Pilgrim Church Rd,Lexington,NC,27295
Second United Church of Christ,330 N Church St,Lexington,NC,27292
House Of Hope Worship,2315 Kepley Rd,Lexington,NC,27292
Righteous Church Of God,162 Thomas Rd,Lexington,NC,27295
Lexington Church Of God,810 W 4th Ave,Lexington,NC,27292
Abiatha Temple Church Of God,615 Tussey St,Lexington,NC,27292
Center View Baptist Church,3976 E Maiden Rd,Maiden,NC,28650
East Maiden Baptist Church,PO Box 386,Maiden,NC,28650
Lawing's Chapel Baptist Chr,4637 Lawing Chapel Church Rd,Maiden,NC,28650
Mt Anderson Baptist Church,5044 S Nc 16 Hwy,Maiden,NC,28650
Mt Ruhama Baptist Church,3273 Mt Ruhama Church Rd,Maiden,NC,28650
Providence Road Baptist Church,PO Box 507,Maiden,NC,28650
St Martins Lutheran Church,PO Box 542,Maiden,NC,28650
Mays Chapel United Meth Church,1707 Mays Chapel Church Rd,Maiden,NC,28658
Living Word Church,PO Box 647,Maiden,NC,28650
St Matthews Church of Christ,PO Box 739,Maiden,NC,28650
First Baptist Church Hildebran,PO Box 317,Hildebran,NC,28637
Messiah Lutheran Church,PO Box 890,Hildebran,NC,28637
Mt Hebron Lutheran Church,PO Box 346,Hildebran,NC,28637
Oak Ridge First Baptist Church,PO Box 471,Oak Ridge,NC,27310
Oak Ridge United Methodist Chr,2424 Oak Ridge Rd,Oak Ridge,NC,27310
Oak Ridge Presbyterian Church,PO Box 565,Oak Ridge,NC,27310
Spring Lake Memorial Baptist,485 Chapel Hill Rd,Spring Lake,NC,28390
William's Chapel Baptist,1230 N Bragg Blvd,Spring Lake,NC,28390
True Vine Reasoning Ctr,910 McNeil St,Spring Lake,NC,28390
Capilla Cristo Redentor,105 Weaver St,Spring Lake,NC,28390
Lou Chapel Church,274 Lous Chapel Rd,Spring Lake,NC,28390
Spring Lake Assembly-God Chr,105 Strickland Dr,Spring Lake,NC,28390
Evangelical House Of God,106 Person St,Spring Lake,NC,28390
Chalybeate Springs Baptist Chr,238 Chalybeate Rd,Fuquay-Varina,NC,27526
Fuquay-Varina Baptist Church,301 N Woodrow St,Fuquay-Varina,NC,27526
Hilltop Free Will Baptist Chr,5309 Umstead Rd,Fuquay-Varina,NC,27526
Catholic Hispanic Ministry,1005 Wilbon Rd,Fuquay-Varina,NC,27526
Abiding Presence Lutheran,7300 Sunset Lake Rd,Fuquay-Varina,NC,27526
Fuquay Varina United Methodist,100 S Judd Pky SE,Fuquay-Varina,NC,27526
Wake Chapel Christian Church,905 Wake Chapel Rd,Fuquay-Varina,NC,27526
Fuquay-Varina Presbyterian Chr,PO Box 1126,Fuquay-Varina,NC,27526
Agape Kure Beach Ministries,1369 Tyler Dewar Ln,Fuquay-Varina,NC,27526
Children's Center,PO Box 668,Yadkinville,NC,27055
Courtney Baptist Church,3341 Courtney Church Rd,Yadkinville,NC,27055
Deep Creek Baptist Church,2400 Old Stage Rd,Yadkinville,NC,27055
Forbush Baptist Church,3917 Old Us 421 Hwy E,Yadkinville,NC,27055
Maplewood Baptist Church,PO Box 576,Yadkinville,NC,27055
South Oak Ridge Baptist Church,1336 Lone Hickory Rd,Yadkinville,NC,27055
Turners Creek Baptist Church,3216 Courtney-Huntsville Rd,Yadkinville,NC,27055
Yadkinville Methodist Church,PO Box 25,Yadkinville,NC,27055
Yadkinville Church Of Christ,617 W Main St,Yadkinville,NC,27055
Independence Hill Baptist Chr,10220 Eastfield Rd,Huntersville,NC,28078
Lake Norman Baptist Church,7921 Sam Furr Rd,Huntersville,NC,28078
St Mark Catholic Church,14740 Stumptown Rd,Huntersville,NC,28078
Eastfield Christian Church,11901 Eastfield Rd,Huntersville,NC,28078
Asbury United Methodists Chr,11724 Asbury Chapel Rd,Huntersville,NC,28078
Huntersville United Methodist,PO Box 378,Huntersville,NC,28070
Harvest Community Church,13301 Eastfield Rd,Huntersville,NC,28078
Eastfield Presbyterian Church,11800 Eastfield Rd,Huntersville,NC,28078
Hopewell Presbyterian Church,10500 Beatties Ford Rd,Huntersville,NC,28078
Huntersville Arp Church,PO Box 316,Huntersville,NC,28070
Ramah Presbyterian Church,14401 Ramah Church Rd,Huntersville,NC,28078
New Birth Of Charlotte Worship,11901 Sam Furr Rd,Huntersville,NC,28078
Ahmadiyya Movement In Islam,11205 Hambright Rd,Huntersville,NC,28078
Cleveland First Baptist Church,PO Box 325,Cleveland,NC,27013
Allen Temple Presbyterian Church,313 E Main St,Cleveland,NC,27013
Coinjock Baptist Church,PO Box 152,Coinjock,NC,27923
Colfax Baptist Church,PO Box 68,Colfax,NC,27235
Shady Grove Wesleyan Church,PO Box 98,Colfax,NC,27235
Community Baptist Church,PO Box 534,Dallas,NC,28034
Dallas Baptist Church,PO Box 572,Dallas,NC,28034
Hardin Baptist Church,PO Box 591,Dallas,NC,28034
Independent Baptist Tabernacle,2128 Dallas-Cherryville Hwy,Dallas,NC,28034
Long Creek Memorial Baptist,PO Box 484,Dallas,NC,28034
Victory Hill Baptist Church,PO Box 638,Dallas,NC,28034
Antioch Lutheran Church,330 Old Loop Rd,Dallas,NC,28034
Holy Communion Lutheran Church,PO Box 597,Dallas,NC,28034
Dallas Foursquare Gospel Chr,PO Box 905,Dallas,NC,28034
Dallas Church Of God,311 S College St,Dallas,NC,28034
Hulls Grove Baptist Church,6263 W Highway 27,Vale,NC,28168
Reepsville Baptist Church,1513 Alf Hoover Rd,Vale,NC,28168
Messiah United Methodist Chr,4474 W Highway 27,Vale,NC,28168
Cramerton Free Will Baptist,426 Woodlawn Ave,Cramerton,NC,28032
Life Church,501 Cramer Mountain Rd,Cramerton,NC,28032
Daly's Chapel Free Will Bapt,6138 Dalys Chapel Rd,Seven Springs,NC,28578
Drexel First Baptist Church,PO Box 308,Drexel,NC,28619
Drexel Memorial Baptist Church,PO Box 638,Drexel,NC,28619
Duke Memorial Baptist Church,RR 2 Box 304,Spring Hope,NC,27882
Duncan Baptist Church,RR 1,Holly Springs,NC,27540
Holly Springs Baptist Church,PO Box 366,Holly Springs,NC,27540
Sunrise United Methodist Chr,PO Box 266,Lewisville,NC,27023
Church Alive,310 Raleigh St,Holly Springs,NC,27540
Holly Springs Church of Christ,PO Box 352,Holly Springs,NC,27540
Eagles Baptist Church,RR 1,Pinetops,NC,27864
Pinetops Baptist Church,PO Box 34,Pinetops,NC,27864
Pinetops United Methodist Chr,PO Box 13,Pinetops,NC,27864
Pinetops Church Of God,4085 NC-43,Pinetops,NC,27864
Elm Grove Original Free Will,5413 Weyerhaeuser Rd,Ayden,NC,28513
Rouse's Abundant Life Inc,PO Box 39,Ayden,NC,28513
Zion Chapel Fwb Church,301 6th St,Ayden,NC,28513
Ayden Christian Church,PO Box 488,Ayden,NC,28513
Ayden United Methodist Church,PO Box 335,Ayden,NC,28513
Oxford Baptist Church,5965 Springs Rd,Conover,NC,28613
Concordia Lutheran Church,185 Concordia Church Rd,China Grove,NC,28023
Faith Evangelical Lutheran Chr,439 7th Street Pl SW,Conover,NC,28613
Mt Zion Lutheran Church,4420 County Home Rd,Conover,NC,28613
St Johns Lutheran Church,2126 St Johns Church Rd NE,Conover,NC,28613
Emmanuel Independent Baptist,120 Bell St,Cedar Point,NC,28584
Emmaus Baptist Church,2430 Silk Hope Gum Springs Rd,Pittsboro,NC,27312
All Saints Holiness Church,974 Sleepy Creek Rd,Dudley,NC,28333
Pittsboro Baptist Church,PO Box 696,Pittsboro,NC,27312
Alston Chapel Church,1832 Alston Chapel Rd,Pittsboro,NC,27312
Enka Baptist Church,PO Box 219,Enka,NC,28728
Southern Baptist Church,PO Box 146,East Bend,NC,27018
Abiding Savior Lutheran Church,801 Charlotte Hwy,Fairview,NC,28730
Faith Lutheran Church,PO Box 669,Faith,NC,28041
Shiloh United Church of Christ,PO Box 308,Faith,NC,28041
Pearl Baptist Church,4657 E Highway 27,Iron Station,NC,28080
Lincoln Church Of Christ,3781 E Highway 27,Iron Station,NC,28080
Poplar Ridge Friends Church,3673 Hoover Hill Rd,Trinity,NC,27370
Falls Baptist Church,9700 Fonville Rd,Wake Forest,NC,27587
Glen Royal Baptist Church,731 Elizabeth Ave,Wake Forest,NC,27587
North Wake Baptist Church,1212 S Main St,Wake Forest,NC,27587
Richland Creek Community Chr,PO Box 855,Wake Forest,NC,27588
Stoney Hill Baptist Church,7521 Stony Hill Rd,Wake Forest,NC,27587
Woodland Baptist Church,190 Woodland Church Rd,Wake Forest,NC,27587
St John Episcopal Church,PO Box 608,Wake Forest,NC,27588
Wake Forest United Methodist,905 S Main St,Wake Forest,NC,27587
Wake Forest Presbyterian Chr,12605 Capital Blvd,Wake Forest,NC,27587
Corporate Chaplains Of America,1300 Corporate Chaplain Dr,Wake Forest,NC,0
Moyock Baptist Church,PO Box 459,Moyock,NC,27958
Samuel's Chapel Holiness Chr,PO Box 547,Moyock,NC,27958
Agape Lighthouse Ministries,158 Linville Ln,Willow Spring,NC,27592
Mt Beulah Baptist Church,5306 Dallas Cherryville Hwy,Bessemer City,NC,28016
Sunnyside Baptist Church,1631 Tryon Courthouse Rd,Bessemer City,NC,28016
Whites Memorial Baptist Church,2930 Whites Memorial Rd,Franklinville,NC,27248
Gray's Chapel United Methodist,5056 Nc-22 N,Franklinville,NC,27248
Loves Creek Baptist Church,14680 Us-64 W,Siler City,NC,27344
Moons Chapel Baptist Church,175 Moons Chapel Rd,Siler City,NC,27344
Rives Chapel Baptist Church,4338 Rives Chapel Church Rd,Siler City,NC,27344
Rocky River Baptist Church,4436 Siler City Snow Camp Rd,Siler City,NC,27344
St Julia's Parish,210 Harold Hart Rd,Siler City,NC,27344
Piney Grove United Meth Church,2343 Piney Grove Church Rd,Siler City,NC,27344
Pentecostal Holiness Church,17475 Us-64 W,Siler City,NC,27344
Kingswood United Methodist,PO Box 399,Rural Hall,NC,27045
Mizpah Moravian Church,3195 Mizpah Church Rd,Rural Hall,NC,27045
Rural Hall Moravian Church,PO Box 487,Rural Hall,NC,27045
Jefferson Church of Christ,8200 Jefferson Church Rd,Rural Hall,NC,27045
Willow Oak Baptist Church,PO Box 705,Walnut Cove,NC,27052
Ocean View United Methodist,600 Yaupon Dr,Oak Island,NC,28465
Oak Island Presbyterian Church,1503 E Oak Island Dr,Oak Island,NC,28465
Low's Lutheran Church-Elca,2136 Nc Highway 61,Liberty,NC,27298
St Mark Lutheran Church,PO Box 550,Claremont,NC,28610
Bethlehem United Meth Church,PO Box 233,Claremont,NC,28610
Community Lutheran Church,PO Box 1030,Summerfield,NC,27358
Summerfield United Meth Church,PO Box 639,Summerfield,NC,27358
Cathedral of Faith Christian,7200 Summerfield Rd,Summerfield,NC,27358
Mt Pleasant Methodist Church,PO Box 237,Mt Pleasant,NC,28124
Flat Creek Baptist Church,21 Flat Creek Church Rd,Weaverville,NC,28787
Ivy Hill Baptist Church,331 Ivy Hill Rd,Weaverville,NC,28787
Morgan Hill Baptist Church,594 Barnardsville Hwy,Weaverville,NC,28787
Mt Shebah Baptist Church,PO Box 650,Weaverville,NC,28787
Piney Mountain Baptist Church,PO Box 1727,Weaverville,NC,28787
Weaverville United Methodist,PO Box 37,Weaverville,NC,28787
Friendship Free Will Baptist,RR 1,Farmville,NC,27828
Lewis Chapel Church,PO Box 91,Farmville,NC,27828
Marlboro Free Will Baptist Chr,PO Box 694,Farmville,NC,27828
Farmville United Methodist Chr,PO Box 153,Farmville,NC,27828
Mt Moriah Original United Holy,PO Box 367,Farmville,NC,27828
Bentonville Disciple Church,8566 Devils Racetrack Rd,Four Oaks,NC,27524
Beulah Hill Christian Church,1537 Keen Rd,Four Oaks,NC,27524
Four Oaks United Methodist Chr,PO Box 177,Four Oaks,NC,27524
Advent Christian Conference,101 S Main St,Four Oaks,NC,27524
Mt Lebanon United Methodist,119 W River Dr,Randleman,NC,27317
Central Cathedral Church-God,PO Box 280,Randleman,NC,27317
Randleman Church Of God,305 E Brown St,Randleman,NC,27317
Acts Temple Church Parsonage,252 Price Noble Rd,Randleman,NC,27317
First Missionary Baptist Chr,PO Box 1422,Smithfield,NC,27577
Sardis Baptist Church,3602 Unionville Indian Trail Rd W,Indian Trail,NC,28079
Unity Free Will Baptist,PO Box 1012,Smithfield,NC,27577
Shiloh Christian Church,PO Box 1309,Smithfield,NC,27577
St Peter's Church of Christ,PO Box 1495,Smithfield,NC,27577
St Paul's Church,218 S 2nd St,Smithfield,NC,27577
Sanders Chapel United Meth,4484 Brogden Rd,Smithfield,NC,27577
Lighthouse Baptist Church,PO Box 89,Welcome,NC,27374
Glen Alpine United Methodist,PO Box 576,Glen Alpine,NC,28628
Southview Baptist Church,4089 Elk Rd,Hope Mills,NC,28348
Good Shepherd Roman Catholic,5050 Oak St,Hope Mills,NC,28348
Hope Mills United Methodist,4955 Legion Rd,Hope Mills,NC,28348
Union Oak Ame Zion Church,PO Box 494,Hope Mills,NC,28348
Agape Christian Worship Center,5764 Hilltop St,Hope Mills,NC,28348
Hartis Grove Baptist Church,4224 Blanchard Cir,Indian Trail,NC,28079
Indian Trail United Methodist,PO Box 130,Indian Trail,NC,28079
Acts Ministries,5805 W Highway 74,Indian Trail,NC,28079
St Mildred's Catholic Church,616 E Sabiston Dr,Swansboro,NC,28584
St Peter'S-By-the-Sea Church,PO Box 337,Swansboro,NC,28584
Swansboro United Methodist Chr,665 W Corbett Ave,Swansboro,NC,28584
Swansboro Church Of Christ,641 W Corbett Ave,Swansboro,NC,28584
North Brook Baptist Church,7421 Flay Rd,Cherryville,NC,28021
Shady Grove Baptist Church,6377 Old Staley Rd,Staley,NC,27355
Haven Lutheran Church,PO Box 100,Cherryville,NC,28021
St Marks Lutheran Church,PO Box 596,China Grove,NC,28023
Missionary Methodist Church,318 W Ballard St,Cherryville,NC,28021
Cherryville Church Of God,810 E Main St,Cherryville,NC,28021
Immaculate Conception Church,PO Box 726,Carolina Beach,NC,28428
Carolina Beach Presbyterian,1209 N Lake Park Blvd,Carolina Beach,NC,28428
Calvary Episcopal Church,PO Box 1245,Tarboro,NC,27886
Sunset Church of God,1709 Anaconda Rd,Tarboro,NC,27886
Howard Memorial Presbyterian,303 E St James St,Tarboro,NC,27886
Highway Temple Of Truth,111 Burnette Farm Rd,Tarboro,NC,27886
Grifton Chapel Church-Christ,PO Box 643,Grifton,NC,28530
Grifton United Methodist Chr,PO Box 416,Grifton,NC,28530
Shiloh Church Of Christ,6482 Boss McLawhorn Rd,Grifton,NC,28530
South China Grove Baptist Chr,PO Box 163,China Grove,NC,28023
Lutheran Chapel Church,PO Box 152,China Grove,NC,28023
Mt Moriah Lutheran Church,750 Mount Moriah Church Rd,China Grove,NC,28023
China Grove Church of God,413 N Franklin St,China Grove,NC,28023
Mt Zion United Church-Christ,PO Box 1298,China Grove,NC,28023
Grace Reformed Baptist Church,PO Box 221,Mebane,NC,27302
Mebane First Baptist Church,110 S Lane St,Mebane,NC,27302
Hebron United Methodist Church,2325 Mebane Oaks Rd,Mebane,NC,27302
Mebane United Methodist Church,200 S 4th St,Mebane,NC,27302
Hawfields Presbyterian Church,2115 S Nc-119,Mebane,NC,27302
Mebane Presbyterian Church,402 S 5th St,Mebane,NC,27302
Mebane Church Of God,701 S 3rd Street Ext,Mebane,NC,27302
Adjoining Life Ministries Unlimited,3209 Henderson Field Rd,Mebane,NC,27302
Agape Baptist,814 Possum Walk Ln,Mebane,NC,27302
Agape Baptist Church,1451 Mebane Oaks Rd,Mebane,NC,27302
United Love Baptist Church Cdc,11487 Flowes Store Rd,Midland,NC,28107
Denton Wesleyan Church,16345 S Nc Highway 109,Denton,NC,27239
Denton Church Of God,212 High Rock Rd,Denton,NC,27239
First Baptist Church Icard,PO Box 190,Connellys Springs,NC,28612
Warlick's Baptist Church,2684 Warlicks Church Rd,Connellys Springs,NC,28612
Abernethy Memorial Church,PO Box 127,Rutherford College,NC,28671
First Baptist Church of Leland,517 Village Rd NE,Leland,NC,28451
Inspirational House Of Praise,1005 Village Rd NE,Leland,NC,28451
All Souls Episcopal Church,5087 Blue Banks Loop Rd NE,Leland,NC,28451
First Baptist Church of Lowell,400 W 1st St,Lowell,NC,28098
Fraley Memorial Baptist Church,PO Box 775,Lowell,NC,28098
Lowell Church Of God,804 W 1st St,Lowell,NC,28098
Presbyterian Church Of Lowell,207 E 1st St,Lowell,NC,28098
First Baptist Church-Haw River,PO Box 370,Haw River,NC,27258
Haw River United Methodist Chr,PO Box 460,Haw River,NC,27258
Phillip Chapel United Meth Chr,2362 Brucewood Rd,Haw River,NC,27258
Green Level Christian Church,PO Box 927,Haw River,NC,27258
Haw River Christian Church,415 Roxboro Rd,Haw River,NC,27258
First Baptist Church-Mt Holly,300 S Main St,Mt Holly,NC,28120
Goshen Free Will Baptist Chr,1300 W Catawba Ave,Mt Holly,NC,28120
Ridgeview Baptist Church,105 Pine Rd,Mt Holly,NC,28120
Tuckaseegee Baptist Church,511 Tuckaseege Rd,Mt Holly,NC,28120
Lutheran Church-Good Shepherd,PO Box 671,Mt Holly,NC,28120
New Covenant United Methodist,14514 Lucia Riverbend Hwy,Mt Holly,NC,28120
First Baptist Church-Ramseur,PO Box 544,Ramseur,NC,27316
Parks Cross Roads Church,2057 Parks Xroads Church Rd,Ramseur,NC,27316
Jordan Memorial United Meth,PO Box 848,Ramseur,NC,27316
Abba Fund,1524 Main St,Ramseur,NC,27316
First Baptist Church-Spencer,PO Box 156,Spencer,NC,28159
First Baptist Church-Stanley,409 Old Mt Holly Rd,Stanley,NC,28164
Lucia Baptist Church,15434 Lucia Riverbend Hwy,Stanley,NC,28164
Christ's Lutheran Church,203 S Main St,Stanley,NC,28164
Hills Chapel United Methodist,988 NC-16-BR,Stanley,NC,28164
Revival Tabernacle,PO Box 307,Stanley,NC,28164
Stanley Pentecostal Holiness,PO Box 298,Stanley,NC,28164
Flat Rock Baptist Church,1529 Flat Rock Church Rd,Louisburg,NC,27549
Jones Chapel Baptist Church,148 Jones Chapel Rd,Louisburg,NC,27549
Louisburg Baptist Church,PO Box 730,Louisburg,NC,27549
Maple Springs Baptist Church,1982 Nc 56 Hwy E,Louisburg,NC,27549
Rock Spring Baptist Church,34 Rock Springs Church Rd,Louisburg,NC,27549
Wood Baptist Church Office,649 Wood Church Rd,Louisburg,NC,27549
Louisburg Methodist Church,PO Box 667,Louisburg,NC,27549
Allen Chapel Baptist Church,693 T K Allen Rd,Louisburg,NC,27549
Franklinton Baptist Church,PO Box 477,Franklinton,NC,27525
Perry's Chapel Baptist,894 Perrys Chapel Church Rd,Franklinton,NC,27525
Union View Baptist Church,PO Box 505,Franklinton,NC,27525
Franklinton United Mthdst Chr,109 N Main St,Franklinton,NC,27525
Allen's Metropolitan Ame,210 W Green St,Franklinton,NC,27525
Freewill Baptist Church,RR 1 Box 584,Macclesfield,NC,27852
Webb's Chapel Baptist Church,PO Box 336,Macclesfield,NC,27852
Germanton Baptist Church,6810 S Germanton Rd,Germanton,NC,27019
Corinth Church of Christ,2784 S Friendship Rd,Germanton,NC,27019
Gabriels Creek Baptist Church,115 Turkey Branch Rd,Mars Hill,NC,28754
Upper Laurel Baptist Church,RR 3 Box 244,Mars Hill,NC,28754
Episcopal Church-Holy Spirit,PO Box 956,Mars Hill,NC,28754
Georgetown Baptist Church,PO Box 448,Leicester,NC,28748
Newfound Baptist Church,PO Box 6,Leicester,NC,28748
Zion Hill Baptist Church,1008 Newfound Rd,Leicester,NC,28748
Glenola Baptist Church,8330 US-311,Archdale,NC,27263
Gospel Baptist Church,104 Jackie Ave,Archdale,NC,27263
Archdale United Methodist Chr,PO Box 4096,Archdale,NC,27263
Archdale Friends Meeting,114 Trindale Rd,Archdale,NC,27263
Cedar Square Friends Meeting,7546 Harlow Rd,Archdale,NC,27263
Trindale Community Church,PO Box 14281,Archdale,NC,27263
Archdale Assembly Of God,4405 Archdale Rd,Archdale,NC,27370
Walkertown First Baptist Chr,PO Box 310,Walkertown,NC,27051
Love's United Methodist Church,PO Box 8,Walkertown,NC,27051
Morris Chapel Methodist Church,PO Box 57,Walkertown,NC,27051
Gospel Missionary Baptist Chr,PO Box 455,Sharpsburg,NC,27878
Sharpsburg Baptist Church,PO Box 144,Sharpsburg,NC,27878
Princeton Baptist Church,PO Box 215,Princeton,NC,27569
Princeton United Methodist Chr,PO Box 116,Princeton,NC,27569
Princeton Church of God,PO Box 546,Princeton,NC,27569
Whitley Pentecostal Holiness,188 Whitley Church Rd,Princeton,NC,27569
Hillsdale Baptist Church,PO Box 2187,Advance,NC,27006
Bethlehem United Methodist Chr,5300 Nesbit Rd,Waxhaw,NC,28173
Macedonia Moravian Church,700 Nc-801 N,Advance,NC,27006
Advance First Baptist Church,1938 Nc Highway 801 S,Advance,NC,27006
Advance Methodist Church,1911 Nc Highway 801 S,Advance,NC,27006
Homeland Baptist Church,PO Box 344,Landis,NC,28088
Landis Baptist Church,PO Box 8,Landis,NC,28088
Rodgers Park Baptist Church,PO Box 183,Landis,NC,28088
Highest Praise Fwc,PO Box 17,Landis,NC,28088
Davidson United Methodist Chr,PO Box 718,Davidson,NC,28036
Davidson College Presbyterian,PO Box 337,Davidson,NC,28036
Jersey Baptist Church,PO Box 849,Linwood,NC,27299
Smith Grove Baptist Church,3462 Sowers Rd,Linwood,NC,27299
Jerusalem Missionary Baptist,PO Box 1,Whitakers,NC,27891
Mc Adenville Baptist Church,PO Box 8,McAdenville,NC,28101
Mc Adenville Wesleyan Church,PO Box 365,McAdenville,NC,28101
Lawsonville Baptist Church,1021 Wess Hall Rd,Danbury,NC,27016
Lewisville Baptist Church,PO Box 327,Lewisville,NC,27023
Lewisville United Methodist,PO Box 305,Lewisville,NC,27023
Unity Moravian Church,8300 Concord Church Rd,Lewisville,NC,27023
River Oaks Community Church,5058 Styers Ferry Rd,Lewisville,NC,27023
Shallowford Presbyterian Chr,PO Box 159,Lewisville,NC,27023
Linneys Grove Baptist Church,6160 Sulphur Springs Rd,Hiddenite,NC,28636
Pilgrim Baptist Church,8401 Cheatham Ford Rd,Hiddenite,NC,28636
Sulphur Springs Baptist Church,RR 2 Box 149,Hiddenite,NC,28636
Magnolia Baptist Church,1021 Magnolia Church Rd,Stedman,NC,28391
Stedman Baptist Church,PO Box 190,Stedman,NC,28391
Cokesbury United Methodist,PO Box 280,Stedman,NC,28391
Lock's Creek Ame Church,PO Box 477,Stedman,NC,28391
Stedman Pentecostal Holiness,PO Box 396,Stedman,NC,28391
Marler Road Baptist Church,4433 Collins Rd,Hamptonville,NC,27020
Swaims Baptist Church,4505 US-21,Hamptonville,NC,27020
Monnett Road Baptist Church,6033 Monnett Rd,Julian,NC,27283
Coble's Lutheran Church,5200 Coble Church Rd,Julian,NC,27283
Moore's Chapel Baptist Church,PO Box 55,Saxapahaw,NC,27340
Saxapahaw United Methodist Chr,PO Box 268,Saxapahaw,NC,27340
Mount Hebron Baptist Church,PO Box 1230,Icard,NC,28666
Shoup's Grove Baptist Church,PO Box 240,Icard,NC,28666
Red Mountain Baptist Church,PO Box 103,Rougemont,NC,27572
New Britton Baptist Church,5494 Kingtown Rd NW,Ash,NC,28420
New Hill Baptist Church,PO Box 74,New Hill,NC,27562
Waxhaw Baptist Church,8213 Old Waxhaw Monroe Rd,Waxhaw,NC,28173
Marvin Ame Zion Church,PO Box 357,Waxhaw,NC,28173
God's Temple Of Zion,5017 Waxhaw-Marvin Rd,Waxhaw,NC,28173
Alicia Church,400 E South Main St,Waxhaw,NC,28173
Stokesdale Christian Church,PO Box 485,Stokesdale,NC,27357
Stokesdale United Meth Church,PO Box 38,Stokesdale,NC,27357
Stokesdale Church Of God,7835 Anthony Rd,Stokesdale,NC,27357
Ocean View Baptist Church,7025 Beach Dr SW,Ocean Isle Beach,NC,28469
St Luke Lutheran Church,5869 Ocean Hwy W,Ocean Isle Beach,NC,28469
Beach Assembly Of God,6730 Ocean Hwy W,Ocean Isle Beach,NC,28469
Aills L R Rev,1880 Wonderland St SW,Ocean Isle Beach,NC,28469
Olivet Baptist Church,7893 Monbo Rd,Catawba,NC,28609
Catawba United Methodist Chr,PO Box 186,Catawba,NC,28609
Pfafftown Baptist Church,PO Box 27,Pfafftown,NC,27040
Vienna Baptist Church,PO Box 36,Pfafftown,NC,27040
Community Church Of Christ,2748 Kecoughtan Rd,Pfafftown,NC,27040
Phillipi Missionary Baptist,PO Box 124,Simpson,NC,27879
Pine Level Free Will Baptist,PO Box 337,Pine Level,NC,27568
Piney Grove Fwb Church,2201 Piney Grove Church Rd,Kenly,NC,27542
Church Of God Of Kenly,9073 Saint Marys Church Rd,Kenly,NC,27542
Pleasant Garden Baptist Church,PO Box 157,Pleasant Garden,NC,27313
New Covenant Wesleyan Church,4708 Alliance Church Rd,Pleasant Garden,NC,27313
Pleasant Garden United Meth,PO Box 188,Pleasant Garden,NC,27313
New Beginnings Family Worship,6302 Walter Wright Rd,Pleasant Garden,NC,27313
Pleasant Grove Free Will Chr,PO Box 36,Pikeville,NC,27863
Elm Grove Church of Christ,PO Box 446,Pikeville,NC,27863
Nahunta Friends Church,2529 NC-581,Pikeville,NC,27863
Poplar Branch Baptist Church,PO Box 247,Grandy,NC,27939
Rocky River Community Church,PO Box 68,Harrisburg,NC,28075
Harrisburg United Methodist,PO Box 970,Harrisburg,NC,28075
Red Bud Baptist Church,1284 NC-58,Castalia,NC,27816
Red Oak Baptist Church,PO Box 260,Red Oak,NC,27868
Rolesville Baptist Church,PO Box 185,Rolesville,NC,27571
Rose Hill Free Will Baptist,6229 County Home Rd,Winterville,NC,28590
Winterville Baptist Church,PO Box 1669,Winterville,NC,28590
Faith Assembly of God Church,5005 Corey Rd,Winterville,NC,28590
Skyland United Methodist Chr,PO Box 697,Skyland,NC,28776
Sophia Baptist Church,PO Box 27,Sophia,NC,27350
Stoner's Grove Baptist Church,PO Box 183,Southmont,NC,27351
Stough Memorial Baptist Church,705 Lakeview Dr,Pineville,NC,28134
Pineville United Meth Church,PO Box 3,Pineville,NC,28134
Surf City Baptist Church,PO Box 2607,Surf City,NC,28445
Swepsonville Baptist Church,PO Box 7,Swepsonville,NC,27359
Swepsonville Methodist Church,PO Box 36,Swepsonville,NC,27359
Terrells Creek Missionary Chr,PO Box 815,Carrboro,NC,27510
Tyson's Creek Baptist Church,939 Tyson Creek Church Rd,Bear Creek,NC,27207
Wallburg Baptist Church,PO Box 595,Wallburg,NC,27373
White Oak Hill Free Will Bapt,3967 W Hornes Church Rd,Bailey,NC,27807
Bailey United Methodist Chr,PO Box 218,Bailey,NC,27807
Bailey Church Of God,5918 Stott St,Bailey,NC,27807
Wilson's Mills Baptist Church,PO Box C,Wilsons Mills,NC,27593
Wingate Baptist Church,PO Box 339,Wingate,NC,28174
Wingate Church Of Christ,3812 Highway 74 E,Wingate,NC,28174
Wrightsville Beach Baptist Chr,PO Box 21,Wrightsville Beach,NC,28480
St Therese Catholic Church,209 S Lumina Ave,Wrightsville Beach,NC,28480
Wrightsville United Methodist,PO Box 748,Wrightsville Beach,NC,28480
Little Chapel On the Boardwalk,2 W Fayetteville St,Wrightsville Beach,NC,28480
Yadkin Baptist Church,PO Box 37,Patterson,NC,28661
Pfafftown Christian Church,PO Box 130,Vienna,NC,27040
Powell Point Christian Church,PO Box 86,Harbinger,NC,27941
Powerline Church-the Nazarene,701 Manning Ave,Elon College,NC,27244
Fairview United Methodist Chr,3128 Osceola Rd,Elon College,NC,27244
Community in Christ Lutheran,7621 Norman Island Dr,Cornelius,NC,28031
Torrence Chapel Ame Zion Chr,PO Box 460,Cornelius,NC,28031
To the Praise of His Glory,PO Box 2033,Cornelius,NC,28031
Grace Covenant Foursquare Chr,17301 Statesville Rd,Cornelius,NC,28031
Bethel Presbyterian Prschl,19920 Bethel Church Rd,Cornelius,NC,28031
Spirit of Joy Lutheran Church,8600 Potters Rd,Weddington,NC,28104
Weddington United Methodist,13901 Providence Rd,Weddington,NC,28104
Wittenberg Lutheran Church,PO Box 345,Granite Quarry,NC,28072
Evangelical Methodist Church,PO Box 846,Rutherford College,NC,28671
Cedar Grove United Methodist,PO Box 56,Cedar Grove,NC,27231
