Name,Address,City,State,Zip
Abunding Grace Ministries,20340 PO Box,New York,NY,0
Ezekiel House Of Prayer,21844 Hempstead Ave,Jamaica,NY,0
Universal Unity Of Spirit,371 PO Box,Cassadaga,NY,0
First Baptist Church Of Westerlo,130 PO Box,Westerlo,NY,0
Zion House Of Worship,12408 Linden Blvd,Queens,NY,0
Worship Center Of Queens,190113 PO Box,Queens,NY,0
Worship Center Of St Albans,11437 Farmers Blvd,Queens,NY,0
Baptist Church Of Sharon,19513 Linden Blvd,Queens,NY,0
Korean Church Of Queens,8900 23rd Ave,Flushing,NY,0
St Joseph Marian Center,472 PO Box,Altamont,NY,0
Saint Boniface Episcopal Church Of Guilderland,397 PO Box,Guilderland,NY,0
Riverview Baptist Church,977 PO Box,Bethlehem,NY,0
Uu Fellowship Of Chautauqua,622 PO Box,Chautauqua,NY,0
St Michael's Catholic Church,424 W 34th St,New York,NY,10001
Unification Church Of America,481 8th Ave,New York,NY,10001
Ny Chinese Alliance Church,62 Delancey St,New York,NY,10002
Bialystoker Synagogue,7 Willett St,New York,NY,10002
Chinese Evangel Mission Church,97 Madison St,New York,NY,10002
Church of Grace to Fujianese,133 Allen St,New York,NY,10002
First Chinese Presbyterian Chr,61 Henry St,New York,NY,10002
Adath Israel Of New York,201 E Broadway,New York,NY,10002
Adler R,413 Grand St,New York,NY,10002
Nativity Church,44 2nd Ave,New York,NY,10003
St Cyril's Church,62 Saint Marks Pl,New York,NY,10003
Brotherhood Synagogue,28 Gramercy Park S,New York,NY,10003
East End Temple,245 E 17th St,New York,NY,10003
Village Temple,33 E 12th St,New York,NY,10003
Middle Church,50 E 7th St,New York,NY,10003
6Th Street Synagogue,325 E 6th St,New York,NY,10003
Abraham Nedivah,129 1st Ave,New York,NY,10003
Agudath Israel Of America,42 Broadway,New York,NY,10006
Trinity Church Parish,"74 Trinity Pl, #4",New York,NY,10006
St Andrews Roman Catholic Chr,20 Cardinal Hayes Pl,New York,NY,10007
Zoe Ministries Inc,PO Box 270,New York,NY,10008
East Seventh Baptist Ministry,"184 E 7th St, #2",New York,NY,10009
Church of Mary Help-Christians,440 E 12th St,New York,NY,10009
Most Holy Redeemer Church,173 E 3rd St,New York,NY,10009
St Emeric's Church,185 Avenue D,New York,NY,10009
10Th Street Church Of Christ,257 E 10th St,New York,NY,10009
Abounding Grace Ministries,393 E 8th St,New York,NY,10009
Universal Church,"220 E 23rd St, #509",New York,NY,10010
Epiphany Rc Church Rectory,239 E 21st St,New York,NY,10010
Lutheran Church of Gustavus,155 E 22nd St,New York,NY,10010
Shelter Island Presbyterian Ch,"30 W 21st St, #7",New York,NY,10010
Lutheran Church Of Gustavus,122 E 22nd St,New York,NY,10010
Batay Avoth Of Ponevez,1133 Broadway,New York,NY,10010
Spanish Church La Guadalupe,229 W 14th St,New York,NY,10011
Young Israel of 5th Ave,3 W 16th St,New York,NY,10011
Metropolitan-Duane United Chr,201 W 13th St,New York,NY,10011
St Elftherios Church,359 W 24th St,New York,NY,10011
10Th Church Of Christ Scientist,171 Macdougal St,New York,NY,10011
Old St Patrick's Cathedral,263 Mulberry St,New York,NY,10012
Most Precious Blood Church,109 Mulberry St,New York,NY,10013
Trust in God Baptist Church,5 Elizabeth St,New York,NY,10013
Church of Most Holy Crucifix,378 Broome St,New York,NY,10013
Our Lady of Vilna Church,570 Broome St,New York,NY,10013
Civic Center Synagogue,49 White St,New York,NY,10013
True Light Lutheran Church,195 Worth St,New York,NY,10013
10Th Church Of Chnrist Scientist,43 Wooster St,New York,NY,10013
200 Church St Association,194 Church St,New York,NY,10013
Our Lady of Guadalupe Rectory,328 W 14th St,New York,NY,10014
St Luke in the Fields Church,487 Hudson St,New York,NY,10014
A Greenwich Village Synagogue,53 Charles Ln,New York,NY,10014
Gay Synagogue,57 Bethune St,New York,NY,10014
Our Lady of the Scapular Chr,142 E 29th St,New York,NY,10016
Sacred Hearts Church,307 E 33rd St,New York,NY,10016
Church of the Incarnation,209 Madison Ave,New York,NY,10016
St Illuminators Cathedral,221 E 27th St,New York,NY,10016
Korean Soh Myung Church,160 Madison Ave # 2,New York,NY,10016
First Christian Of Valley,234 E 27th St,New York,NY,10016
Swedish Seamens Church,5 E 48th St,New York,NY,10017
Qinternational Federation Of Pentecostal Churches,405 Lexington Ave,New York,NY,10017
Japan Ministry Of Defense,630 3rd Ave,New York,NY,10017
Adkisson Wade,14 E 48th St,New York,NY,10017
Afghanistan Mission To Un,633 3rd Ave,New York,NY,10017
Metro Baptist Church,410 W 40th St,New York,NY,10018
Knesset Israel Garment,205 W 40th St,New York,NY,10018
St Malachy's Church,239 W 49th St,New York,NY,10019
St Thomas Church Fifth Avenue,1 W 53rd St,New York,NY,10019
Harvest Christian Fellowship,130 W 56th St,New York,NY,10019
Unity Center Practical,213 W 58th St,New York,NY,10019
Times Square Church,1657 Broadway,New York,NY,10019
Fifth Ave Presbyterian Church,7 W 55th St,New York,NY,10019
St John the Martyr Rectory,259 E 71st St,New York,NY,10021
St James' Episcopal Church,865 Madison Ave,New York,NY,10021
Manhattan Sephardic Cngrgtn,325 E 75th St,New York,NY,10021
Sephardic Services of 5th Ave,PO Box 92,New York,NY,10021
Temple Israel-City-Ny,112 E 75th St,New York,NY,10021
Holy Trinity Cathedral,337 E 74th St,New York,NY,10021
Madison Ave Presbyterian Chr,921 Madison Ave,New York,NY,10021
Central Synagogue,123 E 55th St,New York,NY,10022
East 55th Conservative Syngge,308 E 55th St,New York,NY,10022
Christ ,122 W 69th St,New York,NY,10023
Congregation Habonim,44 W 66th St,New York,NY,10023
Congregation Shearith Israel,8 W 70th St,New York,NY,10023
Stephen Wise Free Synagogue,30 W 68th St,New York,NY,10023
West Side Synagogue,120 W 76th St,New York,NY,10023
All Angels Church,251 W 80th St,New York,NY,10024
Congregation Rodeph Sholom,7 W 83rd St,New York,NY,10024
St Paul ,263 W 86th St,New York,NY,10024
Greek Orthodox-Annunciation,302 W 91st St,New York,NY,10024
Romanian Orthodox Church,50 W 89th St,New York,NY,10024
West Park Presbyterian Church,165 W 86th St,New York,NY,10024
Central Baptist Church of Ny,166 W 92nd St,New York,NY,10025
Southern Baptist Church,12 W 108th St,New York,NY,10025
Church of Notre Dame,405 W 114th St,New York,NY,10025
Diocese of Ny Cathedral,1047 Amsterdam Ave,New York,NY,10025
Congregation Ohab Zedek,118 W 95th St,New York,NY,10025
Korean Church ,633 W 115th St,New York,NY,10025
Manhattan Grace Tabernacle,"2929 Broadway, #5",New York,NY,10025
Broadway Presbyterian Church,601 W 114th St,New York,NY,10025
Pentecostal Church Of God,941 Columbus Ave,New York,NY,10025
Baptist Temple Church,20 W 116th St,New York,NY,10026
Canaan Baptist Church,"132 W 116th St, #1",New York,NY,10026
First Corinthian Baptist Chr,1912 7th Ave,New York,NY,10026
Mt Nebo Baptist Church,1883 7th Ave,New York,NY,10026
Second Canaan Baptist Church,10 Lenox Ave,New York,NY,10026
Salvation ,37 W 116th St,New York,NY,10026
Mt Olivet Baptist Church,201 Malcolm X Blvd,New York,NY,10027
Metropolitan Baptist Church,151 W 128th St,New York,NY,10027
African Orthodox Church,122 W 120th St,New York,NY,10027
Ephesus 7th Day Adventist Chr,101 W 123rd St,New York,NY,10027
Riverside Church,490 Riverside Dr,New York,NY,10027
Second Friendship Baptist Chr,215 W 122nd St,New York,NY,10027
Annunciation Rectory,88 Convent Ave,New York,NY,10027
Corpus Christi Catholic Church,529 W 121st St,New York,NY,10027
St Martin's Episcopal Church,230 Lenox Ave,New York,NY,10027
Salem United Methodist Church,2190 7th Ave,New York,NY,10027
Williams Institutional Cme,2225 7th Ave,New York,NY,10027
Bethelite Community Church,PO Box 2423,New York,NY,10027
Faith Mission Christian Church,160 W 129th St,New York,NY,10027
Manhattan Pentecostal Church,PO Box 1793,New York,NY,10027
Soul Saving Station Christ Inc,PO Box 200,New York,NY,10027
Ny Council Of Smaller Churches,69 W 128th St,New York,NY,10027
Lutheran Church Of Trnsfgrtn,74 W 126th St,New York,NY,10027
Antioch Church Of God,41 W 124th St,New York,NY,10027
Pilgrim Cathedral Of Harlem,15 W 126th St,New York,NY,10027
Prophetic Church Of God,130 W 129th St,New York,NY,10027
24 Hour A Convent Ave Locksmith,1 Convent Ave,New York,NY,10027
2933 Convent Avenue Hdfc,33 Convent Ave,New York,NY,10027
36 Convent Ave Hdfc Co-op,36 Convent Ave,New York,NY,10027
Park Avenue Christian Church,1010 Park Ave,New York,NY,10028
Park Avenue United Methodist,106 E 86th St,New York,NY,10028
Ny Province Of Society-jesus,39 E 83rd St,New York,NY,10028
Church of the Holy Agony,1834 3rd Ave,New York,NY,10029
Greater Highway Church-Christ,132 E 111th St,New York,NY,10029
Mt Calvary Baptist Church,231 W 142nd St,New York,NY,10030
Abyssinian Baptist Church,174 W 136th St,New York,NY,10030
St Philips Church,204 W 134th St,New York,NY,10030
Universal Temple of Spiritual,111 W 136th St,New York,NY,10030
Mother Ame Zion Church,"151 W 136th St, #7",New York,NY,10030
Mount Calvary Methodist Church,116 Edgecombe Ave,New York,NY,10030
Abyssinian Baptist Church Fcu,132 Odell Clark Pl,New York,NY,10030
Convent Ave Baptist Church,425 W 144th St,New York,NY,10031
Greater Tabernacle Baptist Chr,340 Convent Ave,New York,NY,10031
Mt Zion Lutheran Church,421 W 145th St,New York,NY,10031
Childs Memorial Temple Church,1763 Amsterdam Ave,New York,NY,10031
St James Presbyterian Church,409 W 141st St,New York,NY,10031
24 Seven Available Convent,470 Convent Ave,New York,NY,10031
Church of Our Lady-Esperanza,624 W 156th St,New York,NY,10032
Word's of Life Christian Ctr,PO Box 210,New York,NY,10032
Church of the Intercession,550 W 155th St,New York,NY,10032
Acym De Washington Heights,141 Audubon Ave,New York,NY,10032
New Convenant Holiness Church,512 W 157th St,New York,NY,10032
Congregation Church Of God,1889 Amsterdam Ave,New York,NY,10032
Congregacion De Mita of Ny,612 W 180th St,New York,NY,10033
Congregation K'Hal Adath Jshrn,PO Box 706,New York,NY,10033
Christ United Church,4140 Broadway,New York,NY,10033
Washington Hgts Hellenic Orth,120 Wadsworth Ave,New York,NY,10033
Pentecostal Church,281 Audubon Ave,New York,NY,10033
Collegiate Reformed Church,729 W 181st St,New York,NY,10033
Manhattan Bible Church,401 W 205th St,New York,NY,10034
Mount Moriah Baptist Church,2050 5th Ave,New York,NY,10035
All Saints Church,47 E 129th St,New York,NY,10035
Full Gospel Believers Chr Inc,PO Box 781,New York,NY,10035
Metropolitan Community Church,1975 Madison Ave,New York,NY,10035
Hosanna City Church Inc,2253 3rd Ave,New York,NY,10035
United Moravian Church,PO Box 90,New York,NY,10035
Bethel Gospel Assembly,226 E 120th St,New York,NY,10035
Greater Refuge Temple,PO Box 108,New York,NY,10035
Second Macedonian Chr Aog,"2329 2nd Ave, #119",New York,NY,10035
Holy Cross Rectory,329 W 42nd St,New York,NY,10036
St Mary the Virgin Church,145 W 46th St,New York,NY,10036
Muslim Center Of Manhattan,4 W 43rd St,New York,NY,10036
1120 Avenue Americas Associates,50 W 44th St,New York,NY,10036
Actors Temple Congrgtn Ezrath,339 W 47th St,New York,NY,10036
Kelly Temple Chr-God in Christ,10 E 130th St,New York,NY,10037
Union Congregational Church,PO Box 1110,New York,NY,10037
Mariners' Temple Baptist Chr,3 Henry St,New York,NY,10038
Agudah Women Of America,84 William St,New York,NY,10038
Harlem Tabernacle,PO Box 1184,New York,NY,10039
Rocky Mount Baptist Church,PO Box 643,New York,NY,10040
Congregation Mount Sinai,135 Bennett Ave,New York,NY,10040
St Francis Cabrini Church,555 Main St,New York,NY,10044
Redeemer Presbyterian Church,30 River Rd,New York,NY,10044
Our Lady of Peace,237 E 62nd St,New York,NY,10065
Temple Emanu-El,1 E 65th St,New York,NY,10065
Abata Russell,323 E 61st St,New York,NY,10065
St Monica's Church,413 E 79th St,New York,NY,10075
Manhattan Church of Christ,48 E 80th St,New York,NY,10075
German Lutheran St Paul's Chr,PO Box 1971,New York,NY,10113
Council Of Churches Of New York,475 Riverside Dr,New York,NY,10115
Church of St Thomas More,65 E 89th St,New York,NY,10128
Church of the Heavenly Rest,2 E 90th St,New York,NY,10128
Congregation or Zarua,"1384 Lexington Ave, #a",New York,NY,10128
Park Avenue Synagogue,50 E 87th St,New York,NY,10128
Brick Presbyterian Church,62 E 92nd St,New York,NY,10128
92Nd Street Y Buttenwieser,1395 Lexington Ave,New York,NY,10128
First Moravian Church,PO Box 1874,New York,NY,10156
St Stanislaus Kostka Church,109 York Ave,Staten Island,NY,10301
Church of Assumption,15 Webster Ave,Staten Island,NY,10301
St Paul's Church,145 Clinton Ave,Staten Island,NY,10301
St Peters Parish,53 Saint Marks Pl,Staten Island,NY,10301
Temple Israel Reform Congrgtn,315 Forest Ave,Staten Island,NY,10301
Mt Sinai United Christian Chr,199 Victory Blvd,Staten Island,NY,10301
Brighton Heights Reformed Chr,320 Saint Marks Pl,Staten Island,NY,10301
St Mary's of the Assumption,2230 Richmond Ter,Staten Island,NY,10302
St Roch's Church,602 Port Richmond Ave,Staten Island,NY,10302
Congregation Temple Emanuel,984 Post Ave,Staten Island,NY,10302
St Adalbert's Church,337 Morningstar Rd,Staten Island,NY,10303
St Clement ,207 Harbor Rd,Staten Island,NY,10303
Summerfield United Methodist,100 Harbor Rd,Staten Island,NY,10303
Our Lady of Good Counsel Chr,10 Austin Pl,Staten Island,NY,10304
St Ann's Rc Church,101 Cromwell Ave,Staten Island,NY,10304
St Pauls Memorial Church,225 Saint Pauls Ave,Staten Island,NY,10304
Christian Pentecostal Church,900 Richmond Rd,Staten Island,NY,10304
Our Lady Queen of Peace Church,90 3rd St,Staten Island,NY,10306
St Charles Catholic Church,200 Penn Ave,Staten Island,NY,10306
St Charles Rectory,644 Clawson St,Staten Island,NY,10306
St Christopher's Rc Church,130 Midland Ave,Staten Island,NY,10306
St Patrick's Parish Office,3560 Richmond Rd,Staten Island,NY,10306
Church of St Andrew,40 Old Mill Rd,Staten Island,NY,10306
New Dorp Moravian Church,2205 Richmond Rd,Staten Island,NY,10306
Bethel United Methodist Church,7033 Amboy Rd,Staten Island,NY,10307
Our Lady Help of Christians,7396 Amboy Rd,Staten Island,NY,10307
St Clare's Church,110 Nelson Ave,Staten Island,NY,10308
First Bible Church,6200 Amboy Rd,Staten Island,NY,10309
St Joseph St Thomas,6135 Amboy Rd,Staten Island,NY,10309
St Mark United Methodist Chr,6144 Amboy Rd,Staten Island,NY,10309
Akerman Avroham,58 Pleasant Plains Ave,Staten Island,NY,10309
Blessed Sacrament Church,30 Manor Rd,Staten Island,NY,10310
Our Lady of Mount Carmel,1265 Castleton Ave,Staten Island,NY,10310
Salem Evangelical Free Church,634 Clove Rd,Staten Island,NY,10310
Olivet Presbyterian Church,97 Myrtle Ave,Staten Island,NY,10310
St Alban's Episcopal Church,76 Saint Albans Pl,Staten Island,NY,10312
Holy Child Church Rectory,4747 Amboy Rd,Staten Island,NY,10312
Our Lady Star of the Sea,5371 Amboy Rd,Staten Island,NY,10312
Arden Heights Jewish Ctr,1766 Arthur Kill Rd,Staten Island,NY,10312
Eltingville Lutheran Church,300 Genesee Ave,Staten Island,NY,10312
New York Korean Evangelical,333 Arden Ave,Staten Island,NY,10312
Grace Christian Church,991 Woodrow Rd,Staten Island,NY,10312
Huguenot Reformed Church,5501 Amboy Rd,Staten Island,NY,10312
International Christian Ctr,1501 Richmond Ave,Staten Island,NY,10314
St Teresa's Church,1634 Victory Blvd,Staten Island,NY,10314
St Rita's Church,281 Bradley Ave,Staten Island,NY,10314
Holy Family Roman Catholic Chr,366 Watchogue Rd,Staten Island,NY,10314
Our Lady of Pity Church,1616 Richmond Ave,Staten Island,NY,10314
St Anthony of Padua Rc Church,24 Shelly Ave,Staten Island,NY,10314
Aur Torah Sephardic Minyan,1180 Rockland Ave,Staten Island,NY,10314
Marn-Baeksung Umc,1250 Rockland Ave,Staten Island,NY,10314
Castleton Hill Moravian Church,1657 Victory Blvd,Staten Island,NY,10314
Staten Island Chinese Crstn Ch,159 Schmidts Ln,Staten Island,NY,10314
Immanuel Union Church,693 Jewett Ave,Staten Island,NY,10314
Agudath Israel-staten Island,46 Birchard Ave,Staten Island,NY,10314
Greater Universal Baptist Chr,253 E 153rd St,Bronx,NY,10451
St Angela Merici Church,917 Morris Ave,Bronx,NY,10451
St Rita Shrine Church,448 College Ave,Bronx,NY,10451
Epworth Methodist Church,834 Concourse Vlg E,Bronx,NY,10451
Deeper Life Bible Church,213 E 144th St,Bronx,NY,10451
Adeniyi Patricia,773 Concourse Vlg E,Bronx,NY,10451
Church of God of Prophecy,85 E 165th St,Bronx,NY,10452
Friendly Baptist Day Care,1276 Nelson Ave,Bronx,NY,10452
Mount Hermon Baptist Church,1170 Nelson Ave,Bronx,NY,10452
Mt Cella Baptist Church,1480 Jesup Ave,Bronx,NY,10452
Joy Fellowship Church,PO Box 523185,Bronx,NY,10452
True Gospel Tabernacle,PO Box 652,Bronx,NY,10453
St Matthew's Ame Church,1788 Sedgwick Ave,Bronx,NY,10453
Ebenezer Assembly Of God,2151 Jerome Ave,Bronx,NY,10453
St Lukes Rc Church,623 E 138th St,Bronx,NY,10454
St Pius V Catholic Church,420 E 145th St,Bronx,NY,10454
St Peters in-the-Bronx,427 E 140th St,Bronx,NY,10454
Evangelica United Methodist,612 E 141st St,Bronx,NY,10454
Abundant Life Tabernacle,2692 3rd Ave,Bronx,NY,10454
Thessalonica Christian Church,313 Saint Anns Ave,Bronx,NY,10454
Transfiguration Lutheran Chr,763 Prospect Ave,Bronx,NY,10455
Bronx Spanish Evangelical Chr,PO Box 272,Bronx,NY,10455
Mt Sinai Baptist Church,1408 College Ave,Bronx,NY,10456
Goodwill Baptist Church,642 Crotona Park S,Bronx,NY,10456
St Augustine's Church,1183 Franklin Ave,Bronx,NY,10456
St Johns Evangelical Lutheran,1343 Fulton Ave,Bronx,NY,10456
Community Church of Morrisania,1325 Teller Ave,Bronx,NY,10456
Holy Tabernacle Church,3780 3rd Ave,Bronx,NY,10456
Bible Church Of Christ,1358 Morris Ave,Bronx,NY,10456
Kingdom Hall Of Jehovah's,959 Cauldwell Ave,Bronx,NY,10456
Abundantly Blessed Baptist,300 E 166th St,Bronx,NY,10456
Our Lady of Victory,1512 Webster Ave,Bronx,NY,10457
St Simon Stock Church,2191 Valentine Ave,Bronx,NY,10457
St Pauls Evangelical Lutheran,1984 Crotona Ave,Bronx,NY,10457
Tremont United Methodist Chrch,178 Washington Ave,Bronx,NY,10457
Mision Cristian El Calvario,422 E 176th St,Bronx,NY,10457
Bethel Prayer Ministries Intl,4262 3rd Ave,Bronx,NY,10457
Pentecostal Tabernacle,666 E 180th St,Bronx,NY,10457
2Nd Mission Cristiana Rehoboth,1919 Crotona Ave,Bronx,NY,10457
Our Lady of Refuge Religious,290 E 196th St,Bronx,NY,10458
Our Saviour's Church,2317 Washington Ave,Bronx,NY,10458
Fordham Methodist Church,2543 Marion Ave,Bronx,NY,10458
Korean Church of the Bronx,2943 Bainbridge Ave,Bronx,NY,10458
St Anthony of Padua Church,832 E 166th St,Bronx,NY,10459
Thessalonia Baptist Church,941 Rev James a Polite Ave,Bronx,NY,10459
Hispanic Catholic Charismatic,826 E 166th St,Bronx,NY,10459
St John Chrysostom's Rectory,985 E 167th St,Bronx,NY,10459
Accessorty Templo,966 Westchester Ave,Bronx,NY,10459
Agape Teaching Ministries,1136 Simpson St,Bronx,NY,10459
Gethsemane Baptist Church,PO Box 737,Bronx,NY,10460
Little Mount Bethel Church,PO Box 5004,Bronx,NY,10460
New Tabernacle Baptist Church,990 E 181st St,Bronx,NY,10460
St Anthony's Church-Rectory,1496 Commonwealth Ave,Bronx,NY,10460
Jehovah Shalom,1729 Boston Rd,Bronx,NY,10460
St Theresa Infant Jesus Church,2855 Saint Theresa Ave,Bronx,NY,10461
Westchester United Methodist,2547 E Tremont Ave,Bronx,NY,10461
Tremont Terrace Moravian Chr,1621 Pilgrim Ave,Bronx,NY,10461
Greek American Institute of Ny,3573 Bruckner Blvd,Bronx,NY,10461
Our Lady Of Assumption,1639 Parkview Ave,Bronx,NY,10461
1510 St Peters LLC,1510 Saint Peters Ave,Bronx,NY,10461
Parkchester Baptist Church,2021 Benedict Ave,Bronx,NY,10462
Church of Santa Maria,2352 St Raymonds Ave,Bronx,NY,10462
St Dominic's Church,1739 Unionport Rd,Bronx,NY,10462
Crossroads Tabernacle,1320 Castle Hill Ave,Bronx,NY,10462
Van Nest Assembly of God,755 Rhinelander Ave,Bronx,NY,10462
Church Lilly Of Valley,691 Rhinelander Ave,Bronx,NY,10462
Church of the Visitation,160 Van Cortlandt Park S,Bronx,NY,10463
Hebrew Institute at Riverdale,3700 Henry Hudson Pky E,Bronx,NY,10463
St Stephen's United Methodist,146 W 228th St,Bronx,NY,10463
St Mary Star of Sea Church,595 Minnieford Ave,Bronx,NY,10464
St Benedict's Church,2969 Otis Ave,Bronx,NY,10465
Crossway Christian Ctr,PO Box 505,Bronx,NY,10465
Wake-Eden Community Baptist,2074 Strang Ave,Bronx,NY,10466
Nativity of Our Blessed Lady,1531 E 233rd St,Bronx,NY,10466
St Frances of Rome Church,4307 Barnes Ave,Bronx,NY,10466
Butler Memorial Methodist Chr,3920 Paulding Ave,Bronx,NY,10466
Apostolic Church Intl USA,4065 White Plains Rd,Bronx,NY,10466
Olivet Gospel Assembly,3900 Dyre Ave,Bronx,NY,10466
Faithful Church Of Christ,4016 White Plains Rd,Bronx,NY,10466
Church Of Jesus Christ Worship,709 E 235th St,Bronx,NY,10466
Action Christian Center International,4395 Byron Ave,Bronx,NY,10466
Addy Sammy Rev,1203 E 224th St,Bronx,NY,10466
Emmanuel Baptist Church,PO Box 365,Bronx,NY,10467
St Brendan's Church,333 E 206th St,Bronx,NY,10467
Crawford Memorial Methodist,3751 White Plains Rd,Bronx,NY,10467
Haitian Congregation Of Good,661 E 219th St,Bronx,NY,10467
Action Inn Christ Church Of God,3677 White Plains Rd,Bronx,NY,10467
Creston Avenue Baptist Church,114 E 188th St,Bronx,NY,10468
Heavenly Vision Christian Ctr,2868 Jerome Ave,Bronx,NY,10468
Love Gospel Assembly,2315 Grand Concourse,Bronx,NY,10468
Fordham Manor Reformed Church,2705 Reservoir Ave,Bronx,NY,10468
Church of God,3232 Lurting Ave,Bronx,NY,10469
Emmanuel Seventh Day Chr,3301 Laconia Ave,Bronx,NY,10469
North Bronx Seventh Day Advnts,3743 Bronxwood Ave,Bronx,NY,10469
Burke Avenue Baptist Church,1280 Burke Ave,Bronx,NY,10469
Cathedral Baptist Church,3471 Boston Rd,Bronx,NY,10469
Fountain Spring Baptist Church,3039 Edson Ave,Bronx,NY,10469
St Philip ,1160 E 213th St,Bronx,NY,10469
Eastchester Road Church-God,3020 Eastchester Rd,Bronx,NY,10469
Eastchester Presbyterian Chr,3154 Fish Ave,Bronx,NY,10469
Bronx Church Of Christ,1277 Burke Ave,Bronx,NY,10469
Beulah Church Of God,986 E Gun Hill Rd,Bronx,NY,10469
Acs Adventist Cmm,3308 Edson Ave,Bronx,NY,10469
Agape Love Christian Center,1023 Allerton Ave,Bronx,NY,10469
Church of Good Shepherd,4401 Matilda Ave,Bronx,NY,10470
Wakefield Grace United Meth,4750 White Plains Rd,Bronx,NY,10470
Christ Alive Christian Ctr,PO Box 472,Bronx,NY,10470
St Margaret of Cortona Church,6000 Riverdale Ave,Bronx,NY,10471
Christ Church Riverdale,5030 Henry Hudson Pky E,Bronx,NY,10471
Riverdale Temple,4545 Independence Ave,Bronx,NY,10471
Riverdale Presbyterian Church,4765 Henry Hudson Pky W,Bronx,NY,10471
Chabad Lubavitch Of Riverdale,535 W 246th St,Bronx,NY,10471
Young Israel Of Riverdale,4502 Henry Hudson Pky,Bronx,NY,10471
Green Pastures Baptist Church,1115 Ward Ave,Bronx,NY,10472
Soundview Baptist Church,1272 Croes Ave,Bronx,NY,10472
Church of the Atonement,"1344 Beach Ave, #48",Bronx,NY,10472
Church of the Abiding Presence,1672 E 172nd St,Bronx,NY,10472
Mt Zion Cme Church,1148 Elder Ave,Bronx,NY,10472
Bronx Pentecostal Deliverance,PO Box 46,Bronx,NY,10472
Church of the Revelation,1164 White Plains Rd,Bronx,NY,10472
Harvest Fields Community Chr,PO Box 589,Bronx,NY,10472
Grace ,348 White Plains Rd,Bronx,NY,10473
St John Vianney,715 Castle Hill Ave,Bronx,NY,10473
El Amanecer De La Esperanza,PO Box 70,Bronx,NY,10473
Soundview Presbyterian Church,760 Sound View Ave,Bronx,NY,10473
Ardsley United Methodist,525 Ashford Ave,Ardsley,NY,10502
Hillside Church of Christian,448 Bedford Rd,Armonk,NY,10504
Congregation B'Nai Yisrael,PO Box 7,Armonk,NY,10504
Armonk Methodist Church,PO Box 184,Armonk,NY,10504
St Matthew's Episcopal Church,PO Box 293,Bedford,NY,10506
Bedford Presbyterian Church,PO Box 280,Bedford,NY,10506
Antioch Baptist Church,PO Box 232,Bedford Hills,NY,10507
Bedford Community Church,PO Box 429,Bedford,NY,10507
First Baptist Church-Brewster,21 Oak St,Brewster,NY,10509
St Lawrence O'Toole Church,31 Prospect St,Brewster,NY,10509
Temple Beth Elohim Putnam Cnty,1360 Route 22,Brewster,NY,10509
St Theresa's Church,1394 Pleasantville Rd,Briarcliff Manor,NY,10510
Congregation Sons-Israel,1666 Pleasantville Rd,Briarcliff Manor,NY,10510
Briarcliff Congregational Chr,PO Box 290,Briarcliff Manor,NY,10510
St Christopher's Catholic Chr,94 Albany Post Rd,Buchanan,NY,10511
Trinity Boscobel Methodist Chr,275 Church St,Buchanan,NY,10511
Drew United Methodist Church,PO Box 900,Carmel,NY,10512
Gilead Presbyterian Church,PO Box 74,Carmel,NY,10512
Temple Beth El,229 Bedford Rd,Chappaqua,NY,10514
Church of St John ,15 Saint Johns Pl,Chappaqua,NY,10514
Church of St Mary the Virgin,PO Box 380,Chappaqua,NY,10514
Our Lady of Loretto Church,24 Fair St,Cold Spring,NY,10516
St Augustine's Episcopal Chr,6 Old Post Rd N,Croton-on-Hudson,NY,10520
Holy Name of Mary Church,110 Grand St,Croton-on-Hudson,NY,10520
South Presbyterian Church,343 Broadway,Dobbs Ferry,NY,10522
Sacred Heart Church,18 Bellwood Ave,Dobbs Ferry,NY,10522
Greenburgh Hebrew Ctr,515 Broadway,Dobbs Ferry,NY,10522
Dobbs Ferry Lutheran Church,43 Ashford Ave,Dobbs Ferry,NY,10522
Aldersgate United Methodist Ch,600 Broadway,Dobbs Ferry,NY,10522
Aldersgate United Mthdst Chr,60 Seneca St,Dobbs Ferry,NY,10522
Our Lady of Mt Carmel Church,59 E Main St,Elmsford,NY,10523
Church of the Good Shepherd,PO Box A,Somers,NY,10527
Jewish Community Ctr,130 Union Ave,Harrison,NY,10528
Presbyterian Church-Harrison,PO Box 227,Harrison,NY,10528
Our Lady of Shkodra Church,361 W Hartsdale Ave,Hartsdale,NY,10530
Holy Rosary Catholic Church,170 Bradhurst Ave,Hawthorne,NY,10532
Hawthorne Reformed Church,65 Broadway,Hawthorne,NY,10532
Immaculate Conception Church,16 N Broadway,Irvington,NY,10533
St Barnabas Episcopal Church,15 N Broadway,Irvington,NY,10533
Irvington Presbyterian Church,25 N Broadway,Irvington,NY,10533
St Mary's Church,117 Valley Rd,Katonah,NY,10536
St Lukes Episcopal Church,PO Box 602,Katonah,NY,10536
Katonah United Methodist Chr,7 Bedford Rd,Katonah,NY,10536
Affirmation Presbyterian Church In America,137 Route 100,Katonah,NY,10536
St John ,280 Weaver St,Larchmont,NY,10538
Larchmont Temple,75 Larchmont Ave,Larchmont,NY,10538
Larchmont Avenue Presby Church,60 Forest Pk Ave,Larchmont,NY,10538
Holy Trinity Church,320 E Boston Post Rd,Mamaroneck,NY,10543
St Vito's Church,816 Underhill Ave,Mamaroneck,NY,10543
Saint John's Lutheran Church,122 Fenimore Rd,Mamaroneck,NY,10543
Mamaroneck United Methodist,546 E Boston Post Rd,Mamaroneck,NY,10543
Strait Gate Church,PO Box 748,Mamaroneck,NY,10543
Lutheran Church-Resurrection,15 S Bedford Rd,Mt Kisco,NY,10549
Temple Shaaray Tefila,89 Baldwin Rd,Mt Kisco,NY,10549
Presbyterian Church,PO Box 429,Mt Kisco,NY,10549
St Marks Episcopal Church,85 E Main St,Mt Kisco,NY,10549
Bet Torah Synagogue,60 Smith Ave,Mt Kisco,NY,10549
Church Of God Of Prophecy,140 E 3rd St,Mt Vernon,NY,10550
Greater Centennial Ame Zion,312 S 8th Ave,Mt Vernon,NY,10550
Bible Church of Christ,100 W 2nd St,Mt Vernon,NY,10550
Living Faith Ministries,195 W 1st St,Mt Vernon,NY,10550
Allen Memorial Church of God,132 Crary Ave,Mt Vernon,NY,10550
Abyssinia Free Will Baptist,66 E 5th St,Mt Vernon,NY,10550
Friendship Unified Free Will,261 E Lincoln Ave,Mt Vernon,NY,10552
New York City Church of Christ,324 Westchester Ave,Mt Vernon,NY,10552
Sinai Free Synagogue,550 N Columbus Ave,Mt Vernon,NY,10552
White Rock Baptist Church,PO Box 3610,Mt Vernon,NY,10553
3Rd St Church Of Christ,296 E 3rd St,Mt Vernon,NY,10553
Star of Bethlehem Baptist Chr,304 Spring St,Ossining,NY,10562
St Ann's Catholic Church,25 Eastern Ave,Ossining,NY,10562
St Paul's On-the-Hill Epscpl,40 Ganung Dr,Ossining,NY,10562
St Matthews United Methodist,36 Ann St,Ossining,NY,10562
Church of the Holy Spirit,1969 Crompond Rd,Cortlandt Manor,NY,10567
North American Martyrs Chapel,122 Oregon Rd,Cortlandt Manor,NY,10567
Vineyard Christian Fellowship,901 Bedford Rd,Pleasantville,NY,10570
Holy Innocents Church,431 Bedford Rd,Pleasantville,NY,10570
Emanuel Lutheran Church,197 Manville Rd,Pleasantville,NY,10570
Pleasantville Presbyterian Chr,400 Bedford Rd,Pleasantville,NY,10570
Our Lady of Mercy,PO Box 488,Port Chester,NY,10573
Our Lady Of Mercy,260 Westchester Ave,Port Chester,NY,10573
Congregation Kneses Tifereth,575 King St,Port Chester,NY,10573
Parkside Assembly Of God,7 Hewlett Pl,Port Chester,NY,10573
Pound Ridge Community Church,3 Pound Ridge Rd,Pound Ridge,NY,10576
Grace United Methodist Church,337 Peekskill Hollow Rd,Putnam Valley,NY,10579
Resurrection Church Rectory,910 Boston Post Rd,Rye,NY,10580
Christ's Church-Rye,2 Rectory St,Rye,NY,10580
Congregation Emanu-El,2125 Westchester Ave,Rye,NY,10580
Trinity Presbyterian,"150 Theodore Fremd Ave, #a-14",Rye,NY,10580
Immaculate Heart of Mary Chr,8 Carman Rd,Scarsdale,NY,10583
Saint Pius X Church,Secor Rd,Scarsdale,NY,10583
Church of St James the Less,10 Church Ln,Scarsdale,NY,10583
Scarsdale Synagogue-Tremont,2 Ogden Rd,Scarsdale,NY,10583
Westchester Reform Temple,255 Mamaroneck Rd,Scarsdale,NY,10583
Hitchcock Presbyterian Church,6 Greenacres Ave,Scarsdale,NY,10583
Scarsdale Congregational Chr,1 Heathcote Rd,Scarsdale,NY,10583
St Elizabeth Ann Seton Parish,1377 E Main St,Shrub Oak,NY,10588
Shrub Oak United Methodist Chr,1176 E Main St,Shrub Oak,NY,10588
Jewish Family Congregation,PO Box 249,South Salem,NY,10590
South Salem Presbyterian Chr,PO Box 399,South Salem,NY,10590
Temple Beth Abraham,25 Leroy Ave,Tarrytown,NY,10591
St Teresa's Church Rectory,130 Beekman Ave,Sleepy Hollow,NY,10591
Korean Church of Westchester,242 N Broadway,Sleepy Hollow,NY,10591
First Korean Methodist Church,500 S Broadway,Tarrytown,NY,10591
Valhalla United Meth Chr Nrsry,200 Columbus Ave,Valhalla,NY,10595
Saint Patrick's Catholic Chr,PO Box 609,Verplanck,NY,10596
Grace Lutheran Church,3830 Gomer St,Yorktown Heights,NY,10598
Assembly of God Church,253 Mahopac Ave,Yorktown Heights,NY,10598
Yorktown Jewish Ctr,2966 Crompond Rd,Yorktown Heights,NY,10598
St Andrews Evangelical Church,PO Box 334,Yorktown Heights,NY,10598
Yorktown United Methodist Chr,2300 Crompond Rd,Yorktown Heights,NY,10598
Saint John's Rectory,148 Hamilton Ave,White Plains,NY,10601
Presbyterian Church-White Plns,39 N Broadway,White Plains,NY,10601
Christ's Temple,25 Oak St,White Plains,NY,10603
Mt Hope Ame Zion Church,65 Lake St,White Plains,NY,10604
Ridgeway Alliance Church,465 Ridgeway,White Plains,NY,10605
Saint Matthews Lutheran Church,3 Carhart Ave,White Plains,NY,10605
Memorial United Methodist Chr,250 Bryant Ave,White Plains,NY,10605
Church in the Highlands,35 Bryant Ave,White Plains,NY,10605
Agne Joe Rev,34 Prescott Ave,White Plains,NY,10605
St Bernard's Church,51 Prospect St,White Plains,NY,10606
Bet AM Shalom Synagogue,295 Soundview Ave,White Plains,NY,10606
Congregation Kolami,252 Soundview Ave,White Plains,NY,10606
Ridgeview Congregational Chr,12 Ridgeview Ave,White Plains,NY,10606
Union Baptist Church,31 Manhattan Ave,White Plains,NY,10607
First Seventh Day Adventist,180 Juniper Hill Rd,White Plains,NY,10607
Woodlands Community Temple,50 Worthington Rd,White Plains,NY,10607
St Bartholomew's Church,15 Palmer Rd,Yonkers,NY,10701
Community Memorial Baptist Chr,132 Waverly St,Yonkers,NY,10701
Our Lady of the Rosary Church,226 Warburton Ave,Yonkers,NY,10701
St Casimir's Catholic Church,239 Nepperhan Ave,Yonkers,NY,10701
Cavalry Chapel of Westchester,PO Box 336,Yonkers,NY,10701
Saint Nicholas Byzantine Chr,75 Ash St,Yonkers,NY,10701
St Marys Carpatho-Russian Chr,485 N Broadway,Yonkers,NY,10701
Yonkers Christian Assembly,229 N Broadway,Yonkers,NY,10701
Yonkers Church of God Inc,21 Hudson St,Yonkers,NY,10701
Bryn Mawr Park Presby Church,20 Buckingham Rd,Yonkers,NY,10701
Aldersgate United Methodist Church,600 N Broadway,Yonkers,NY,10701
First Westminster Church,60 Northview Ter,Yonkers,NY,10703
St John the Baptist Catholic,670 Yonkers Ave,Yonkers,NY,10704
St Marks Evangelical Lutheran,7 Saint Marks Pl,Yonkers,NY,10704
Abundant Life Christian Center,306 Rumsey Rd,Yonkers,NY,10705
St Paul the Apostle Catholic,602 McLean Ave,Yonkers,NY,10705
St Peter's Church,91 Ludlow St,Yonkers,NY,10705
Indian Assembly Of God,204 McLean Ave,Yonkers,NY,10705
Adonai Pentecostal Church,251 S Broadway,Yonkers,NY,10705
St Matthews Rc Church,616 Warburton Ave,Hastings-on-Hudson,NY,10706
Temple Beth Shalom,740 N Broadway,Hastings-on-Hudson,NY,10706
Chinese Community Church,18 Farragut Ave,Hastings-on-Hudson,NY,10706
Asbury Crestwood United Meth,167 Scarsdale Rd,Tuckahoe,NY,10707
Christ Church,17 Sagamore Rd,Bronxville,NY,10708
Atlantic District Lutheran Chr,171 White Plains Rd,Bronxville,NY,10708
Village Lutheran Church,172 White Plains Rd,Bronxville,NY,10708
Bronxville Reformed Church,PO Box 397,Bronxville,NY,10708
St Eugene's Rectory,32 Massitoa Rd,Yonkers,NY,10710
Midchester Jewish Ctr,236 Grandview Blvd,Yonkers,NY,10710
New Hope Reformed Church,100 Herrmann Pl,Yonkers,NY,10710
Holy Name Church,75 Lispenard Ave,New Rochelle,NY,10801
St Gabriel's Church,120 Division St,New Rochelle,NY,10801
Bethesda Baptist Church,51 Lincoln Ave,New Rochelle,NY,10801
St Catherine Ame Zion Church,19 Lincoln Ave,New Rochelle,NY,10801
Assembly of God New Rochelle,165 Union Ave,New Rochelle,NY,10801
Parish of Christ the Redeemer,1415 Pelhamdale Ave,Pelham,NY,10803
Pelham Jewish Ctr,451 Esplanade,Pelham,NY,10803
Huguenot Memorial Church,901 Pelhamdale Ave,Pelham,NY,10803
Conregation Anshe Sholom,50 North Ave,New Rochelle,NY,10805
Reform Temple of Suffern,70 Old Haverstraw Rd,Suffern,NY,10901
Christ Evangelical Lutheran,3 Church Rd,Suffern,NY,10901
Suffern Presbyterian Church,81 Washington Ave,Suffern,NY,10901
St Paul's Roman Catholic Chr,PO Box 222,Bullville,NY,10915
Central Valley United Meth,PO Box 248,CENTRAL VLY,NY,10917
St Columba Church,29 High St,Chester,NY,10918
Greater Tabernacle Full Gospel,74 Main St,Chester,NY,10918
St Paul's Catholic Church,82 Lake Rd E,Congers,NY,10920
St Joseph's Roman Catholic Chr,14 Glenmere Ave,Florida,NY,10921
Church of Jesus Christ of Lds,8 Breezeway Ln,Goshen,NY,10924
Goshen United Methodist Church,115 Main St,Goshen,NY,10924
Goshen Christian Reformed Chr,41 Route 17a,Goshen,NY,10924
Holy Rosary Church,41 Windermere Ave,Greenwood Lake,NY,10925
St Anastasia Church,PO Box 942,Harriman,NY,10926
Harriman United Methodist Chr,PO Box 8,Harriman,NY,10926
St Peters Church,PO Box 90,Haverstraw,NY,10927
Haverstraw Gospel Fellowship,14 Main St,Haverstraw,NY,10927
Harvest Assembly Of God,4 Lincoln St,Haverstraw,NY,10927
St Patrick's Rc Church,26 Hunter St,Highland Mills,NY,10930
Temple Sinai,75 Highland Ave,Middletown,NY,10940
Mt Carmel Priory,PO Box 883,Middletown,NY,10940
Our Lady of Mount Carmel Ch,205 Wawayanda Ave,Middletown,NY,10940
Stjo,149 Cottage St,Middletown,NY,10940
Grace Episcopal Church Parish,12 Depot St,Middletown,NY,10940
St Pauls United Methodist Chr,58 W Main St,Middletown,NY,10940
Christian Faith Fellowship,10 E Main St,Middletown,NY,10940
Webb Horton Presbyterian Chr,50 E Main St,Middletown,NY,10940
Middletown Church Of Christ,Route 211 E,Middletown,NY,10940
Abel Michael Ministries Of New York,22 Gavin Ave,Middletown,NY,10940
Agape Love Multipurpose Center,26 Monhagen Ave,Middletown,NY,10940
Harmony Baptist Church,1780 Route 211 E,Middletown,NY,10941
Holy Cross Greek Orthodox Chr,2250 Goshen Tpke,Middletown,NY,10941
Trinity Assembly Of God,160 Blumel Rd,Middletown,NY,10941
Agape Love Prayer Tabernacle,73 Ohaire Rd,Middletown,NY,10941
Calvary Assembly Of God,1118 RT-17M,Monroe,NY,10950
Monroe Temple of Judaism,314 N Main St,Monroe,NY,10950
Monroe United Methodist Church,47 Maple Ave,Monroe,NY,10950
Monsey Jewish Ctr Inc,"201 Route 306, #2",Monsey,NY,10952
Abraham Cvi Dov,21 Rita Ave,Monsey,NY,10952
Abraham Moishe,2 Rita Ave,Monsey,NY,10952
Abrahamson Chaim,3 Valencia Dr,Monsey,NY,10952
Adler Ira,12 Wallenberg Cir,Monsey,NY,10952
22 Normandy Vlg,22 Normandy Vlg,Nanuet,NY,10954
Temple Beth Sholom,228 New Hempstead Rd,New City,NY,10956
St Augustine's Church Rectory,140 Maple Ave,New City,NY,10956
St Pauls Lutheran Church,323 S Main St,New City,NY,10956
New City Gospel Fellowship,384 New Hempstead Rd,New City,NY,10956
Germonds Presbyterian Church,39 Germonds Rd,New City,NY,10956
New Hempstead Presby Church,484 New Hempstead Rd,New City,NY,10956
Pilgrim Baptist Church,80 N Franklin St,Nyack,NY,10960
Temple Beth Torah,330 N Highland Ave,Nyack,NY,10960
Simpson Memorial Church,150 Piermont Ave,Nyack,NY,10960
Congregation Sons of Israel,300 N Broadway,Nyack,NY,10960
St Thomas' Lutheran Church,2 Old Ox Rd,Nyack,NY,10960
Reformed Church Of Nyack,18 S Broadway,Nyack,NY,10960
Orangetown Jewish Ctr,8 Independence Ave,Orangeburg,NY,10962
Holy Name of Jesus Church,PO Box 597,Otisville,NY,10963
Otisville-Mt Hope Presbyterian,25 Main St,Otisville,NY,10963
St Aedan's Church,23 Reld Dr,Pearl River,NY,10965
Beth AM Temple,PO Box 1200,Pearl River,NY,10965
Africa Inland Mission,135 W Crooked Hill Rd,Pearl River,NY,10965
Macedonia Baptist Church,405 Piermont Ave,Piermont,NY,10968
Reformed Church Of Piermont,361 Ferdon Ave,Piermont,NY,10968
St Joan of Arc Church,32 Eagle Valley Rd,Sloatsburg,NY,10974
Congregation Sons Of Israel,80 Williams Ave,Spring Valley,NY,10977
Grace Assembly Of God,19 N Madison Ave,Spring Valley,NY,10977
First Bapt Church,PO Box 404,Spring Valley,NY,10977
St Paul's Ame Zion Church,121 Harriet Tubman Way,Spring Valley,NY,10977
Faith Temple,9 Rose Ave,Spring Valley,NY,10977
Adonai Christian Church,28 Grove St,Spring Valley,NY,10977
Aish Tamid Community Service,295 W RT-59,Spring Valley,NY,10977
Trinity United Methodist Chr,47 E Main St,Stony Point,NY,10980
Stony Point Presbyterian Chr,125 W Main St,Stony Point,NY,10980
Seed Church Of God,146 S Liberty Dr,Stony Point,NY,10980
St Mary's Episcopal Church,PO Box 637,Tuxedo Park,NY,10987
Christ Episcopal Church,50 South St,Warwick,NY,10990
Reformed Church,16 Maple Ave,Warwick,NY,10990
Lutheran Church-Good Shepherd,PO Box 218,Warwick,NY,10990
Warwick United Methodist Chr,135 Forester Ave,Warwick,NY,10990
Adams Craig Rev,9 Chancellor Ln,Warwick,NY,10990
Grace Community Baptist Church,2839 RT-94,Washingtonville,NY,10992
Our Lady of Victory Church,2 Floral Pky,Floral Park,NY,11001
Holy Child Jesus Church,255-01 86th Ave,Queens,NY,11001
St Hedwig's Rc Church,1 Depan Ave,Floral Park,NY,11001
Christ Assembly Of God,120 Floral Pky,Floral Park,NY,11001
Advent Lutheran Church,1840 Atherton Ave,Elmont,NY,11003
St Boniface Roman Catholic Chr,631 Elmont Rd,Elmont,NY,11003
St Vincent De Paul,1500 Depaul St,Elmont,NY,11003
Salem Assembly Of God,111 Waldorf Ave,Elmont,NY,11003
Bellerose Jewish Ctr,25404 Union Tpke,Floral Park,NY,11004
Ascension Lutheran Church,145 Franklin Ave,Franklin Square,NY,11010
St Catherine of Sienna Rc Chr,999 Lutz St,Franklin Square,NY,11010
St James the Just,858 Roosevelt St,Franklin Square,NY,11010
Lake Success Jewish Ctr,354 Lakeville Rd,Great Neck,NY,11020
Shaare Zion of Great Neck,225 Middle Neck Rd,Great Neck,NY,11021
Temple Isaiah of Great Neck,"2 Stoner Ave, #a",Great Neck,NY,11021
Young Israel of Great Neck,236 Middle Neck Rd,Great Neck,NY,11021
Great Neck Korean Catholic Chr,592 Middle Neck Rd,Great Neck,NY,11023
Brotherhood of Temple Beth El,5 Old Mill Rd,Great Neck,NY,11023
Great Neck Synagogue,26 Old Mill Rd,Great Neck,NY,11023
Chabad Lubavitch of Great Neck,400 E Shore Rd,Great Neck,NY,11024
Temple Emanuel of Great Neck,150 Hicks Ln,Great Neck,NY,11024
United Mashadi Jewish,54 Steamboat Rd,Great Neck,NY,11024
Community Reformed Church,90 Plandome Rd,Manhasset,NY,11030
Mt Olive Baptist Church,43 High St,Manhasset,NY,11030
Reconstructionist Synagogue,1001 Plandome Rd,Manhasset,NY,11030
Temple Judea of Manhasset,333 Searingtown Rd,Manhasset,NY,11030
Church of Our Saviour Lutheran,1901 Northern Blvd,Manhasset,NY,11030
St Catherine of Sienna Church,33 New Hyde Park Rd,New Hyde Park,NY,11040
New Hyde Park Baptist Church,635 New Hyde Park Rd,New Hyde Park,NY,11040
Notre Dame Rc Church Rectory,45 Mayfair Rd,New Hyde Park,NY,11040
Temple Emanuel,3315 Hillside Ave,New Hyde Park,NY,11040
Albert C Martin,33 Cherrywood Dr,New Hyde Park,NY,11040
Lutheran Church of Our Savior,12 Franklin Ave,Port Washington,NY,11050
Our Lady of Fatima Rc Church,6 Cottonwood Rd,Port Washington,NY,11050
St Peter of Alcantara,1327 Port Washington Blvd,Port Washington,NY,11050
Chabad of Port Washington,80 Shore Rd,Port Washington,NY,11050
Community Synagogue,150 Middle Neck Rd,Port Washington,NY,11050
Port Washington United Meth Ch,12 Hampton Rd,Port Washington,NY,11050
Assembly of God,10 Carlton Ave,Port Washington,NY,11050
1St Church Of Christ Scientist,402 Main St,Port Washington,NY,11050
Our Lady of Good Counsel,68 Wanser Ave,Inwood,NY,11096
First Baptist Church-Lawrence,253 Lawrence Ave,Inwood,NY,11096
St Mary's Rc Church,1008 49th Ave,Long Island City,NY,11101
Korean Central Church of Ny,34-01 41st St,Long Island City,NY,11101
New York Presbyterian Church,4323 37th Ave,Long Island City,NY,11101
Redeemer Episcopal Church,3014 Crescent St S,Queens,NY,11102
United Methodist Korean Church,3044 Crescent St S,Astoria,NY,11102
St Joseph's Rc Church,PO Box 039007,LONG ISLAND CITY,NY,11103
Nak Won Reformed Church,4120 Queens Blvd,Queens,NY,11104
Queen of Angels Rc Church,4404 Skillman Ave,Long Island City,NY,11104
St Francis of Assisi Rectory,2117 45th St,Queens,NY,11105
Peniel Baptist Church,19-54 38th St,Queens,NY,11105
St Irene'S-Chrysovalantou Grk,3607 23rd Ave,Astoria,NY,11105
Holy Cross Ukrainian Church,3112 30th St,Queens,NY,11106
St Rita's Roman Catholic Chr,3625 11th St,Long Island City,NY,11106
Community Church of Astoria,1442 Broadway,Long Island City,NY,11106
Alamin Jame M,35-19 36th Ave,Astoria,NY,11106
First Spanish Baptist Church,305 Pacific St,Brooklyn,NY,11201
Diocesan Cursillos Ctr,118 Congress St,Brooklyn,NY,11201
St Boniface Church,111 Willoughby St,Brooklyn,NY,11201
Grace Church Brooklyn Heights,254 Hicks St,Brooklyn,NY,11201
St Ann ,157 Montague St,Brooklyn,NY,11201
Brooklyn Heights Synagogue,131 Remsen St,Brooklyn,NY,11201
Congregation Mt Sinai,250 Cadman Plz W,Brooklyn,NY,11201
Danish Seaman's Church,102 Willow St,Brooklyn,NY,11201
Church of the Open Door,201 Gold St,Brooklyn,NY,11201
Saint Constantine ,64 Schermerhorn St,Brooklyn,NY,11201
Plymouth Church of Pilgrims,75 Hicks St,Brooklyn,NY,11201
St Catherine-Genoa Church,520 Linden Blvd,Brooklyn,NY,11203
Clarendon Road Church,3304 Clarendon Rd,Brooklyn,NY,11203
Bethel of Praise Ministries,631 New York Ave,Brooklyn,NY,11203
Morning Star Church of Christ,5205 Foster Ave,Brooklyn,NY,11203
Truth Center-Higher Conscious,4622 Farragut Rd,Brooklyn,NY,11203
Rehoboth Open Bible Church,5102 Avenue D,Brooklyn,NY,11203
Triumphant Full Gospel Asmbly,892 Rutland Rd,Brooklyn,NY,11203
Celestial Church Of Christ,937 E 51st St,Brooklyn,NY,11203
Grace Church Of Firstborn,909 Utica Ave,Brooklyn,NY,11203
St Therese Of Lisieux,1281 Troy Ave,Brooklyn,NY,11203
God's Battalion Of Prayer,661 Linden Blvd,Brooklyn,NY,11203
Abundant Life Agency,4912 Church Ave,Brooklyn,NY,11203
Holy Spirit Catholic Church,1712 45th St,Brooklyn,NY,11204
St Athanasius Church,2154 61st St,Brooklyn,NY,11204
St Dominic Rc Church,2001 Bay Ridge Pky,Brooklyn,NY,11204
House of Prayer,PO Box 40408,Brooklyn,NY,11204
Bnos Zion Of Bobov,5815 20th Ave,Brooklyn,NY,11204
Abramovitz Joseph,1846 49th St,Brooklyn,NY,11204
Ackerman D,1676 42nd St,Brooklyn,NY,11204
Adler Usher,1651 60th St,Brooklyn,NY,11204
Zion Shiloh Baptist Church,188 Clermont Ave,Brooklyn,NY,11205
Ss Lucy ,285 Willoughby Ave,Brooklyn,NY,11205
St Michael ,108 Saint Edwards St,Brooklyn,NY,11205
Powerful Praise Tabernacle,"708 Myrtle Ave, #710",Brooklyn,NY,11205
Institutional Church of God,170 Adelphi St,Brooklyn,NY,11205
Trinity Apostolic Church,969 Bedford Ave,Brooklyn,NY,11205
Aice J,549 Lafayette Ave,Brooklyn,NY,11205
Solid Rock Baptist Church,120 Tompkins Ave,Brooklyn,NY,11206
All Saints Catholic Church,115 Throop Ave,Brooklyn,NY,11206
Most Holy Trinity Church,138 Montrose Ave,Brooklyn,NY,11206
Our Lady of the Rosary-Pompei,225 Seigel St,Brooklyn,NY,11206
Church of God Holiness,904 Myrtle Ave,Brooklyn,NY,11206
St Lawrence Church,1020 Van Siclen Ave,Brooklyn,NY,11207
Bethlehem Baptist Church,1962 Linden Blvd,Brooklyn,NY,11207
Calvary Free Will Baptist Chr,1520 Herkimer St,Brooklyn,NY,11207
Mt Moriaher Baptist Church,341 Pennsylvania Ave,Brooklyn,NY,11207
New Grace Ctr Inc,650 Livonia Ave,Brooklyn,NY,11207
Pilgrim Baptist Cathedral,628 Central Ave,Brooklyn,NY,11207
Wayside Baptist Church,1746 Broadway,Brooklyn,NY,11207
St John Cantius Rc Church,479 New Jersey Ave,Brooklyn,NY,11207
Word of Faith Christian Ctr,578 Van Siclen Ave,Brooklyn,NY,11207
Love Fellowship Tabernacle,464 Liberty Ave,Brooklyn,NY,11207
St Paul's Tabernacle,2239 Pitkin Ave,Brooklyn,NY,11207
New Lots Reformed Church,653 Schenck Ave,Brooklyn,NY,11207
Lutheran Church Of Reformation,105 Barbey St,Brooklyn,NY,11207
Agape Sabbath Day Adventist,92 Eldert St,Brooklyn,NY,11207
Dunamis Sva,461 Montauk Ave,Brooklyn,NY,11208
Bethelite Instl Baptist Church,447 Elton St,Brooklyn,NY,11208
St Rita's Roman Catholic,275 Shepherd Ave,Brooklyn,NY,11208
St Sylvester's Rc Church,416 Grant Ave,Brooklyn,NY,11208
New Jerusalem Holy Church,2635 Pitkin Ave,Brooklyn,NY,11208
St Peter's Evangelical Luthern,105 Highland Pl,Brooklyn,NY,11208
Andrews United Methodist Ch,95 Richmond St,Brooklyn,NY,11208
Christ the Rock Intl,770 Glenmore Ave,Brooklyn,NY,11208
Celestial Church of Christ,310 Elton St,Brooklyn,NY,11208
Presbyterian Church-Redeemer,435 Etna St,Brooklyn,NY,11208
9Th Tabernacle,85 Fountain Ave,Brooklyn,NY,11208
Our Lady of Angels Church,7320 4th Ave,Brooklyn,NY,11209
Our Saviours Lutheran Church,414 80th St,Brooklyn,NY,11209
Bay Ridge United Methodist Chr,362 Ovington Ave,Brooklyn,NY,11209
St Mary's Orthodox Church,8005 Ridge Blvd,Brooklyn,NY,11209
St Nicholas Antiochian,PO Box 90147,Brooklyn,NY,11209
Al Imam Al Bukhary Islamic,6915 4th Ave,Brooklyn,NY,11209
St Vincent Ferrer Church,1603 Brooklyn Ave,Brooklyn,NY,11210
Flatlands Church of Christ,PO Box 100808,Brooklyn,NY,11210
Agudath Israel of East Midwood,3120 Bedford Ave,Brooklyn,NY,11210
Kings Highway United Methodist,1387 E 37th St,Brooklyn,NY,11210
Vanderveer Park United Meth,3114 Glenwood Rd,Brooklyn,NY,11210
Evangelical Crusade Of Fishers,1488 New York Ave,Brooklyn,NY,11210
Emmanuel Church Of God,1365 Flatbush Ave,Brooklyn,NY,11210
Abramczyk E,2617 Avenue K,Brooklyn,NY,11210
Agudath Israel Of Midwood,2913 Avenue L,Brooklyn,NY,11210
Annunciation Catholic Church,275 N 8th St,Brooklyn,NY,11211
St Francis of Paola Church,219 Conselyea St,Brooklyn,NY,11211
Transfiguration Roman Catholic,263 Marcy Ave,Brooklyn,NY,11211
Congregation Adas Yereim,27 Lee Ave,Brooklyn,NY,11211
Congregation Beir,119 Rutledge St,Brooklyn,NY,11211
Congregation Yetev Lev,141 Keap St,Brooklyn,NY,11211
Churches United,247 Hewes St,Brooklyn,NY,11211
Prophecy Church Of God,414 Hooper St,Brooklyn,NY,11211
7Th Day Adventist Beth Church,457 Grand St,Brooklyn,NY,11211
Abraham C,115 Hewes St,Brooklyn,NY,11211
Ackerman Chaim,80 Ross St,Brooklyn,NY,11211
Adler Jacob,70 Clymer St,Brooklyn,NY,11211
Adler Joshua,51 Ross St,Brooklyn,NY,11211
Brownsville Baptist Church,600 Mother Gaston Blvd,Brooklyn,NY,11212
Little Rock Baptist Church,375 Bristol St,Brooklyn,NY,11212
Macedonia Missionary Baptist,770 Howard Ave,Brooklyn,NY,11212
Pilgrim Church of Brownsville,572 Rockaway Ave,Brooklyn,NY,11212
Church of God of East Flatbush,409 E 95th St,Brooklyn,NY,11212
Clarkson Avenue Church of God,1087 Clarkson Ave,Brooklyn,NY,11212
Miracle Temple Ministries,576 Bristol St,Brooklyn,NY,11212
Open Door Church-God in Christ,PO Box 579,Brooklyn,NY,11212
Pentecostal Circle Tabernacle,80 E 95th St,Brooklyn,NY,11212
Brownsville Church Of God,919 Saratoga Ave,Brooklyn,NY,11212
2Nd Saint John Missionary,1091 Winthrop St,Brooklyn,NY,11212
Church of God in Christ,137 Buffalo Ave,Brooklyn,NY,11213
Greater Mt Pleasant Baptist,887 Saint Marks Ave,Brooklyn,NY,11213
Our Lady of Charity Church,1669 Dean St,Brooklyn,NY,11213
St Matthew's Rc Church,1123 Eastern Pky,Brooklyn,NY,11213
Bibleway Churches of Our Lord,251 Rochester Ave,Brooklyn,NY,11213
Bedford Zion Nazarene Church,"35 Hampton Pl, #a",Brooklyn,NY,11213
Beulah Church of the Nazarene,PO Box 130153,Brooklyn,NY,11213
Bethany Methodist Church,1208 Saint Johns Pl,Brooklyn,NY,11213
Miracle Church Of Christ,1487 Saint Johns Pl,Brooklyn,NY,11213
Abramowitz Leonard,1520 President St,Brooklyn,NY,11213
Agudas Chasidei Chabad,788 Eastern Pky,Brooklyn,NY,11213
St Finbars Roman Catholic,138 Bay 20th St,Brooklyn,NY,11214
St Mary Mother of Jesus Chr,2326 84th St,Brooklyn,NY,11214
Temple Beth Ahavath Sholom,2166 Benson Ave,Brooklyn,NY,11214
Mikvah Israel Of Bensonhurst,48 Bay 28th St,Brooklyn,NY,11214
Albadr Islamic Center,2230 Bath Ave,Brooklyn,NY,11214
Holy Family Rc Church,205 14th St,Brooklyn,NY,11215
St Francis Xavier Rectory,225 6th Ave,Brooklyn,NY,11215
St John the Evangelist Chr,250 21st St,Brooklyn,NY,11215
St Saviour Church,611 8th Ave,Brooklyn,NY,11215
St Thomas Aquinas Church,249 9th St,Brooklyn,NY,11215
Park Slope Jewish Ctr,1320 8th Ave,Brooklyn,NY,11215
Latvian Evangelical Lutheran,564 2nd St,Brooklyn,NY,11215
St John-St Matthew Lutheran,283 Prospect Ave,Brooklyn,NY,11215
Park Slope Christian Ctr,269 Prospect Park W,Brooklyn,NY,11215
Kimisis Theotokou Church,224 18th St,Brooklyn,NY,11215
Our Lady Of Peace,209 1st St,Brooklyn,NY,11215
18 Mohonk LLC,55 Windsor Pl,Brooklyn,NY,11215
Hebron Seventh Day Adventist,1256 Dean St,Brooklyn,NY,11216
Shiloh Sda Church,449 Eastern Pky,Brooklyn,NY,11216
South Brooklyn Seventh Day,PO Box 160144,Brooklyn,NY,11216
Charity Neighborhood Baptist,PO Box 160182,Brooklyn,NY,11216
Concord Baptist Church,833 Marcy Ave,Brooklyn,NY,11216
Mount Pisgah Baptist Church,222 Tompkins Ave,Brooklyn,NY,11216
New Canaan Baptist Church,228 Putnam Ave,Brooklyn,NY,11216
Stuyvesant Heights Christian,69 MacDonough St,Brooklyn,NY,11216
Ebenezer Wesleyan Meth Church,1024 Bergen St,Brooklyn,NY,11216
First Ame Zion Church,54 MacDonough St,Brooklyn,NY,11216
John Wesley Methodist Church,260 Quincy St,Brooklyn,NY,11216
Newman Memorial Methodist Chr,257 Macon St,Brooklyn,NY,11216
Union Methodist Church,121 New York Ave,Brooklyn,NY,11216
Beulah Church of God,929 Marcy Ave,Brooklyn,NY,11216
New Life Tabernacle Church,1476 Bedford Ave,Brooklyn,NY,11216
Siloam Presbyterian Church,260 Jefferson Ave,Brooklyn,NY,11216
Redemption Church Of Christ,1252 Bedford Ave,Brooklyn,NY,11216
Macedonia Church Of Christ,289 Quincy St,Brooklyn,NY,11216
Agapi Fellowship,341 Nostrand Ave,Brooklyn,NY,11216
Baptist Temple,360 Schermerhorn St,Brooklyn,NY,11217
House of the Lord Pentecostal,415 Atlantic Ave,Brooklyn,NY,11217
Park Slope Christian Tabernacl,98 5th Ave,Brooklyn,NY,11217
Lafayette Avenue Presbyterian,85 S Oxford St,Brooklyn,NY,11217
International Baptist Church,312 Coney Island Ave,Brooklyn,NY,11218
St Catherine-Alexandria Chr,1119 41st St,Brooklyn,NY,11218
Chabad Lubavitch of Kensington,605 Ocean Pky,Brooklyn,NY,11218
Flatbush ,222 Ocean Pky,Brooklyn,NY,11218
Calvary Pentecostal Church,45 E 8th St,Brooklyn,NY,11218
Abraham Yaacov,804 Ditmas Ave,Brooklyn,NY,11218
Adler M,1528 41st St,Brooklyn,NY,11218
Akerman Solomon,1525 41st St,Brooklyn,NY,11218
Al-mahdi Foundation,779 Coney Island Ave,Brooklyn,NY,11218
Saint Rosalia Rc Church,6301 14th Ave,Brooklyn,NY,11219
Congregation Beer Moshe,1569 48th St,Brooklyn,NY,11219
Congregation Beth Jacob,5822 11th Ave,Brooklyn,NY,11219
Congregation Kehilath Yakov,1250 51st St,Brooklyn,NY,11219
Congregation Shomrei Emunah,5202 14th Ave,Brooklyn,NY,11219
Congregation Toras Chaim,5228 New Utrecht Ave,Brooklyn,NY,11219
Congregation Yetev Lev D'Satmr,PO Box 190520,Brooklyn,NY,11219
Kolel Avreichim of Bobov,PO Box 190514,Brooklyn,NY,11219
Merkaz Hatorah Yachel Yisroel,1227 50th St,Brooklyn,NY,11219
Yeshiva of Serdahel,4112 15th Ave,Brooklyn,NY,11219
Coptic Orthodox Chr-St George,1105 67th St,Brooklyn,NY,11219
Abrahamovici Filip,1577 57th St,Brooklyn,NY,11219
Abramowitz Moshe,1331 45th St,Brooklyn,NY,11219
St Andrew the Apostle,6713 Ridge Blvd,Brooklyn,NY,11220
Christian Heritage Church,PO Box 200295,Brooklyn,NY,11220
59th St Lutheran Church,749 59th St,Brooklyn,NY,11220
Bethelship United Methodist Ch,413 56th St,Brooklyn,NY,11220
Fourth Ave Methodist Church,4616 4th Ave,Brooklyn,NY,11220
New Hope Fellowship,108 Bay Ridge Ave,Brooklyn,NY,11220
Bay Ridge Christian Ctr,6324 7th Ave,Brooklyn,NY,11220
First Church Of Brethren,358 60th St,Brooklyn,NY,11220
Pentecostal Church Of Jericho,5622 3rd Ave,Brooklyn,NY,11220
Church Flame Of Ministry,6312 5th Ave,Brooklyn,NY,11220
Akers A M,469 58th St,Brooklyn,NY,11220
Akers A M Rev,471 58th St,Brooklyn,NY,11220
Crossover Baptist Church Inc,358 Kosciuszko St,Brooklyn,NY,11221
Universal Baptist Church,742 Jefferson Ave,Brooklyn,NY,11221
St Barbara's Roman Catholic,138 Bleecker St,Brooklyn,NY,11221
St Joseph Patron Rc Church,185 Suydam St,Brooklyn,NY,11221
St Martin of Tours Rc Church,1288 Hancock St,Brooklyn,NY,11221
Calvary ,966 Bushwick Ave,Brooklyn,NY,11221
St Stephens ,809 Jefferson Ave,Brooklyn,NY,11221
Bridge Street Ame Church,277 Stuyvesant Ave,Brooklyn,NY,11221
Janes United Methodist Church,660 Monroe St,Brooklyn,NY,11221
People's Institutional Ame,628 Madison St,Brooklyn,NY,11221
Varick Memorial Ame Zion Chr,PO Box 435,Brooklyn,NY,11221
Jesus Saves Ministry Church,509 Evergreen Ave,Brooklyn,NY,11221
St Leonard's Church,765 Putnam Ave,Brooklyn,NY,11221
Christ Apostolic Church,869 Lexington Ave,Brooklyn,NY,11221
St Mary's Church of Christ,493 Monroe St,Brooklyn,NY,11221
Upper Room Baptist Church,180 Van Buren St,Brooklyn,NY,11221
Refuge Church Of God,595 Quincy St,Brooklyn,NY,11221
Aker Lawrence,576 Madison St,Brooklyn,NY,11221
St Anthony of Padua,862 Manhattan Ave,Brooklyn,NY,11222
St Cecilia's Rc Church,84 Herbert St,Brooklyn,NY,11222
Aid To Church In Need Inco,725 Leonard St,Brooklyn,NY,11222
Ahi Ezer Congregation,1950 E 7th St,Brooklyn,NY,11223
Congregation B'Nai Josef,1616 Ocean Pky,Brooklyn,NY,11223
Sephardic Congregation Har Ha,820 Avenue S,Brooklyn,NY,11223
Sephardic Lebanese Synagogue,PO Box 230018,Brooklyn,NY,11223
Sephardic Synagogue,511 Avenue R,Brooklyn,NY,11223
Shaare Zion Congregational Ofc,2022 Ocean Pky,Brooklyn,NY,11223
Trinity Tabernacle-Gravesend,121 Gravesend Neck Rd,Brooklyn,NY,11223
Agababayeva Rev,2354 Ocean Pky,Brooklyn,NY,11223
Aiken Mitchell,29 Avenue W,Brooklyn,NY,11223
Our Lady-Solace Church,2866 W 17th St,Brooklyn,NY,11224
Congregation Kneses Israel,3801 Nautilus Ave,Brooklyn,NY,11224
Sea Breeze Jewish Ctr,311 Sea Breeze Ave,Brooklyn,NY,11224
Coney Island Cathedral-Dlvrnc,PO Box 424,Brooklyn,NY,11224
Comforting Church Of Chnst,2865 W 15th St,Brooklyn,NY,11224
Beulah Church Of Christ,2014 Mermaid Ave,Brooklyn,NY,11224
Philadelphia Church-Universal,530 Eastern Pky,Brooklyn,NY,11225
St Marks Baptist Church,551 Rogers Ave,Brooklyn,NY,11225
St Gabriel's Episcopal Church,337 Hawthorne St,Brooklyn,NY,11225
Fenimore St United Methodist,266 Fenimore St,Brooklyn,NY,11225
John Hus Moravian Church,153 Ocean Ave,Brooklyn,NY,11225
Full Gospel Assembly,131 Sullivan Pl,Brooklyn,NY,11225
Divine Center Of Truth,509 Rogers Ave,Brooklyn,NY,11225
Divine Word Of Truth,1071 Nostrand Ave,Brooklyn,NY,11225
Apostolic Church Of Christ,883 Nostrand Ave,Brooklyn,NY,11225
Abramowitz Shloma L Rabbi,392 Crown St,Brooklyn,NY,11225
Act,31 Balfour Pl,Brooklyn,NY,11225
Adams John Qrev,495 Brooklyn Ave,Brooklyn,NY,11225
Agudah Israel,456 Crown St,Brooklyn,NY,11225
Rogers Ave Seventh Day Advntst,924 Rogers Ave,Brooklyn,NY,11226
Lenox Road Baptist Church,1356 Nostrand Ave,Brooklyn,NY,11226
Salem Baptist Church,305 E 21st St,Brooklyn,NY,11226
St Jerome's Roman Catholic,2900 Newkirk Ave,Brooklyn,NY,11226
St Pauls Episcopal Church,157 Saint Pauls Pl,Brooklyn,NY,11226
New Jerusalem Chr-the Nazarene,PO Box 260454,Brooklyn,NY,11226
Pilgrim Wesleyan Church,951 Ocean Ave,Brooklyn,NY,11226
St Stephens Lutheran Church,2806 Newkirk Ave,Brooklyn,NY,11226
St Marks United Methodist,2017 Beverley Rd,Brooklyn,NY,11226
Redemption Gospel Outreach,PO Box 260475,Brooklyn,NY,11226
Resurrection Temple Our Lord,784 Rogers Ave,Brooklyn,NY,11226
Flatbush Reformed Church,890 Flatbush Ave,Brooklyn,NY,11226
Resalvation Church Of God,1615 Nostrand Ave,Brooklyn,NY,11226
Brooklyn Cathedral Of Praise,2209 Cortelyou Rd,Brooklyn,NY,11226
Haitian Tabernacle Of Brooklyn,20 Lenox Rd,Brooklyn,NY,11226
Peniel Church Of Cma,2741 Albemarle Rd,Brooklyn,NY,11226
2101 Church Equities LLC,2101 Church Ave,Brooklyn,NY,11226
2Nd El Sheddeih Baptist Church,1623 Nostrand Ave,Brooklyn,NY,11226
Our Lady of Guadalupe Church,7201 15th Ave,Brooklyn,NY,11228
St Ephrems Catholic Church,929 Bay Ridge Pky,Brooklyn,NY,11228
St Frances Cabrini Church,1562 86th St,Brooklyn,NY,11228
Good Shepherd Church Rectory,1950 Batchelder St,Brooklyn,NY,11229
St Edmund's Church,2460 Ocean Ave,Brooklyn,NY,11229
Madison Jewish Ctr,2989 Nostrand Ave,Brooklyn,NY,11229
St James Evangelical Lutheran,2776 Gerritsen Ave,Brooklyn,NY,11229
Three Hierarchs Greek Church,1724 Avenue P,Brooklyn,NY,11229
Augudath Israel Of Madison,2122 Avenue S,Brooklyn,NY,11229
Aberbach David Rabbi,1944 E 19th St,Brooklyn,NY,11229
St Brendan's Catholic Church,1525 E 12th St,Brooklyn,NY,11230
St Rose of Lima,269 Parkville Ave,Brooklyn,NY,11230
Avenue N Jewish Community Ctr,321 Avenue N,Brooklyn,NY,11230
Congregation Beth Torah,1061 Ocean Pky,Brooklyn,NY,11230
Persian Cong Of Flatbush,1434 Ocean Pky,Brooklyn,NY,11230
Young Israel Of Midwood,1694 Ocean Ave,Brooklyn,NY,11230
A ,712 E 17th St,Brooklyn,NY,11230
Ackerman Sheldon Rabbi,1358 E 9th St,Brooklyn,NY,11230
Adress Ira,1175 E 8th St,Brooklyn,NY,11230
Agudas Achim Congregation,1564 Coney Island Ave,Brooklyn,NY,11230
St Mary's Star-the Sea Chr,467 Court St,Brooklyn,NY,11231
Visitation Rectory,98 Richards St,Brooklyn,NY,11231
Adonai Seafarers Fellowship,45 Degraw St,Brooklyn,NY,11231
Our Lady-Czestochowa,183 25th St,Brooklyn,NY,11232
St Michael's Rc Church,352 42nd St,Brooklyn,NY,11232
Christ Fellowship Baptist Chr,7 Sumpter St,Brooklyn,NY,11233
Glover Memorial Baptist Church,2134 Dean St,Brooklyn,NY,11233
Liberty Baptist Church,19 Gunther Pl,Brooklyn,NY,11233
Metropolitan Missionary Bapt,869 Halsey St,Brooklyn,NY,11233
Mount Ollie Baptist Church,PO Box 330028,Brooklyn,NY,11233
Mt Ararat Baptist Church,425 Howard Ave,Brooklyn,NY,11233
Mt Lebanon Baptist Church,230 Decatur St,Brooklyn,NY,11233
Pleasant Grove Baptist,1927 Fulton St,Brooklyn,NY,11233
Our Lady of Loreto,124 Sackman St,Brooklyn,NY,11233
Our Lady-Presentation Church,1677 Saint Marks Ave,Brooklyn,NY,11233
St Marks Church of Christ,PO Box 330484,Brooklyn,NY,11233
St Phillips Episcopal Chr,265 Decatur St,Brooklyn,NY,11233
Good Tidings Gospel Hall,345 Malcolm X Blvd,Brooklyn,NY,11233
Holy House of Prayer Soup,1768 Saint Johns Pl,Brooklyn,NY,11233
Crown Heights Gospel,320 Rockaway Ave,Brooklyn,NY,11233
Pentecostal House of Prayer,1926 Prospect Pl,Brooklyn,NY,11233
Peterson Temple Cogic,487 Ralph Ave,Brooklyn,NY,11233
United House of Prayer,25 Sumpter St,Brooklyn,NY,11233
Zion Temple Church of God,172 Decatur St,Brooklyn,NY,11233
Universal Church Of God-christ,1775 Fulton St,Brooklyn,NY,11233
Goodwill Church Of God,1142 Herkimer St,Brooklyn,NY,11233
Original Church Of God,1660 Eastern Pky,Brooklyn,NY,11233
,47 Chauncey St,Brooklyn,NY,11233
Mamre Seventh Day Adventist,PO Box 176,Brooklyn,NY,11234
Mary Queen of Heaven,1395 E 56th St,Brooklyn,NY,11234
Saint Columba Church,2245 Kimball St,Brooklyn,NY,11234
Flatbush Park Jewish Ctr,6363 Avenue U,Brooklyn,NY,11234
Temple Sholom of Flatbush,2075 E 68th St,Brooklyn,NY,11234
Agape Christian Fellowship,888 E 56th St,Brooklyn,NY,11234
Flatlands Church Of God,4021 Flatlands Ave,Brooklyn,NY,11234
Temple Hillel Of Flatlands,2164 Ralph Ave,Brooklyn,NY,11234
Guardian Angel Rc Church,2978 Ocean Pky,Brooklyn,NY,11235
St Margaret Mary Rc Church,215 Exeter St,Brooklyn,NY,11235
St Marks Roman Catholic Chr,2609 E 19th St,Brooklyn,NY,11235
Avenue Z Jewish Ctr,875 Avenue Z,Brooklyn,NY,11235
Congregation Beth Shalom-Kings,2710 Avenue X,Brooklyn,NY,11235
Hebrew Alliance-Brighton Beach,2915 Brighton 6th St,Brooklyn,NY,11235
Associated Clergy,3119 Coney Island Ave,Brooklyn,NY,11235
Adai Paulose,2635 E 6th St,Brooklyn,NY,11235
Ahi Ezer Yeshiva,2433 Ocean Pky,Brooklyn,NY,11235
Al Mustafa Islamic Center,3126 Coney Island Ave,Brooklyn,NY,11235
Our Lady of Miracles Parish,757 E 86th St,Brooklyn,NY,11236
Sephardic Jewish Ctr-Canarsie,9320 Flatlands Ave,Brooklyn,NY,11236
Temple Emanu-El of Canarsie,1880 Rockaway Pky,Brooklyn,NY,11236
St Matthew's Lutheran Church,1187 E 92nd St,Brooklyn,NY,11236
Daybreak Ministries,PO Box 408,Brooklyn,NY,11236
Refuge Temple of Jesus Christ,679 Remsen Ave,Brooklyn,NY,11236
Young Israel Of Canarsie,1265 E 108th St,Brooklyn,NY,11236
Christian Church Of Canarsie,606 E 89th St,Brooklyn,NY,11236
Young Israel Of Redwood,619 E 76th St,Brooklyn,NY,11236
9111 Church LLC,9111 Church Ave,Brooklyn,NY,11236
Agape Tabernacle International Fllwshp,8712 Glenwood Rd,Brooklyn,NY,11236
St Brigid's Rc Church,409 Linden St,Brooklyn,NY,11237
Metro International Church,PO Box 370695,Brooklyn,NY,11237
Brown Memorial Baptist Church,484 Washington Ave,Brooklyn,NY,11238
Evening Star Baptist Church,265 Gates Ave,Brooklyn,NY,11238
St Peter Claver Rc Church,29 Claver Pl,Brooklyn,NY,11238
St Teresa-Avila Rc Church,563 Sterling Pl,Brooklyn,NY,11238
Cadman Memorial Church,350 Clinton Ave,Brooklyn,NY,11238
Evergreen Church Of God-christ,489 Washington Ave,Brooklyn,NY,11238
Bibleway House Of Blessings,675 Franklin Ave,Brooklyn,NY,11238
Bklyn Church Of Brethren,515 Classon Ave,Brooklyn,NY,11238
Bethel Church Of Nazarene,595 Classon Ave,Brooklyn,NY,11238
Churches East,551 Vandalia Ave,Brooklyn,NY,11239
St John Vianney Rc Church,14010 34th Ave,Queens,NY,11354
St Paul Chong Hasang Rc,3215 Parsons Blvd,Queens,NY,11354
St Joan of Arc Rc,132-00 35th Ave,Flushing,NY,11354
St Mel's Rc Church,2820 154th St,Flushing,NY,11354
Queens Christian Alliance Chr,13520 35th Ave,Flushing,NY,11354
Garden Jewish Ctr of Flushing,25-00 Parsons Blvd,Flushing,NY,11354
Temple Gates of Prayer,3820 Parsons Blvd,Flushing,NY,11354
Macedonia Ame Church,3722 Union St,Flushing,NY,11354
Full Gospel Ny Church,"13030 31st Ave, #4",Flushing,NY,11354
Bowne Street Community Church,14311 Roosevelt Ave,Flushing,NY,11354
Corona Congregational Church,132-00 34th Ave,Flushing,NY,11354
Evergreen Presbyterian Church,14133 33rd Ave,Flushing,NY,11354
Pure Presbyterian Church,14208 32nd Ave,Flushing,NY,11354
Council Of Korean Churches,3534 Union St,Flushing,NY,11354
Agin Charles G,28-18 147th St,Flushing,NY,11354
Korean Presbyterian Church,14317 Franklin Ave,Flushing,NY,11355
St Mary's Nativity Church,4602 Parsons Blvd,Flushing,NY,11355
Oversea Chinese Mission,4372 Bowne St,Flushing,NY,11355
Free Synagogue of Flushing,4160 Kissena Blvd,Flushing,NY,11355
Faith Bible Church,13320 41st Ave,Flushing,NY,11355
Choongsyn Korean Church,15311 Barclay Ave,Flushing,NY,11355
St Ann's Rectory,14230 58th Ave,Manhattan,NY,11355
St Fidelis Catholic Church,12306 14th Ave,Flushing,NY,11356
New York Mission Church,12301 18th Ave,Flushing,NY,11356
Holy Trinity Rc Church,1451 143rd St,Flushing,NY,11357
Pillars of Faith Full Gospel,PO Box 88,Queens,NY,11357
St Lukes Roman Catholic Church,1634 Clintonville St,Flushing,NY,11357
Lutheran Church Of Messiah,4215 165th St,Flushing,NY,11358
St Kevins Catholic Church,4521 194th St,Flushing,NY,11358
Queens Herald Church,4329 162nd St,Flushing,NY,11358
St Nicholas Greek Orthodox Chr,19610 Northern Blvd,Flushing,NY,11358
Covenant Church Pca,25-01 Francis Lewis Blvd,Flushing,NY,11358
Hyo Shin Bible Presbyterian,4215 166th St,Flushing,NY,11358
Korean Canaan Presbyterian,3505 162nd St,Flushing,NY,11358
Bay Terrace Jewish Ctr,1300 209th St,Flushing,NY,11360
Chabad of Bayside NE Queens,2606 213th St,Flushing,NY,11360
Grace Korean Presbyterian Chr,21650 28th Ave,Flushing,NY,11360
Church Community Baptist,4619 206th St,New York,NY,11361
Our Lady-Blessed Sacrament,3424 203rd St,Flushing,NY,11361
St Josaphat Rc Church Rectory,3432 210th St,Flushing,NY,11361
Bayside Jewish Ctr,20305 32nd Ave # 2,Flushing,NY,11361
Bayside United Methodist Chr,3820 Bell Blvd,Flushing,NY,11361
Shin Kwang Church of New York,3355 Bell Blvd,Flushing,NY,11361
Aerim Presbyterian Church,215-29 42nd Ave,Flushing,NY,11361
St Anastasia Rc Church,4514 245th St,Queens,NY,11362
Church El Renuevo Christain,240-01 52nd Ave,Flushing,NY,11362
Little Neck Jewish Ctr,4910 Little Neck Pky,Flushing,NY,11362
Marathon Jewish Community Ctr,24537 60th Ave,Flushing,NY,11362
Temple Torah of Little Neck,5427 Little Neck Pky,Flushing,NY,11362
Korean Joong Bu Church,25200 Horace Harding Expy S,Flushing,NY,11362
Community Church of Douglaston,3950 Douglaston Pkwy,Queens,NY,11363
St Sarkis Armenian Apostolic,3865 234th St,Flushing,NY,11363
Eun Hae Presbyterian Church,4337 249th St,Flushing,NY,11363
American Martyrs,7943 Bell Blvd,Queens,NY,11364
St Robert Bellarmine Rc Chr,5615 213th St,Flushing,NY,11364
Jewish Center of Bayside Oaks,5035 Cloverdale Blvd,Flushing,NY,11364
Oakland Jewish Ctr,6135 220th St,Flushing,NY,11364
Colonial Church of Bayside,5402 217th St,Flushing,NY,11364
Love of Christ Presbyterian,20908 48th Ave,Flushing,NY,11364
Watbuddsatsai,22015 Horace Harding Expy,Flushing,NY,11364
Young Israel of Hillcrest,16907 Jewel Ave,Flushing,NY,11365
Hillcrest Jewish Ctr,18302 Union Tpke,Flushing,NY,11366
Queen of Peace Rc Church,14136 77th Ave,Flushing,NY,11367
Catholic Newman Ctr,6530 Kissena Blvd,Flushing,NY,11367
Congregation Aha Vas Yisrael,14702 73rd Ave,Flushing,NY,11367
Sephardic Congregation-Kgh,14141 72nd Ave,Flushing,NY,11367
Lutheran Church of Redeemer,15716 65th Ave,Flushing,NY,11367
St Paul the Apostle Church,9816 55th Ave,Queens,NY,11368
Mt Horeb Baptist Church,109-20 34th Ave,Queens,NY,11368
Our Lady of Sorrows Church,10411 37th Ave,Flushing,NY,11368
St Leo Church,10405 49th Ave,Flushing,NY,11368
Greek Orthodox Church of Crna,3805 98th St,Flushing,NY,11368
Atonement Lutheran Church,3061 87th St,Flushing,NY,11369
St Gabriel's Rc Church,2626 98th St,Flushing,NY,11369
Our Lady of Fatima Church,2502 80th St,Flushing,NY,11370
St Marks Ame Church,9518 Northern Blvd,Flushing,NY,11372
Perfect Liberty Church,3756 76th St,Flushing,NY,11372
New York Cho Dae Church,7117 Roosevelt Ave,Flushing,NY,11372
St Adalbert Catholic Church,5229 83rd St,Queens,NY,11373
Ascension Church,8613 55th Ave,Flushing,NY,11373
St Bartholomews Church,4322 Ithaca St,Flushing,NY,11373
Iglesia Evangelica Cristo,8914 48th Ave,Flushing,NY,11373
New Life Fellowship Church,8210 Queens Blvd,Flushing,NY,11373
Grace Chinese Lutheran Church,4333 91st Pl,Flushing,NY,11373
Korean Evangelical Church-Ny,8822 Corona Ave,Flushing,NY,11373
New York Bethzatha Church-God,8520 57th Ave,Flushing,NY,11373
Presbyterian Church of Newtown,5405 Seabury St,Flushing,NY,11373
Reformed Church of Newtown,4920 87th St,Flushing,NY,11373
Our Lady Queen of Martyrs,11006 Queens Blvd,Queens,NY,11374
Our Lady of the Angelus Church,6363 98th St,Queens,NY,11374
Our Saviour Lutheran Church,6433 Woodhaven Blvd,Flushing,NY,11374
Our Lady of Mercy Church Rctry,7001 Kessel St,Flushing,NY,11375
Queens Synagogue Mikveh,7548 Grand Central Pkwy,Flushing,NY,11375
Reform Temple of Forest Hills,7111 112th St,Flushing,NY,11375
Sephardic Jewish Ctr,6767 108th St,Flushing,NY,11375
Young Israel of Forest Hills,7100 Yellowstone Blvd,Flushing,NY,11375
Church in the Gardens,50 Ascan Ave,Flushing,NY,11375
First Korean Presbyterian Chr,3760 61st St,Queens,NY,11377
St Mary's Help of Christian,7031 48th Ave,Flushing,NY,11377
St Teresa's Rc Church Rectory,5020 45th St,Flushing,NY,11377
Little Flock Church,6938 47th Ave,Flushing,NY,11377
Calvary Korean Presbyterian,6020 Broadway,Flushing,NY,11377
Korean Church of Eternal Life,3705 54th St,Flushing,NY,11377
Holy Cross Roman Catholic Chr,6121 56th Rd,Flushing,NY,11378
Trinity-St Andrew's Lutheran,6006 60th Ave,Flushing,NY,11378
Maspeth United Methodist Chr,6635 58th Ave,Flushing,NY,11378
Our Lady of Hope Catholic Ch,6127 71st St,Flushing,NY,11379
Resurrection Ascension Church,6111 85th St,Flushing,NY,11379
St Margaret's Rc Church,6605 79th Pl,Flushing,NY,11379
Covenant Lutheran Church,6959 60th Ln,Queens,NY,11385
Lutheran Church-the Ascension,7803 78th Ave,Queens,NY,11385
Our Lady-the Miraculous Medal,6281 60th Pl,Flushing,NY,11385
St Aloysius Roman Catholic Chr,382 Onderdonk Ave,Flushing,NY,11385
St Matthias Rc Church,5815 Catalpa Ave,Flushing,NY,11385
St Pancras Church,7222 68th St,Flushing,NY,11385
Iglesia Cristiana Inc,1640 Hancock St,Flushing,NY,11385
St John's Ridgewood Untd Meth,610 Seneca Ave,Flushing,NY,11385
Lighthouse Assembly Of God,7129 68th Pl,Glendale,NY,11385
525 Made In America,80-00 Cooper Ave,Glendale,NY,11385
Albanian American Islamic Center,72-24 Myrtle Ave,Glendale,NY,11385
Mount Moriah Ame Church,11620 Francis Lewis Blvd,Jamaica,NY,11411
New Jerusalem Baptist Church,PO Box 110402,JAMAICA,NY,11411
Revealed Word Christian Ctr,PO Box 110414,JAMAICA,NY,11411
Christ Memorial Church Baptist,18712 Linden Blvd,New York,NY,11412
St Albans Baptist Church,196-02 119th Ave,Queens,NY,11412
Humble Heart Christian Church,19418 120th Ave,Queens,NY,11412
Presbyterian Church-St Albans,19004 119th Ave,Queens,NY,11412
Oneness Pentecostal Tabernacle,PO Box 502,JAMAICA,NY,11412
Linden Boulevard Seventh Day,22820 137th Ave,Jamaica,NY,11413
St Mary Magdalenes Catholic,13611 218th St,Jamaica,NY,11413
Abundant Life Learning Center,231-19 128th Rd,Jamaica,NY,11413
Agape Church Of God,138-35 Springfield Blvd,Jamaica,NY,11413
St Luke Baptist Church,133-21 232nd St,Queens,NY,11413
Epiphany Lutheran Church,22801 130th Ave,Queens,NY,11413
Evangel Temple,227-10 Merrick Blvd,Queens,NY,11413
Our Lady of Grace Church,10005 159th Ave,Queens,NY,11414
St Barnabas Lutheran Church,15919 98th St,Jamaica,NY,11414
Congregation Shaare Tova,PO Box 249,JAMAICA,NY,11415
St Stanislaus Rc Church,88-10 102nd Ave,Queens,NY,11416
True Jesus Church Inc,9602 95th Ave,Queens,NY,11416
Our Lady of Cenacle Church,13606 87th Ave,Jamaica,NY,11418
Bethlehem Church,8937 Lefferts Blvd,Jamaica,NY,11418
Price Memorial Baptist Church,107-06 Van Wyck Expy,Queens,NY,11419
St Benedict Joseph Labre Ch,9440 118th St,Queens,NY,11419
Our Lady of Perpetual Help Chr,11150 115th St,Queens,NY,11420
First Freedom Baptist Church,13208 Rockaway Blvd,Jamaica,NY,11420
St Teresa of Avila Rc Church,10926 130th St,Queens,NY,11420
St John Episcopal Church,13304 109th Ave,Queens,NY,11420
Dunton Presbyterian Church,10929 135th St,Queens,NY,11420
Throop Memorial Presby Church,14017 243rd St,Jamaica,NY,11422
St Clare Rc Church,13735 Brookville Blvd,Queens,NY,11422
St Gabriel's Anglican Church,19610 Woodhull Ave,Jamaica,NY,11423
St Joseph's Episcopal Church,205-99 100th Ave,Jamaica,NY,11423
Iglesia Alianza Cristiano,8916 184th St,Jamaica,NY,11423
Temple Israel of Jamaica,18815 McLaughlin Ave,Jamaica,NY,11423
Young Israel of Jamaica Ests,8310 188th St,Jamaica,NY,11423
Hollis Presbyterian Church,10050 196th St,Jamaica,NY,11423
Refuge Church Of Christ,102-98 187th St,Jamaica,NY,11423
St Gerard Magella Catholic Chr,18816 91st Ave,Queens,NY,11423
St Gregory the Greats Church,24220 88th Ave,Queens,NY,11426
Bellerose Assembly of God,24015 Hillside Ave,Queens,NY,11426
Young Israel of Holliswood,8625 Francis Lewis Blvd,Jamaica,NY,11427
Incarnation Church Rc,8943 Francis Lewis Blvd,Queens,NY,11427
Evangelical Lutheran Church,9210 217th St,Jamaica,NY,11428
Embury United Methodist,22020 94th Dr,Queens,NY,11428
India Pentecostal Church,21458 Jamaica Ave,Queens,NY,11428
Maranatha Baptist Church,112-46 Springfield Blvd,Queens,NY,11429
St Joachim ,21826 105th Ave,Queens,NY,11429
First Revelation Church,21531 99th Ave,Queens,NY,11429
Bethel Gospel Tabernacle,PO Box 310540,JAMAICA,NY,11431
Tabernacle-Prayer-All People,PO Box 3150,JAMAICA,NY,11431
Bethany French Baptist Church,9021 160th St,Jamaica,NY,11432
Bethesda Missionary Baptist,17909 Jamaica Ave,Jamaica,NY,11432
Immaculate Conception-Jamaica,8645 Edgerton Blvd,Jamaica,NY,11432
Rockwood Park Jewish Ctr,159-01 84th Ave,Jamaica,NY,11432
Christian Fellowship Ctr,8760 Chevy Chase St,Jamaica,NY,11432
Highland Church,16020 Highland Ave,Jamaica,NY,11432
Greek Orthodox Community,8435 152nd St,Jamaica,NY,11432
7Th Day Adventist Church,88-28 163rd St,Jamaica,NY,11432
Ahlemeyer R,88-19 Parsons Blvd,Jamaica,NY,11432
Iglesia Alianza Christiana,16615 89th Ave,Queens,NY,11432
Bethany Baptist Church,15711 111th Ave,Jamaica,NY,11433
Glorious Church Of God,17138 107th Ave,Jamaica,NY,11433
Community Church Of Christ,16704 108th Ave,Jamaica,NY,11433
Amity Baptist Church,16412 108th Ave,Jamaica,NY,11433
Christ Pentecostal Temple,10945 157th St,Jamaica,NY,11433
Universal Church Of God,10934 Guy R Brewer Blvd,Jamaica,NY,11433
Abraham Thompson Memorial,169-03 107th Ave,Jamaica,NY,11433
Mt Zion Baptist Church,106-60 Union Hall St,Queens,NY,11433
Merrick Park Baptist Church,12002 Marsden St,Jamaica,NY,11434
New Hope Lutheran Church,16724 118th Ave,Jamaica,NY,11434
Rush Temple Ame Zion Church,11948 Sutphin Blvd,Jamaica,NY,11434
Springfield Gardens United Mth,13129 Farmers Blvd,Jamaica,NY,11434
Tabernacle Community Cme Chr,122-40 Farmers Blvd,Jamaica,NY,11434
Grace Moravian Church,17840 137th Ave,Jamaica,NY,11434
Bethel Assembly of God,150-00 123rd Ave,Jamaica,NY,11434
Christ Church Intl,16929 144th Rd,Jamaica,NY,11434
Hatian Church of God,180-99 Baisley Blvd,Jamaica,NY,11434
Life Line Pentecostal,11814 Merrick Blvd,Jamaica,NY,11434
St Albans Congregational Chr,17217 Linden Blvd,Jamaica,NY,11434
Holy Order Of Cerubim,11909 Sutphin Blvd,Jamaica,NY,11434
Rehoboth House Of Praise,14211 Farmers Blvd,Jamaica,NY,11434
Abiding Word Ministries,116-67 Sutphin Blvd,Jamaica,NY,11434
Aims Of Modzawe,115-62 Sutphin Blvd,Jamaica,NY,11434
Morning Star Baptist Church,114-44 Merrick Blvd,Queens,NY,11434
New Star Baptist Church,142-14 Farmers Blvd,Queens,NY,11434
Old Mt Zion Baptist Church,115-65 157th St,Queens,NY,11434
Christ the King Roman Catholic,14539 Farmers Blvd,Queens,NY,11434
St Bonaventure Church,11458 170th St,Queens,NY,11434
St Mary Gate of Heaven,137-00 101st Ave,Jamaica,NY,11435
Brooks Memorial Methodist Chr,14322 109th Ave,Jamaica,NY,11435
Christ Apostolic Church-Amer,10802 Sutphin Blvd,Jamaica,NY,11435
Al-khoei Foundation,137-11 90th Ave,Jamaica,NY,11435
St Anthony's Devine Tabernacle,95-06 Sutphin Blvd,Queens,NY,11435
St Pius Vrc Church,10612 Liverpool St,Queens,NY,11435
Calvary Assembly of God Corp,137-01 Rockaway Blvd,Jamaica,NY,11436
Advanced Baptist Church,141-15 Rockaway Blvd,Jamaica,NY,11436
St Clement Pope Church,14111 123rd Ave,Queens,NY,11436
Searing Roslyn United Meth,134 I U Willets Rd,Albertson,NY,11507
Jewish Center-Atlantic Beach,PO Box 246,Atlantic Beach,NY,11509
South Baldwin Jewish Ctr,2959 Grand Ave,Baldwin,NY,11510
St Peter's Evangelical Church,2332 Grand Ave,Baldwin,NY,11510
First Church Baldwin,881 Merrick Rd,Baldwin,NY,11510
Bethlehem Lutheran Church,1375 Grand Ave,North Baldwin,NY,11510
Our Lady of Hope Catholic Chr,534 Broadway,Carle Place,NY,11514
St Joachim's Church,614 Central Ave,Cedarhurst,NY,11516
Sephardic Temple,PO Box 392,Cedarhurst,NY,11516
Young Israel-Lawrence-Cdrhrst,8 Spruce St,Cedarhurst,NY,11516
Refuge Church of Christ Inc,106 Broadway,Freeport,NY,11520
Church of the Transfiguration,69 S Long Beach Ave,Freeport,NY,11520
Our Holy Redeemer Parish,37 S Ocean Ave,Freeport,NY,11520
Congregation Bnai Israel,91 N Bayview Ave,Freeport,NY,11520
Bethel Ame Church Sr Program,420 N Main St,Freeport,NY,11520
Freeport United Methodist Chr,46 Pine St,Freeport,NY,11520
Perfecting Faith Church Inc,311 N Main St,Freeport,NY,11520
Word of Life Ministries,131 Guy Lombardo Ave,Freeport,NY,11520
Church of God in Christ Little,165 Lakeview Ave,Freeport,NY,11520
A House Of Prayer,405 Babylon Tpke,Freeport,NY,11520
Lutheran Church of Our Saviour,132 Jefferson St,Garden City,NY,11530
Corpus Christi Church,155 Garfield St,Garden City,NY,11530
Cathedral of the Incarnation,50 Cathedral Ave,Garden City,NY,11530
Garden City Community Church,245 Stewart Ave,Garden City,NY,11530
Korean Church of Brooklyn,91 Chester Ave,Garden City,NY,11530
St Patrick's Roman Catholic,235 Glen St,Glen Cove,NY,11542
St Rocco's Church,18 3rd St,Glen Cove,NY,11542
North Country Reform Temple,86 Crescent Beach Rd,Glen Cove,NY,11542
Our Saviour's Lutheran Church,16 Glenwood Rd,Glen Head,NY,11545
St Paul the Apostle Rectory,2534 Cedar Swamp Rd,Glen Head,NY,11545
South Hempstead Baptist Church,81 Maple Ave,Hempstead,NY,11550
Union Baptist Church Inc,24 Rev Clinton C Boone Pl,Hempstead,NY,11550
Chamsarant Korean Meth Chr,94 Fulton Ave,Hempstead,NY,11550
Iglesia Luterana La,35 Fulton Ave,Hempstead,NY,11550
Jackson Memorial Ame,60 Peninsula Blvd,Hempstead,NY,11550
Greek Orthodox Church St Paul,110 Cathedral Ave,Hempstead,NY,11550
Pentecostal Church-Hempstead,600 Greenwich St,Hempstead,NY,11550
Antioch Citadel Of Hope,107 James L L Burrell Ave,Hempstead,NY,11550
Kings Chapel Of Hempstead,201 Baldwin Rd,Hempstead,NY,11550
Universal Tabernacle Of Love,120 Jackson St,Hempstead,NY,11550
Unity Church Of Hempstead,298 Fulton Ave,Hempstead,NY,11550
A Joyful Heart Baptist Church,101 Greenwich St,Hempstead,NY,11550
Adonai Christian Center,195 Baldwin Rd,Hempstead,NY,11550
Drc Christian Fellowship,PO Box 2309,Hempstead,NY,11551
Calvary Tbrncl United Pent Ch,PO Box 4009,Hempstead,NY,11551
St Thomas the Apostle Rectory,24 Westminster Rd,West Hempstead,NY,11552
St Andrews Lutheran Church,54 Nassau Blvd,West Hempstead,NY,11552
Young Israel of West Hempstead,630 Hempstead Ave,West Hempstead,NY,11552
Mikvah Association Of Nassau,775 Hempstead Ave,West Hempstead,NY,11552
Adams Gerald,296 Spruce St,West Hempstead,NY,11552
Methodist Church of Uniondale,720 Uniondale Ave,Uniondale,NY,11553
Grace Cathedral Intl,886 Jerusalem Ave,Uniondale,NY,11553
Abundant Life Ministries International,561 Emerson St,Uniondale,NY,11553
St Raphael's Roman Catholic,600 Newbridge Rd,East Meadow,NY,11554
East Meadow Jewish Ctr,1400 Prospect Ave,East Meadow,NY,11554
New Covenant Church,757 Bellmore Ave,East Meadow,NY,11554
Trinity-St John's Church,1142 Broadway,Hewlett,NY,11557
Congregation Ahavat Yisrael,1 Piermont Ave,Hewlett,NY,11557
Island Park United Methodist,PO Box 236,Island Park,NY,11558
Kimsis Tis Theotokou Church,PO Box 308,Island Park,NY,11558
Full Gospel Church-Island Park,4101 Austin Blvd,Island Park,NY,11558
Congregation Beth Sholom,390 Broadway,Lawrence,NY,11559
Temple Israel,140 Central Ave,Lawrence,NY,11559
Congregation Shaaray Tefila,PO Box 237,Lawrence,NY,11559
Temple Sinai of Li,131 Washington Ave,Lawrence,NY,11559
St John's of Lattingtown,PO Box 448,Locust Valley,NY,11560
Locust Valley Reformed Church,115 Ryefield Rd,Locust Valley,NY,11560
St James-Jerusalem Episcopal,220 W Penn St,Long Beach,NY,11561
Temple Emanuel of Long Beach,455 Neptune Blvd,Long Beach,NY,11561
Abittan Asher H,415 W Penn St,Long Beach,NY,11561
Immanuel Baptist Church,1 Glenwood Ave,Lynbrook,NY,11563
Our Lady-Peace Roman Catholic,25 Fowler Ave,Lynbrook,NY,11563
Congregation Beth David,188 Vincent Ave,Lynbrook,NY,11563
Temple Emanu-El of Lynbrook,1 Saperstein Plz,Lynbrook,NY,11563
Alexander Art,37 Grove St,Lynbrook,NY,11563
Our Lady of Lourdes,65 Wright Ave,Malverne,NY,11565
Church of the Intercessor,50 Saint Thomas Pl,Malverne,NY,11565
Love Oasis Christian Ctr,PO Box 447,Malverne,NY,11565
Cure of Ars,2323 Merrick Ave,Merrick,NY,11566
Merrick Jewish Ctr,225 Fox Blvd,Merrick,NY,11566
Temple Beth AM the Reform Jew,2377 Merrick Ave,Merrick,NY,11566
Merrick United Methodist Chr,1425 Merrick Ave,Merrick,NY,11566
Old Westbury Hebrew Cngrgtn,21 Old Westbury Rd,Old Westbury,NY,11568
Bethel United Pentecostal Chr,357 Jericho Tpke,Old Westbury,NY,11568
Church of the Ascension,71 N Village Ave,Rockville Centre,NY,11570
Shiloh Baptist Church,96 N Centre Ave,Rockville Centre,NY,11570
St Agnes Cathedral,29 Quealy Pl,Rockville Centre,NY,11570
Central Synagogue-Nassau Cnty,430 Demott Ave,Rockville Centre,NY,11570
St Marks Methodist Church,200 Hempstead Ave,Rockville Centre,NY,11570
Beth Shalom,2860 Brower Ave,Oceanside,NY,11572
Temple Avodah,3050 Oceanside Rd,Oceanside,NY,11572
Young Israel of Oceanside,150 Waukena Ave,Oceanside,NY,11572
Oceanside Lutheran Church,55 Fairview Ave,Oceanside,NY,11572
Queen of the Most Holy Rosary,196 W Centennial Ave,Roosevelt,NY,11575
Roosevelt Ch of God Prophecy,39 Mansfield Ave,Roosevelt,NY,11575
Memorial Presbyterian Church,PO Box 216,Roosevelt,NY,11575
Evangelical Church Of Apostles,170 Howard Ave,Roosevelt,NY,11575
Roslyn Presbyterian Church,PO Box 306,Roslyn,NY,11576
Friendship Baptist Church,56 Orchard St,Roslyn Heights,NY,11577
Temple Sinai of Roslyn,425 Roslyn Rd,Roslyn Heights,NY,11577
New Church of New York,1 Willow St,Roslyn Heights,NY,11577
St Boniface Martyr Church,145 Glen Ave,Sea Cliff,NY,11579
Sea Cliff United Methodist Ch,PO Box 190,Sea Cliff,NY,11579
Grace United Methodist Chr,21 S Franklin Ave,Valley Stream,NY,11580
Blessed Sacrament Rectory,201 N Central Ave,Valley Stream,NY,11580
Holy Name-Mary,55 E Jamaica Ave,Valley Stream,NY,11580
Bethlehem Assembly of God Chr,11 E Mineola Ave,Valley Stream,NY,11580
Congregation Ohr Torah,410 Hungry Harbor Rd,Valley Stream,NY,11581
Church of the Advent,555 Advent St,Westbury,NY,11590
Long Island Bible Baptist Chr,600 Bob Reed Pl,Westbury,NY,11590
Genesis Assembly Of God,351 Scally Pl,Westbury,NY,11590
St Aidan's Church,505 Willis Ave,Williston Park,NY,11596
First Church of God,1425 Beach Channel Dr,Far Rockaway,NY,11691
St Gertrude's Church,336 Beach 38th St,Far Rockaway,NY,11691
Agudath Israel of Long Island,1121 Sage St,Far Rockaway,NY,11691
Bayswater Jewish Ctr,2355 Healy Ave,Far Rockaway,NY,11691
Bethel Temple Church of God,1874 Mott Ave,Far Rockaway,NY,11691
Living Rock Ministries,1801 Redfern Ave,Far Rockaway,NY,11691
Prince of Peace Pentecostal,1835 Mott Ave,Far Rockaway,NY,11691
Refuge Church of Christ,1837 Mott Ave,Far Rockaway,NY,11691
Universal Church Of Salvation,1121 Bayport Pl,Far Rockaway,NY,11691
Adams Howard,10-30 Rose St,Far Rockaway,NY,11691
Agudah Israel Of West Lawrence,6-46 Seagirt Blvd,Far Rockaway,NY,11691
Agudath Israel Of Bayswater,24-22 Bayswater Ave,Far Rockaway,NY,11691
St John's Baptist Church,PO Box 920303,ARVERNE,NY,11692
St Virgilius Rc Church,210 Noel Rd,Far Rockaway,NY,11693
Congregation Ohav Zedek,13401 Rockaway Beach Blvd,Queens,NY,11694
West End Temple,14702 Newport Ave,Far Rockaway,NY,11694
Ahmadiyya Movement In Islam,64 Union Ave,Amityville,NY,11701
Holy Trinity Baptist Church,PO Box 485,Amityville,NY,11701
Hollywood Baptist Church,PO Box 364,Amityville,NY,11701
Simpson United Methodist Chr,54 Washington Ave,Amityville,NY,11701
St Joseph's Rc Church-Babylon,39 Carll Ave,Babylon,NY,11702
Cross of Christ Lutheran Chr,576 Deer Park Ave,Babylon,NY,11702
Methodist Church Of Babylon,21 James St,Babylon,NY,11702
Bayport United Methodist Chr,482 Middle Rd,Bayport,NY,11705
St Lukes Lutheran Church,3 Lawrence Ln,Bay Shore,NY,11706
Assembly Of Christian Churches,476 Candlewood Rd,Bay Shore,NY,11706
Long Island Church of Christ,PO Box 607m,Bay Shore,NY,11706
Heart Of Worship,1512 Sunrise Hwy,Bay Shore,NY,11706
Emanuel Assembly Of God,125 2nd Ave,Bay Shore,NY,11706
Abundant Life Chrstn Fllwshp,68 Redington St,Bay Shore,NY,11706
Adonai Community Tabernacle,125 5th Ave,Bay Shore,NY,11706
Village Church of Bayville,9 Mountain Ave,Bayville,NY,11709
Village Church Of Bayville,11 Mountain Ave,Bayville,NY,11709
St Barnabas Church,2320 Bedford Ave,Bellmore,NY,11710
Methodist Church United,2640 Royle St,Bellmore,NY,11710
Temple Beth-El of Bellmore,1373 Bellmore Rd,North Bellmore,NY,11710
Mary Immaculate Rc Church,16 Browns Ln,Bellport,NY,11713
Bellport Methodist Church,185 S Country Rd,Bellport,NY,11713
St Martin of Tours Church,40 Seaman Ave,Bethpage,NY,11714
Plainedge Baptist Church,96 Stewart Ave,Bethpage,NY,11714
Bethpage United Methodist Chr,192 Broadway,Bethpage,NY,11714
Arumdaun Presbyterian Church,955 Stewart Ave,Bethpage,NY,11714
Bethpage Assembly Of God,362 Stewart Ave,Bethpage,NY,11714
Our Lady of the Snow Rc Church,157 Blue Point Ave,Blue Point,NY,11715
St John Greek Orthodox Church,77 Montauk Hwy,Blue Point,NY,11715
St John Nepomucene Roman Cath,1140 Locust Ave,Bohemia,NY,11716
Prince of Peace Lutheran Chr,799 Candlewood Rd,Brentwood,NY,11717
St Luke's Rc Church,266 Wicks Rd,Brentwood,NY,11717
Spanish Church Of God,1766 Brentwood Rd,Brentwood,NY,11717
Assumption Church,20 Chestnut St,Centereach,NY,11720
Our Savior Lutheran Church,140 Mark Tree Rd,Centereach,NY,11720
Congregational Church,PO Box 134,Centerport,NY,11721
Our Lady Queen-Martyrs Church,PO Box 609,Centerport,NY,11721
Centerport Methodist Church,97 Little Neck Rd,Centerport,NY,11721
St John of God Rc Church,84 Carleton Ave,Central Islip,NY,11722
Lighthouse Tabernacle Church,PO Box 486,Central Islip,NY,11722
Temple Beth David,100 Hauppauge Rd,Commack,NY,11725
Christ the King Catholic Chr,2 Indian Head Rd,Commack,NY,11725
Commack Jewish Ctr,83 Shirley Ct,Commack,NY,11725
Commack Church Of God,10 Beechwood Ln,Commack,NY,11725
Our Lady of Assumption Church,1 Molloy St,Copiague,NY,11726
Bethel Ame Church,20 Simmons St,Copiague,NY,11726
Full Gospel Christian Church,2675 Great Neck Rd,Copiague,NY,11726
Young Israel of Coram,981 Old Town Rd,Coram,NY,11727
S S Cyril ,125 Half Hollow Rd,Deer Park,NY,11729
St Patricks Episcopal Church,305 Carll's Path,Deer Park,NY,11729
Northport Baptist Church,400 Elwood Rd,East Northport,NY,11731
East Northport Jewish Ctr,328 Elwood Rd,East Northport,NY,11731
Community United Methodist Chr,PO Box 316,East Norwich,NY,11732
Messiah Lutheran Church,PO Box 519,Setauket- East Setauket,NY,11733
Caroline Church of Brookhaven,"1 Dyke Rd, #Setauket-",East Setauket,NY,11733
Setauket United Methodist Chr,160 Main St,Setauket,NY,11733
Three Village Church,322 Main St,Setauket,NY,11733
Presbyterian Church-Setauket,5 Caroline Ave,Setauket,NY,11733
St Thomas Episcopal Church,298 Conklin St,Farmingdale,NY,11735
St Luke's Lutheran Church,145 Prospect St,Farmingdale,NY,11735
St Kilian Roman Catholic Chr,PO Box 39,Farmingdale,NY,11735
Farmingdale Jewish Ctr,425 Route 109,Farmingdale,NY,11735
Farmingdale United Methodist,407 Main St,Farmingdale,NY,11735
St Francis of Assisi Catholic,29 Northgate Dr,Greenlawn,NY,11740
Christian City Church,PO Box 115,Greenlawn,NY,11740
St Paraskevi Greek Orthodox,1 Shrine Pl,Greenlawn,NY,11740
Good Shepherd Rc Church,1370 Grundy Ave,Holbrook,NY,11741
Christian Church Of Holbrook,1123 Broadway Ave,Holbrook,NY,11741
Abundant Life Church Of God,440 Furrows Rd,Holbrook,NY,11741
Church of Christ,1035 Park Ave,Huntington,NY,11743
Central Presbyterian Church,240 Main St,Huntington,NY,11743
Huntington Jewish Ctr,510 Park Ave,Huntington,NY,11743
Temple Beth El of Huntington,660 Park Ave,Huntington,NY,11743
Old First Presbyterian,125 Main St,Huntington,NY,11743
St Luke Lutheran Church,20 Candlewood Path,Dix Hills,NY,11746
St Matthew's Catholic Church,35 N Service Rd,Dix Hills,NY,11746
Chai Center,501 Vanderbilt Pky,Dix Hills,NY,11746
Dix Hills Jewish Ctr,555 Vanderbilt Pky,Dix Hills,NY,11746
Bible Korean United Methodist,1201 Carlls Straight Path,Dix Hills,NY,11746
Adde Gabriel,1 Yardley Dr,Dix Hills,NY,11746
St Peter's Evangelical Luthrn,11 Ogden Ct,Huntington Station,NY,11746
St Mark's Episcopal Church,754 Montauk Hwy,Islip,NY,11751
United Methodist Church-Islip,PO Box 507,Islip,NY,11751
Presbyterian Church of Islip,340 Main St,Islip,NY,11751
St Peter's the Apostle Church,94 Valley Stream St,Islip Terrace,NY,11752
Calvary Chapel Of Suffolk,103 Carleton Ave,Islip Terrace,NY,11752
Temple or-Elohim,18 Tobie Ln,Jericho,NY,11753
Kings Park Methodist Church,7 Old Dock Rd,Kings Park,NY,11754
New Village Congregational Chr,3 Wildwood St,Lake Grove,NY,11755
St Bernard's Roman Catholic,3100 Hempstead Tpke,Levittown,NY,11756
Levittown Community Church,100 Periwinkle Rd,Levittown,NY,11756
Presbyterian Church-Levitown,474 Wantagh Ave,Levittown,NY,11756
St Boniface's Episcopal Church,100 46th St,Lindenhurst,NY,11757
Evangel Church of God,PO Box 628,Lindenhurst,NY,11757
Grace Episcopal Church,23 Cedar Shore Dr,Massapequa,NY,11758
St Rose of Lima Church,2 Bayview Ave,Massapequa,NY,11758
Temple Judea of Massapequa,98 Jerusalem Ave,Massapequa,NY,11758
Massapequa Reformed Church,302 Ocean Ave,Massapequa,NY,11758
Presbyterian Community Church,150 Pittsburgh Ave,Massapequa,NY,11758
Massapequa Church Of God,890 Hicksville Rd,Massapequa,NY,11758
Our Lady of Lourdes Church,855 Carmans Rd,Massapequa Park,NY,11762
Massapequa Park Church Nazaren,65 Roosevelt Ave,Massapequa Park,NY,11762
St David's Lutheran Church,20 Clark Blvd,Massapequa Park,NY,11762
St Sylvester Rc Church,68 Ohio Ave,Medford,NY,11763
Holy Cross Catholic Church,95 Nichols Rd,Nesconset,NY,11767
Nesconset Christain Church,247 Smithtown Blvd,Nesconset,NY,11767
Trinity Episcopal Church,130 Main St,Northport,NY,11768
St Paul's Methodist Church,288 Main St,Northport,NY,11768
St Philip Neri Church,15 Prospect Ave,Northport,NY,11768
Abiding Presence Lutheran Chr,4 Trescott Path,Northport,NY,11768
B'Nai Israel Reform Temple,67 Oakdale Bohemia Rd,Oakdale,NY,11769
St Dominic Church,93 Anstice St,Oyster Bay,NY,11771
Christ Church Oyster Bay,61 E Main St,Oyster Bay,NY,11771
Temple Beth-El of Patchogue,45 Oak St,Patchogue,NY,11772
Lutheran Church-Our Saviour,231 Jayne Ave,Patchogue,NY,11772
Grace Gospel Church,214 Falcon Ave,Patchogue,NY,11772
Adams E Craig,503 Old North Ocean Ave,Patchogue,NY,11772
St Joseph the Worker Rc Chr,510 Narragansett Ave,East Patchogue,NY,11772
St Paul's Evangelical Lutheran,309 Route 112,Stark,NY,11776
Calvary Baptist Church,324 Jayne Blvd,Port Jefferson Station,NY,11776
Christ Church United Methodist,545 Old Town Rd,Port Jefferson Station,NY,11776
St Gerard Majella,300 Terryville Rd,Port Jefferson Station,NY,11776
North Shore Jewish Ctr,385 Old Town Rd,Port Jefferson Station,NY,11776
Greek Orthodox Church,430 Sheep Pasture Rd,Port Jefferson,NY,11777
First United Methodist Church,603 Main St,Port Jefferson,NY,11777
St Anthony of Paduas Church,614 Route 25a,Rocky Point,NY,11778
St Elizabeth Ann Seton Church,Portion Rd,Ronkonkoma,NY,11779
Holy Cross Lutheran Church,307 Hawkins Ave,Lake Ronkonkoma,NY,11779
St James Episcopal Church,490 Route 25a,St James,NY,11780
St James Lutheran Church,PO Box 3,St James,NY,11780
St James Methodist Church,532 Moriches Rd,St James,NY,11780
St Lawrence the Martyr Rc Chr,27 Handsome Ave,Sayville,NY,11782
St Ann's Episcopal Church,257 Middle Rd,Sayville,NY,11782
New Life Community Church,380 Lakeland Ave,Sayville,NY,11782
Sayville Congregational Church,131 Middle Rd,Sayville,NY,11782
Maria Regina Rc Church,3945 Jerusalem Ave,Seaford,NY,11783
St William the Abbot Church,2000 Jackson Ave,Seaford,NY,11783
Hope Lutheran Church,46 Dare Rd,Selden,NY,11784
St Anselm's Episcopal Church,55 N Country Rd,Shoreham,NY,11786
Byzantine Catholic Church,37 Juniper Ave,Smithtown,NY,11787
St Thomas-Canterbury Episcopal,90 Edgewater Ave,Smithtown,NY,11787
Smithtown United Methodist Chr,230 E Main St,Smithtown,NY,11787
Smithtown Gospel Tabernacle,1 Higbie Dr,Smithtown,NY,11787
A Sanctuary Of Infinite Spirit,34 River Rd,Smithtown,NY,11787
Calvary Lutheran Church,860 Townline Rd,Hauppauge,NY,11788
St Thomas More Rc Church,115 Kings Hwy,Hauppauge,NY,11788
Hauppauge Methodist Church,473 Townline Rd,Hauppauge,NY,11788
St Louis De Montfort Rc Chr,75 New York Ave,Sound Beach,NY,11789
Temple Isaiah,1404 Stony Brook Rd,Stony Brook,NY,11790
Church On the Sound,335 Oxhead Rd,Stony Brook,NY,11790
North Shore Synagogue,83 Muttontown Eastwoods Rd,Syosset,NY,11791
Faith Evangelical Lutheran Ch,231 Jackson Ave,Syosset,NY,11791
Community Church Of Syosset,36 Church St,Syosset,NY,11791
St John the Baptist Rc Church,1488 N Country Rd,Wading River,NY,11792
North Shore United Methodist,PO Box 555,Wading River,NY,11792
Wading River Congregational,PO Box 596,Wading River,NY,11792
St Frances De Chantal Church,1309 Wantagh Ave,Wantagh,NY,11793
Wantagh Baptist Church,1081 Wantagh Ave,Wantagh,NY,11793
St Jude Episcopal Church,3606 Lufberry Ave,Wantagh,NY,11793
Suburban Temple,2900 Jerusalem Ave,Wantagh,NY,11793
Wantagh Jewish Ctr,3710 Woodbine Ave,Wantagh,NY,11793
St Markella Greek Orthodox Ch,1960 Jones Ave N,Wantagh,NY,11793
Wantagh Memorial Church,1845 Wantagh Ave,Wantagh,NY,11793
Our Lady of Lourdes Rc Church,455 Hunter Ave,West Islip,NY,11795
Holy Family Ukrainian Catholic,471 Montauk Hwy,West Islip,NY,11795
Westminster United Prsbytrn,109 Udall Rd,West Islip,NY,11795
Gospel Community Church,54 Atlantic Ave,West Sayville,NY,11796
Town of Oyster Bay Chabad,678 Woodbury Rd,Woodbury,NY,11797
St Mark Church,PO Box 385,Woodbury,NY,11797
Our Lady of Miraculous Medal,1434 Straight Path,Wyandanch,NY,11798
Our Lady of Mercy Church,500 S Oyster Bay Rd,Hicksville,NY,11801
Holy Trinity Greek Orthodox,20 Field Ave,Hicksville,NY,11801
St Ignatius Loyola Rectory,129 Broadway,Hicksville,NY,11801
Hicksville Church of Christ,105 Broadway,Hicksville,NY,11801
St Stephen's Lutheran Church,270 S Broadway,Hicksville,NY,11801
L I Abundant Life Church,24 E Nicholai St,Hicksville,NY,11801
Church Of Scientology Of Li,64 Bethpage Rd,Hicksville,NY,11801
Afghan Hindu Temple,80 E Barclay St,Hicksville,NY,11801
St Pius X Church,1 Saint Pius Ct,Plainview,NY,11803
Korean United Methodist Church,992 Old Country Rd,Plainview,NY,11803
St Margaret Episcopal Church,1000 Washington Ave,Plainview,NY,11803
Manetto Hill Jewish Ctr,244 Manetto Hill Rd,Plainview,NY,11803
Temple Beth Elohim,926 Round Swamp Rd,Old Bethpage,NY,11804
St John the Evangelist Rc Chr,546 Saint Johns Pl,Riverhead,NY,11901
St Isidore's Catholic Church,622 Pulaski St,Riverhead,NY,11901
Riverhead United Methodist,204 E Main St,Riverhead,NY,11901
Our Redeemer Lutheran Church,PO Box 960,Aquebogue,NY,11931
Old Steeple Community Church,PO Box 154,Aquebogue,NY,11931
St Anns Episcopal Church,PO Box 961,Bridgehampton,NY,11932
St John the Evangelist Roman,25 Ocean Ave,Center Moriches,NY,11934
Center Moriches Methodist Chr,464 Main St,Center Moriches,NY,11934
Lamb's Chapel,PO Box 663,Center Moriches,NY,11934
Our Lady-Ostrabama Rc Church,PO Box 997,Cutchogue,NY,11935
Cutchogue United Methodist Chr,PO Box 1286,Cutchogue,NY,11935
St Luke Episcopal Church,18 James Ln,East Hampton,NY,11937
Jewish Centre of the Hamptons,PO Box 5107,East Hampton,NY,11937
Eastport Bible Church,386 Montauk Hwy,Eastport,NY,11941
St Agnes Church,523 Front St,Greenport,NY,11944
Holy Trinity Episcopal Church,PO Box 502,Greenport,NY,11944
St Rosalie's Church,31 E Montauk Hwy,Hampton Bays,NY,11946
Christ Our Saviour Lutheran,9 Terrace Dr,Hampton Bays,NY,11946
Roca De Salvation of Assembly,4 Bellows Pond Rd,Hampton Bays,NY,11946
Bayview Baptist Church,72 Neighborhood Rd,Mastic Beach,NY,11951
Holy Trinity Lutheran Church,PO Box 36,Middle Island,NY,11953
Middle Island Christian Church,271 Middle Country Rd,Middle Island,NY,11953
Middle Island Presbyterian Chr,PO Box 187,Middle Island,NY,11953
Our Lady of Poland Rc Church,35 Maple St,Southampton,NY,11968
Sacred Hearts of Jesus ,168 Hill St,Southampton,NY,11968
St Mark's Church,PO Box 887,Westhampton Beach,NY,11978
Beach United Methodist Church,41 Mill Rd,Westhampton Beach,NY,11978
Westhampton Presbyterian Chr,90 Meeting House Rd,Westhampton Beach,NY,11978
Berean Baptist Church,481 RT-146,Altamont,NY,12009
St Lucy's Church,PO Box 678,Altamont,NY,12009
Altamont Reformed Church Schl,PO Box 671,Altamont,NY,12009
Jehovah's Witnesses,6167 Depot Rd,Altamont,NY,12009
Girzone Father Joseph Father,1071 Joshua Ln,Altamont,NY,12009
Delanson Meth Church,12 Main St,Altamont,NY,12009
Altamont Co-op Preschool,129 Lincoln Ave,Altamont,NY,12009
Samaritan's Purse,2568 Western Ave,Altamont,NY,12009
St Casimir's Church,260 E Main St,Amsterdam,NY,12010
Calvary Assembly of God,200 E Main St,Amsterdam,NY,12010
Perth Bible Church,1863 County Highway 107,Amsterdam,NY,12010
Cranesville Reformed Church,105 Cranes Hollow Rd,Amsterdam,NY,12010
United Presbyterian Church,25 Church St,Amsterdam,NY,12010
St Henrys Church,PO Box 550,Averill Park,NY,12018
Church of the Covenant,PO Box 306,Averill Park,NY,12018
Our Lady of Grace Roman,73 Midline Rd,Ballston Lake,NY,12019
Hope Church,206 Greenfield Ave,Ballston Spa,NY,12020
Lutheran Church,1732 Helderberg Trl,Berne,NY,12023
Evangel Church,1425 Helderberg Trl,Berne,NY,12023
First Reformed Church of Berne,1664 Helderberg Trl,Berne,NY,12023
South Berne Congregational Chr,101 Church Rd,Berne,NY,12023
Church St Paul Lutheran,1728 Helderberg Trl,Berne,NY,12023
St Bernadette Church,1763 Helderberg Trl,Berne,NY,12023
Francis Jay,73 Francis Rd,Berne,NY,12023
Ministries Rock,96 Rock Rd,Berne,NY,12023
Calvary Episcopal Church,PO Box 41,Burnt Hills,NY,12027
Burnt Hills United Methodist,816 State Route 50,Burnt Hills,NY,12027
Sacred Heart Catholic Church,Catholic Way,Castleton-on-Hudson,NY,12033
St Paul's United Methodist,1583 Carney Rd,Castleton-on-Hudson,NY,12033
Emmanuel Reformed Church,1150 Maple Hill Rd,Castleton-on-Hudson,NY,12033
Bethany Evangelical Lutheran,PO Box 273,CENTRAL BRG,NY,12035
Cobleskill United Methodist,PO Box 118,Cobleskill,NY,12043
St Bernard Catholic Church,PO Box 137,Cohoes,NY,12047
St Joseph Catholic Church,65 Congress St,Cohoes,NY,12047
St Rita-Sacred Heart Parish,50 St Ritas Ln,Cohoes,NY,12047
St Johns Episcopal Church,247 Columbia St,Cohoes,NY,12047
United Church of Cohoes,123 Mohawk St,Cohoes,NY,12047
Sisters Of Mercy,300 Kenwood Ave,Delmar,NY,12054
St Stephen's Episcopal Church,16 Elsmere Ave,Delmar,NY,12054
Bethlehem Community Church,201 Elm Ave,Delmar,NY,12054
Delmar Full Gospel Church,282 Elsmere Ave,Delmar,NY,12054
Delmar Presbyterian Church,585 Delaware Ave,Delmar,NY,12054
Delmar Reformed Church,386 Delaware Ave,Delmar,NY,12054
First Church Of Christ,555 Delaware Ave,Delmar,NY,12054
Kendall Thomas A,1133 Delaware Tpke,Delmar,NY,12054
Unionville Reformed Church,1134 Delaware Tpke,Delmar,NY,12054
Saint Thomas Convent,13 Village Dr,Delmar,NY,12054
Daley James D,69 Murray Ave,Delmar,NY,12054
St Thomas Apostle Church,35 Adams Pl,Delmar,NY,12054
Deyss Larry A,32 Albin Rd,Delmar,NY,12054
Holy Spirit Church,667 Columbia Tpke,East Greenbush,NY,12061
New Life Assembly of God,PO Box 105,East Greenbush,NY,12061
St George's Episcopal Church,912 Route 146,Clifton Park Center,NY,12065
Clifton Park United Methodist,10 Old Plank Rd,Clifton Park,NY,12065
St Edward's Church,569 Clifton Park Center Rd,Clifton Park,NY,12065
Jonesville United Methodist,963 Main St,Clifton Park,NY,12065
Shenendehowa United Methodist,971 RT-146,Clifton Park,NY,12065
Harvest Church,303 Grooms Rd,Clifton Park,NY,12065
Christ Community Reformed Chr,1010 Route 146,Clifton Park,NY,12065
Esperance United Methodist Ch,PO Box 140,Esperance,NY,12066
St Cecilia Rectory,PO Box 837,Fonda,NY,12068
Fonda Reformed,PO Box 536,Fonda,NY,12068
Galway United Methodist Church,PO Box 303,Galway,NY,12074
Mt Moriah Ministries,PO Box 160,Glenmont,NY,12077
Solid Rock Church,1 Kenwood Ave,Glenmont,NY,12077
St Michaels Chapel,507 Route 9w,Glenmont,NY,12077
King's Chapel,440 Route 9w,Glenmont,NY,12077
Mt Moriah Academy,262 Route 9w,Glenmont,NY,12077
Glenmont Community Church,1 Chapel Ln,Glenmont,NY,12077
God's Heart Of Refuge,31 Retreat House Rd,Glenmont,NY,12077
St John Francis Regis Catholic,PO Box 234,Grafton,NY,12082
Salvation Army,28 Hamilton St,Guilderland,NY,12084
Grace Baptist Church,5958 State Farm Rd,Guilderland,NY,12084
St Boniface Episcopal Church,PO Box 397,Guilderland,NY,12084
Hamilton Union Presbyterian Ch,2291 Western Ave,Guilderland,NY,12084
Open Door Church,2333 Western Ave,Guilderland,NY,12084
Christ's Church- District,4 Charles Blvd,Guilderland,NY,12084
First Baptist Church,80 Main St,Hoosick Falls,NY,12090
First United Church,PO Box 243,Hoosick Falls,NY,12090
Johnsonville United Meth Ch,PO Box 12,Johnsonville,NY,12094
Calvary United Methodist Chr,15 Ridge Pl,Latham,NY,12110
Light of the World Christian,28 New Sparrowbush Rd,Latham,NY,12110
Assumption St Paul,PO Box 308,Mechanicville,NY,12118
Emmanuel United Church,516 Park Ave,Mechanicville,NY,12118
St Mark's Lutheran Church,PO Box 629,Middleburgh,NY,12122
St Catherine's Church,PO Box 311,Middleburgh,NY,12122
Nassau Reformed Church Office,PO Box 495,Nassau,NY,12123
Poestenkill Evangelical Luth,PO Box 267,Poestenkill,NY,12140
St Patricks,21 Main St,Ravena,NY,12143
Albany Teen Challenge,9 Faith Plz,Ravena,NY,12143
St John's Roman Catholic Chr,PO Box 256,Rensselaer,NY,12144
St Mary's of Clinton Heights,163 Columbia Tpke,Rensselaer,NY,12144
Blooming Grove Reformed Church,706 Bloomingrove Dr,Rensselaer,NY,12144
Faith Baptist Church,PO Box 206,Rexford,NY,12148
St Paul's Lutheran Chr,PO Box 491,Richmondville,NY,12149
Church of the Holy Trinity,PO Box 300,Schaghticoke,NY,12154
St Peter's Roman Catholic Chr,PO Box 519,Stillwater,NY,12170
Sacred Heart Rectory,PO Box 264,Tribes Hill,NY,12177
Tribes Hill Presbyterian Chr,General Delivery,Tribes Hill,NY,12177
Blessed Virgin Mary Ukranian,459 2nd St,Troy,NY,12180
Center Brunswick United Meth,990 Hoosick Rd,Troy,NY,12180
Fifth Avenue Ame Zion Church,189 5th Ave,Troy,NY,12180
Pawling Avenue United Meth Chr,520 Pawling Ave,Troy,NY,12180
Redeeming Love Gospel Church,42 Woodward Ave,Troy,NY,12180
Brunswick Church,42 White Church Ln,Troy,NY,12180
Oakwood Presbyterian Church,398 7th Ave,Troy,NY,12180
Agape Apostolic Chr Of Dlvrnc,3 Stone Arabia Dr,Troy,NY,12180
Bethel Baptist Church,PO Box 927,Troy,NY,12181
St Augustine Catholic Church,25 115th St,Troy,NY,12182
St Matthew's Church,25 Mountain View St,Voorheesville,NY,12186
Voorheesville First United,68 Maple Ave,Voorheesville,NY,12186
Frone John A,32 New Salem South Rd,Voorheesville,NY,12186
Camp Pinnacle,621 Pinnacle Rd,Voorheesville,NY,12186
Toole Arthur,2 Mountain View St,Voorheesville,NY,12186
Voorheesville First United Methodist Church,66 Maple Ave,Voorheesville,NY,12186
Temple Baptist Church,142 Lower New Town Rd,Waterford,NY,12188
St Mary's Church of Crescent,86 Church Hill Rd,Waterford,NY,12188
Sacred Heart of Mary Church,1511 6th Ave,Watervliet,NY,12189
St Peter Armenian Church,100 Troy Schenectady Rd,Watervliet,NY,12189
Christ Church of Watervliet,PO Box 346,Watervliet,NY,12189
Jermain Memorial Presbyterian,601 5th Ave,Watervliet,NY,12189
Albany Saranc Fellowship Chr,410 23rd St,Watervliet,NY,12189
Lloyd Rebeyro,72 Remley Ln,Westerlo,NY,12193
Lyon Donald,624 RT-143,Westerlo,NY,12193
Duchow Robert,607 RT-143,Westerlo,NY,12193
Trinity Lutheran Church,PO Box 419,West Sand Lake,NY,12196
W Sand Lake United Methodist,PO Box 452,West Sand Lake,NY,12196
Church of St Jude the Apostle,PO Box 347,Wynantskill,NY,12198
Sweet Pilgrim Baptist Church,PO Box 125,Albany,NY,12201
Union Missionary Baptist Chr,1 Morton Ave,Albany,NY,12202
Cathedral-Immaculate Conceptn,125 Eagle St,Albany,NY,12202
Walls Temple Ame Zion Church,27 Delaware St,Albany,NY,12202
Bellamy Sr Adell,7 Garland Ct,Albany,NY,12202
Ktc Meditation ,799 S Pearl St,Albany,NY,12202
Macbury C B,99 Slingerland St,Albany,NY,12202
St George Antiochian Orthodox,1 St George Pl,Albany,NY,12202
St Paul's Center,34 Boenau St,Albany,NY,12202
New Hope Assembly Of God,148 Dove St,Albany,NY,12202
New Horizons Christian Church,146 Catherine St,Albany,NY,12202
Hogan Michael,248 Elm St,Albany,NY,12202
St Joseph Cathedral Convent,93 Park Ave,Albany,NY,12202
Miller John U,53 Alexander St,Albany,NY,12202
Evangelical Protestant Church,82 Clinton St,Albany,NY,12202
Capital City Seventh Day,2 S Lake Ave,Albany,NY,12203
Morning Star Missionary Bapt,159 Quail St,Albany,NY,12203
First Lutheran Church Elca,646 State St,Albany,NY,12203
Mc Kownville United Methodist,1565 Western Ave,Albany,NY,12203
Cornerstone Christian Church,183 Schoolhouse Rd,Albany,NY,12203
Anderson Earl G,9 Kelly Ave,Albany,NY,12203
Christ King Church,16 Cornell Ave,Albany,NY,12203
Christ King School,20 Sumpter Ave,Albany,NY,12203
Church Of Scientology Mission,2021 Western Ave,Albany,NY,12203
Gerhardt Arthur H,6 Witte Rd,Albany,NY,12203
Speers Ralton M,5 Patricia Ave,Albany,NY,12203
Moore Lenon D,59 Rapp Rd,Albany,NY,12203
New Hope Assembly-god,13 Fay St,Albany,NY,12203
Smith Paul R,37 E Parkwood St,Albany,NY,12203
Shabbos House,320 Fuller Rd,Albany,NY,12203
Jewish Federation Of Nebraska Ny,184 Washington Avenue Ext,Albany,NY,12203
Call To Pray Ministries,10 Russell Rd,Albany,NY,12203
Religious Sisters Of Mercy,106 Tampa Ave,Albany,NY,12203
New Covenant Presbyterian Chr,916 Western Ave,Albany,NY,12203
Silverman Martin I,25 Colonial Ave,Albany,NY,12203
Rittberger Wm H,12 Holmes Dl,Albany,NY,12203
Rogers Rufus R,714 Western Ave,Albany,NY,12203
Malecki John J Reverend,790 Lancaster St,Albany,NY,12203
R ,40 N Main Ave,Albany,NY,12203
Morning Star Missionary Baptist Church,163 Quail St,Albany,NY,12203
Chiara Monte Anthony,465 State St,Albany,NY,12203
St Joan of Arc Parish Ctr,76 Menands Rd,Albany,NY,12204
Pine Grove United Methodist,1580 Central Ave,Albany,NY,12205
Nativity Of Mother Of God,617 Sand Creek Rd,Albany,NY,12205
Pineview Community Church,251 Washington Avenue Ext,Albany,NY,12205
Seed Of Abraham Messianic,265 New Karner Rd,Albany,NY,12205
Colonie Alliance Church,32 Lapham Dr,Albany,NY,12205
Colonie Community Church,1 Van Buren Ave,Albany,NY,12205
Empire Christian Center,1524 Central Ave,Albany,NY,12205
La Roca Inconmovible Church,19 Tremont St,Albany,NY,12205
Roessleville Presbyterian Chr,1 N Elmhurst Ave,Albany,NY,12205
Bhadrasen Yoga Center,1698 Central Ave,Albany,NY,12205
Firstlove Christian Fellowship,1762 Central Ave,Albany,NY,12205
Stees Ray,17 Delafield Dr,Albany,NY,12205
Hamilton Ernest W,13 Pine Ave,Albany,NY,12205
Colonie Life Center,31 Vly Rd,Albany,NY,12205
Myers Dm Rev,32 Cadillac Ave,Albany,NY,12205
Life Church TV-albany Campus,560 Sand Creek Rd,Albany,NY,12205
Morgan Arthur Pastor,12 Campagna Dr,Albany,NY,12205
Waldon John,424 Shaker Run,Albany,NY,12205
Blessed Sacrament Catholic Chr,607 Central Ave,Albany,NY,12206
Victory Christian Church,118 Quail St,Albany,NY,12206
Russian Church Of Albany,281 Washington Ave,Albany,NY,12206
Chapel House University-albany,1400 Washington Ave,Albany,NY,12206
First Unitarian Universalist,405 Washington Ave,Albany,NY,12206
Sisters Of Saint Joseph,410 Manning Blvd,Albany,NY,12206
Comithier L D,172 Brevator St,Albany,NY,12206
Cameron William Jr,28 Van Buren St,Albany,NY,12206
Macedonia Baptist Chr,172 N Allen St,Albany,NY,12206
Church Of Christ,30 N Russell Rd,Albany,NY,12206
Unity Church In Albany,21 King Ave,Albany,NY,12206
West End Presbyterian Church,585 Central Ave,Albany,NY,12206
House Of Restoration,539 Central Ave,Albany,NY,12206
Franciscan Mission Hse Daily,517 Washington Ave,Albany,NY,12206
Mount Pleasant Baptist Church Study,441 Washington Ave,Albany,NY,12206
Blessed Sacrament Shrine,279 Central Ave,Albany,NY,12206
All Nations Tabernacle,241 Central Ave,Albany,NY,12206
Trinity Worship Christian Daycare,35 Commerce Ave,Albany,NY,12206
Blessed Hope Worship Center,185 Central Ave,Albany,NY,12206
Church Of Jesus Christ,562 Clinton Ave,Albany,NY,12206
Star Of Bethlehem Church,513 Clinton Ave,Albany,NY,12206
Nelson Jr Esco,31 Quail St,Albany,NY,12206
Christian Memorial Church,381 Sheridan Ave,Albany,NY,12206
Albany Catholic Charities,340 1st St,Albany,NY,12206
Albany United Methodist,421 Clinton Ave,Albany,NY,12206
First Church in Albany,110 N Pearl St,Albany,NY,12207
St Catherine of Siena Chr Ofc,40 Hopewell St,Albany,NY,12208
St Teresa-Avila Grammar School,8 Hollywood Ave,Albany,NY,12208
Congregation Beth Abraham,380 Whitehall Rd,Albany,NY,12208
Congregation Beth Emeth,100 Academy Rd,Albany,NY,12208
St Sophia Greek Orthodox Chr,440 Whitehall Rd,Albany,NY,12208
Bethany Reformed Church,760 New Scotland Ave,Albany,NY,12208
Friends Meeting Of Albany,727 Madison Ave,Albany,NY,12208
Congregation Ohav Sholom,113 Krumkill Rd,Albany,NY,12208
Burns Minnie L,2 Collins Pl,Albany,NY,12208
B'nai Sholom Reform Cngrgtn,420 Whitehall Rd,Albany,NY,12208
Sisters Of Holy Name,606 Morris St,Albany,NY,12208
Sisters Of St Joseph,97 Woodlawn Ave,Albany,NY,12208
Dixon Robert W,335 Whitehall Rd,Albany,NY,12208
Magidson Beverly W Rabbi,178 Davis Ave,Albany,NY,12208
Morgan William,15 Prospect Ter,Albany,NY,12208
St Teresa Of Avila,435 New Scotland Ave,Albany,NY,12208
Rubin Israel,122 S Main Ave,Albany,NY,12208
Emmaus United Methodist Church,715 Morris St,Albany,NY,12208
Scully Sfo Shawn M Rev Rev,450 Ontario St,Albany,NY,12208
Fingerprint America,366 Quail St,Albany,NY,12208
Chinese Christian Church,901 Madison Ave,Albany,NY,12208
New Birth Christian Fellowship,879 Madison Ave,Albany,NY,12208
Crossroads Baptist Fellowship,820 Madison Ave,Albany,NY,12208
Church Of God Propecy,774 Madison Ave,Albany,NY,12208
Church Of Jesus Christ Of Lds,728 Madison Ave,Albany,NY,12208
Fink Ernest Rev,737 Madison Ave,Albany,NY,12208
Moore Rue,146 Dana Ave,Albany,NY,12208
Lutheran Church Holy Spirit,PO Box 9007,Albany,NY,12209
St Matthew Lutheran Church,"75 Whitehall Rd, #a",Albany,NY,12209
Bomzer Moshe E Rabbi,36 Victoria Way,Albany,NY,12209
Anglin David,208 Whitehall Rd,Albany,NY,12209
St Matthew School ,75 Whitehall Rd,Albany,NY,12209
Unification Church,107 Whitehall Rd,Albany,NY,12209
Union Missionary Baptist,26 Edgecomb St,Albany,NY,12209
Third Reformed Church,20 Ten Eyck Ave,Albany,NY,12209
Brewer Louis C,33 Marwill St,Albany,NY,12209
Hart Clarence,358 Leedale St,Albany,NY,12209
Graves Robert,4 Federal St,Albany,NY,12209
Silk Barbara,357 Delaware Ave,Albany,NY,12209
Lutheran Church Of-holy Spirit,57 Hurlbut St,Albany,NY,12209
Episcopal Diocese of Albany,68 S Swan St,Albany,NY,12210
Israel Ame Church,381 Hamilton St,Albany,NY,12210
Our Lady Of Angels Friary,20 Willett St,Albany,NY,12210
Holy Trinity National Catholic Chr,166 Jay St,Albany,NY,12210
Church Of God Saints Of Christ,153 Jay St,Albany,NY,12210
Welcome Chapel Missionary Bapt,124 Chestnut St,Albany,NY,12210
Good Shepherd Lutheran Church,2 Shaker El,Loudonville,NY,12211
Loudonville Community Church,374 Loudon Rd,Loudonville,NY,12211
Christs Church,PO Box 13055,Albany,NY,12212
Colonie Christian Life Ctr,PO Box 12273,Albany,NY,12212
St Andrew's Episcopal Church,50 Sacandaga Rd,Scotia,NY,12302
First Reformed Church,224 N Ballston Ave,Scotia,NY,12302
Church of the Immaculate Con,400 Saratoga Rd,Scotia,NY,12302
Lutheran Church of Good Shphrd,547 Saratoga Rd,Scotia,NY,12302
Scotia United Methodist Church,201 N Ten Broeck St,Scotia,NY,12302
East Glenville Community Chr,335 Saratoga Rd,Scotia,NY,12302
St Gabriel's Roman Catholic,3040 Hamburg St,Schenectady,NY,12303
St Madeleine Sophie Church,3500 Carman Rd,Schenectady,NY,12303
Carman United Methodist Church,2350 Hamburg St,Schenectady,NY,12303
Lynnwood Reformed Church,3714 Carman Rd,Schenectady,NY,12303
Mont Pleasant Reformed Church,1028 Ostrander Pl,Schenectady,NY,12303
Morrison Susan M,5162 Woodlawn Dr,Schenectady,NY,12303
Graham Marvin L,31 W Hite Ct,Schenectady,NY,12303
Shaw Cass L,7104 Suzanne Ln,Schenectady,NY,12303
Duncan Thomas Rev,627 Via Ponderosa,Schenectady,NY,12303
Lighthouse Baptist Church,2919 W Lydius St,Schenectady,NY,12303
Carman Road Alliance Church,3313 Carman Rd,Schenectady,NY,12303
Hudson Baptist Association,2810 Curry Rd,Schenectady,NY,12303
Open Arms Fellowship Church,2714 Curry Rd,Schenectady,NY,12303
Abounding Grace Christian Chr,3060 Hamburg St,Schenectady,NY,12303
St Luke's Catholic Church,1241 State St,Schenectady,NY,12304
Stanford United Methodist Ch,64 Eastholm Rd,Schenectady,NY,12304
Stanford United Methodist Chr,1569 State St,Schenectady,NY,12304
Lishakill Reformed Church,2131 Central Ave,Schenectady,NY,12304
State Street Presbyterian Chr,5 Catherine St,Schenectady,NY,12304
Agnes Lorenzo,2260 Carpenter Dr,Schenectady,NY,12304
City Mission Of Schenectady,425 Hamilton St,Schenectady,NY,12305
Trinity Reformed Church,705 Curry Rd,Schenectady,NY,12306
Spirit ,2020 Broadway,Schenectady,NY,12306
Broadway United Methodist Chr,2140 Broadway,Schenectady,NY,12306
Fisher United Methodist Church,1915 Helderberg Ave,Schenectady,NY,12306
Bellevue Reformed Church,2000 Broadway,Schenectady,NY,12306
Christ Church Of Hills,4809 Mariaville Rd,Schenectady,NY,12306
Bethel Full Gospel Assembly,3669 Guilderland Ave,Schenectady,NY,12306
Ballston Lake Baptist Church,1 Edward Dr,Schenectady,NY,12306
Schenectady Seventh Day Advent,1413 Quackenbush Rd,Schenectady,NY,12306
Mt Olivet Missionary Baptist,809 Strong St,Schenectady,NY,12307
Christ Church Episcopal,970 State St,Schenectady,NY,12307
Afghan Islamic Center,89 N Brandywine Ave,Schenectady,NY,12307
New Hope Gospel Fellowship,3 Morris Ave,Schenectady,NY,12308
Congregation Beth Israel,2195 Eastern Pky,Schenectady,NY,12309
St Helen's Church,1803 Union St,Schenectady,NY,12309
Congregation Agudat Achim,2117 Union St,Schenectady,NY,12309
Congregation Gates of Heaven,852 Ashmore Ave,Schenectady,NY,12309
Eastern Parkway Methodist Chr,943 Palmer Ave,Schenectady,NY,12309
St Luke's Episcopal Church,PO Box 507,Beacon,NY,12508
St John's Episcopal Church,PO Box 477,Cornwall,NY,12518
Cornwall United Methodist Chr,196 Main St,Cornwall,NY,12518
St Charles Church,PO Box 9,Dover Plains,NY,12522
Fishkill Baptist Church,107 RT-82,Fishkill,NY,12524
Lutheran Church Our Savior,1400 Route 52,Fishkill,NY,12524
Fishkill United Methodist Chr,PO Box 419,Fishkill,NY,12524
Oasis,PO Box 425,Fishkill,NY,12524
St Denis Church,PO Box 10,HOPEWELL JCT,NY,12533
Hyde Park Baptist Church,10 Romans Rd,Hyde Park,NY,12538
Hyde Park Methodist Church,1 Church St,Hyde Park,NY,12538
Reach Out Family Worship Ctr,PO Box 2035,Hyde Park,NY,12538
Blessed Kateri Church,1810 Route 82,Lagrangeville,NY,12540
Full Gospel Ctr,PO Box 94,Lagrangeville,NY,12540
Freedom Plains Presbyterian,PO Box 400,Lagrangeville,NY,12540
Grace Church,PO Box 366,Millbrook,NY,12545
Lyall Memorial Federated Chr,PO Box 426,Millbrook,NY,12545
Brick Reformed Church,PO Box 114,Montgomery,NY,12549
Goodwill Evangelical Presbytrn,2117 RT-208,Montgomery,NY,12549
Agape Full Gospel Fellowship,24 Hill Ave,Montgomery,NY,12549
St Francis of Assisi,145 Benkard Ave,Newburgh,NY,12550
Moulton Memorial Baptist Chr,PO Box 2715,Newburgh,NY,12550
Mt Carmel Church of Christ,18 Plattekill Tpke,Newburgh,NY,12550
Leptondale Bible Church,1771 Route 300,Newburgh,NY,12550
Congregation Agudas Israel,290 North St,Newburgh,NY,12550
Temple Beth Jacob,344 Gidney Ave,Newburgh,NY,12550
Gardnertown United Methodist,1191 Union Ave,Newburgh,NY,12550
Trinity United Methodist,1 Owens Rd,Newburgh,NY,12550
Soul Saving Station,120 N Miller St,Newburgh,NY,12550
Calvary Presbyterian Church,120 South St,Newburgh,NY,12550
Meadow Hill Reformed Church,211 Fletcher Dr N,Newburgh,NY,12550
Newburgh Assembly Of God,7 Dalfonso Rd,Newburgh,NY,12550
Dominican Sisters Of Hope,320 Powell Ave,Newburgh,NY,12550
A M E Zion Church,230 Montgomery St,Newburgh,NY,12550
King of Kings Lutheran Church,543 Union Ave,New Windsor,NY,12553
Solid Rock Church of God,20 Holloran Rd,New Windsor,NY,12553
Christ Church On Quaker Hill,17 Church Rd,Pawling,NY,12564
Pine Bush United Methodist Chr,PO Box 238,Pine Bush,NY,12566
Affirmative Evangelism Fllwshp,211 Fleury Rd,Pine Bush,NY,12566
St Christophers Church,7411 S Broadway,Red Hook,NY,12571
St John's Reformed Church,126 Old Post Rd N,Red Hook,NY,12571
Church of the Messiah Epscpl,PO Box 248,Rhinebeck,NY,12572
Rhinebeck Reformed Church,6368 Mill St,Rhinebeck,NY,12572
Most Precious Blood Parish,42 Walnut St,Walden,NY,12586
Bethel Missionary Baptist Chr,PO Box 354,Wappingers Falls,NY,12590
Beulah Baptist Church,92 Catharine St,Poughkeepsie,NY,12601
Vassar Temple,140 Hooker Ave,Poughkeepsie,NY,12601
First Evangelical Lutheran Chr,327 Mill St,Poughkeepsie,NY,12601
Smith Metropolitan Ame Zion,62 Cottage St,Poughkeepsie,NY,12601
John 3-16 Christian Ctr,PO Box 1662,Poughkeepsie,NY,12601
Bethel Church of God in Christ,91 Hooker Ave,Poughkeepsie,NY,12601
A Advanced Satellite Television,119 Parker Ave,Poughkeepsie,NY,12601
St Martin De Porres Church,118 Cedar Valley Rd,Poughkeepsie,NY,12603
Korean Church,38 Jackson Rd,Poughkeepsie,NY,12603
Temple Beth-El,118 N Grand Ave,Poughkeepsie,NY,12603
Poughkeepsie United Meth Chr,2381 New Hackensack Rd,Poughkeepsie,NY,12603
Calvary Chapel,36 Firemens Way,Poughkeepsie,NY,12603
Kimisis Greek Orthodox Church,140 S Grand Ave,Poughkeepsie,NY,12603
Faith Assembly of God,254 Spackenkill Rd,Poughkeepsie,NY,12603
First Assembly Of God,12 Old Greenville Tpke,Port Jervis,NY,12771
1St Presbyterian Chr-pt Jervis,60 Sussex St,Port Jervis,NY,12771
St Alphonsus Church,4 Crandall St,Glens Falls,NY,12801
Church of the Messiah,296 Glen St,Glens Falls,NY,12801
Presbyterian Church First,8 W Notre Dame St,Glens Falls,NY,12801
St Michaels Church,80 Saratoga Ave,South Glens Falls,NY,12803
Pine Knolls Alliance Church,614 Gansevoort Rd,South Glens Falls,NY,12803
St Andrew's Lutheran Church,600 Gansevoort Rd,South Glens Falls,NY,12803
Abiding Life Christian Church,6 Professional Way,South Glens Falls,NY,12803
Abraham C Michael Father,5 McHugh St,South Glens Falls,NY,12803
Chr of Our Lady of Annunicatn,448 Aviation Rd,Queensbury,NY,12804
Harrisena Community Church,1616 Ridge Rd,Queensbury,NY,12804
Queensbury Church Of Christ,357 Aviation Rd,Queensbury,NY,12804
Argyle United Presbyterian Chr,PO Box 66,Argyle,NY,12809
Gateway Pentecostal Church,PO Box 283,Corinth,NY,12822
Aldridge John R Rev ,203 Palmer Ave,Corinth,NY,12822
Adamsville Baptist Church,2091 County Route 43,Fort Edward,NY,12828
Centenary United Methodist Chr,22 Church St,Greenwich,NY,12834
St Clements Rc Church,231 Lake Ave,Saratoga Springs,NY,12866
Bethesda Episcopal Church,41 Washington St,Saratoga Springs,NY,12866
Saratoga Abundant Life Church,2325 Route 50 S,Saratoga Springs,NY,12866
Presbyterian New England,PO Box 582,Saratoga Springs,NY,12866
Quaker Springs United Meth Chr,51 Church St,Schuylerville,NY,12871
Old Saratoga Reformed Church,48 Pearl St,Schuylerville,NY,12871
St Cecilias Catholic Church,99 Main St,Warrensburg,NY,12885
First United Meth Chr,3890 Main St,Warrensburg,NY,12885
Methodist Church First United,42 King St,Warrensburg,NY,12885
Our Lady of Hope,9 Wheeler Ave,Whitehall,NY,12887
Holy Family,85 North St,Auburn,NY,13021
Second Baptist Church,1 N Herman Ave,Auburn,NY,13021
St Alphonsus Rectory,10 S Lewis St,Auburn,NY,13021
St Hyacinth's Church,61 Pulaski St,Auburn,NY,13021
Baldwinsville First United,17 W Genesee St,Baldwinsville,NY,13027
Lysander United Meth Parish,9100 Prine Rd,Baldwinsville,NY,13027
Word of Life Assembly of God,PO Box 86,Baldwinsville,NY,13027
St Agnes Roman Catholic Church,5472 Miller Rd,Brewerton,NY,13029
Brewerton United Methodist Chr,PO Box 879,Brewerton,NY,13029
St Francis Church,PO Box 550,Bridgeport,NY,13030
Bridgeport United Methodist,PO Box 673,Bridgeport,NY,13030
St Joseph's Church of Camillus,5600 W Genesee St,Camillus,NY,13031
St Michael's Lutheran Church,5108 W Genesee St,Camillus,NY,13031
Immanuel United Methodist Chr,PO Box 335,Camillus,NY,13031
St Peter's Episcopal Church,10 Mill St,Cazenovia,NY,13035
St James Roman Catholic Church,6 Green St,Cazenovia,NY,13035
Cazenovia Presbyterian Church,PO Box 306,Cazenovia,NY,13035
St Michael's Church,PO Box 514,Central Square,NY,13036
Caughdenoy United Methodist,3 County Route 37,Central Square,NY,13036
Central Square United Meth Chr,PO Box 627,Central Square,NY,13036
Chittenango United Methodist,205 Falls Blvd,Chittenango,NY,13037
Cicero United Methodist Church,PO Box 1087,Cicero,NY,13039
Believers' Chapel,7912 Thompson Rd,Cicero,NY,13039
Immanuel Lutheran Church,4947 RT-31,Clay,NY,13041
Calvary Church,PO Box 2400,Clay,NY,13041
Abundant Life Christian Ctr,7000 All Nations Blvd,East Syracuse,NY,13057
Church of the Resurrection,7125 Collamer Rd,East Syracuse,NY,13057
St Matthews Church,229 W Yates St,East Syracuse,NY,13057
First United Church-E Syracuse,6641 Franklin Park Dr,East Syracuse,NY,13057
United Church of Fayetteville,310 E Genesee St,Fayetteville,NY,13066
Fayetteville United Methodist,PO Box 158,Fayetteville,NY,13066
Christian ,1044 State Route 48,Fulton,NY,13069
All Saints Episcopal Church,PO Box 542,Fulton,NY,13069
United Church Of Christ,530 Maple Ave,Fulton,NY,13069
Holy Family-St Michaels Chr,45 W 4th St S,Fulton,NY,13069
Mt Pleasant United Methodist,2862 County Route 45,Fulton,NY,13069
State St United Methodist Chr,357 State St,Fulton,NY,13069
Our Lady of the Rosary,PO Box 185,Hannibal,NY,13074
Jamesville United Methodist Ch,PO Box 277,Jamesville,NY,13078
Jordan United Methodist Church,PO Box 916,Jordan,NY,13080
Immaculate Heart of Mary,425 Beechwood Ave,Liverpool,NY,13088
St Joseph the Worker,1001 Tulip St,Liverpool,NY,13088
Buckley Road Baptist Church,4962 Buckley Rd,Liverpool,NY,13088
Liverpool First United Meth,604 Oswego St,Liverpool,NY,13088
Liverpool First Presbyterian,603 Tulip St,Liverpool,NY,13088
St John's Church,8290 Soule Rd,Liverpool,NY,13090
Northside Baptist Church,7965 Oswego Rd,Liverpool,NY,13090
Liverpool Community Church,7570 Oswego Rd,Liverpool,NY,13090
Calvary Chapel of Syracuse,103 Grampian Rd,Liverpool,NY,13090
Redeemer Evangelical Covenant,7565 Morgan Rd,Liverpool,NY,13090
Eastern Hills Bible Church,"4500 Pewter Ln, #8",Manlius,NY,13104
Manlius United Meth Chr Office,PO Box 177,Manlius,NY,13104
St Francis Xavier Church,PO Box 177,Marcellus,NY,13108
Marcellus United Methodist Chr,1 Slocombe Ave,Marcellus,NY,13108
St Mary Star of the Sea Church,PO Box 487,Mexico,NY,13114
Our Lady of Perpetual Help,PO Box 236,Minetto,NY,13115
Minetto United Meth Chr,PO Box 217,Minetto,NY,13115
Minoa United Methodist Church,246 East Ave,Minoa,NY,13116
Christ United Methodist Church,PO Box 728,Moravia,NY,13118
South Onondaga United Meth Chr,4424 S Onondaga Rd,Nedrow,NY,13120
New Haven United Methodist Ch,PO Box 142,New Haven,NY,13121
St Joseph's Catholic Church,178 W 2nd St,Oswego,NY,13126
St Mary's Catholic Chr,PO Box 118,Oswego,NY,13126
St Paul's Catholic Chr,50 E Mohawk St,Oswego,NY,13126
Oswego Alliance Church,370 Thompson Rd,Oswego,NY,13126
Grace Evangelical Church,201 E 6th St,Oswego,NY,13126
Trinity United Methodist Ch,155 E 4th St,Oswego,NY,13126
Elim Grace Christian Church,PO Box 337,Oswego,NY,13126
United Methodist Church First,PO Box 344,Port Byron,NY,13140
St Frances Xavier Cabrini Chr,23 Niagara St,Pulaski,NY,13142
Red Creek United Methodist Chr,PO Box 186,Red Creek,NY,13143
St Mary's of the Lake,81 Jordan St,Skaneateles,NY,13152
Grace Chapel,1674 US-20,Skaneateles,NY,13152
Tully United Community Church,5872 Meeting-House Rd,Tully,NY,13159
St Leos ,PO Box 574,Tully,NY,13159
Oneida Free Methodist Church,PO Box 30,Wampsville,NY,13163
Warners United Methodist Chr,PO Box 127,Warners,NY,13164
New Morning Star Missionary,317 E Jefferson St,Syracuse,NY,13202
Cathedral of the Immaculate,259 E Onondaga St,Syracuse,NY,13202
St Paul's Cathedral,"310 Montgomery St, #1",Syracuse,NY,13202
Hopps Memorial Cme Church,1110 S State St,Syracuse,NY,13202
Park Central Presbyterian Chr,504 E Fayette St,Syracuse,NY,13202
Plymouth Congregational Church,232 E Onondaga St,Syracuse,NY,13202
Holy Trinity Rectory,501 Park St,Syracuse,NY,13203
St Peters Roman Catholic Chr,709 James St,Syracuse,NY,13203
St Stephen Lutheran Church,873 Dewitt St,Syracuse,NY,13203
Basilica Sacred Heart of Jesus,927 Park Ave,Syracuse,NY,13204
St Brigid ,318 Herkimer St,Syracuse,NY,13204
West Genesee United Methodist,1700 W Genesee St,Syracuse,NY,13204
First Christian Assembly,705 Hamilton St,Syracuse,NY,13204
New Jerusalem Church of God,1641 S Salina St,Syracuse,NY,13205
Tucker Missionary Baptist Chr,515 Oakwood Ave,Syracuse,NY,13205
St Anthony's,1515 Midland Ave,Syracuse,NY,13205
Peoples Ame Zion Church,PO Box 372,Syracuse,NY,13205
Evangelical Church of God,4325 S Salina St,Syracuse,NY,13205
Immanuel Temple Church of God,PO Box 6,Syracuse,NY,13205
Agnew David P,201 Garfield Ave,Syracuse,NY,13205
Eastwood Baptist Church,3212 James St,Syracuse,NY,13206
Reformed Church of Syracuse,1228 Teall Ave,Syracuse,NY,13206
Most Holy Rosary,111 Roberts Ave,Syracuse,NY,13207
Bellevue Heights United Meth,2112 S Geddes St,Syracuse,NY,13207
Living Water Church of God,121 Huron St,Syracuse,NY,13207
Onondaga Valley Presbyterian,275 W Seneca Tpke,Syracuse,NY,13207
God's Temple Of Faith,1501 South Ave,Syracuse,NY,13207
Southside Church Of Christ,1327 W Colvin St,Syracuse,NY,13207
Adams Jr Saml,146 E Bissell St,Syracuse,NY,13207
Our Lady of Pompei Church,301 Ash St,Syracuse,NY,13208
St John the Baptist,406 Court St,Syracuse,NY,13208
Gethsemane United Methodist,1700 Butternut St,Syracuse,NY,13208
Friedens E ,1501 Lodi St,Syracuse,NY,13208
Our Lady of Peace Church,203 Halcomb St,Syracuse,NY,13209
St Cecilia Roman Catholic Chr,1001 Woods Rd,Syracuse,NY,13209
North Syracuse Christian Chr,Church St,Syracuse,NY,13209
Christ Community United Meth,3474 Stiles Rd,Syracuse,NY,13209
Solvay United Methodist Church,206 Center St,Syracuse,NY,13209
Temple Society of Concord,910 Madison St,Syracuse,NY,13210
Rockefeller United Methodist,350 Nottingham Rd,Syracuse,NY,13210
Korean Church Of Syracuse,1800 E Genesee St,Syracuse,NY,13210
St Margaret's Church,203 Roxboro Rd,Mattydale,NY,13211
Pitcher Hill Community Church,605 Bailey Rd,Syracuse,NY,13212
North Syracuse Baptist Church,PO Box 187,North Syracuse,NY,13212
Luther Memorial Nursery School,435 S Main St,North Syracuse,NY,13212
Holy Cross Church,"4112 E Genesee St, #1",De Witt,NY,13214
St David's Episcopal Church,PO Box 261,Syracuse,NY,13214
De Witt Community Church,3600 Erie Blvd E,De Witt,NY,13214
St Michaels Roman Catholic Chr,4782 W Seneca Tpke,Syracuse,NY,13215
St George Macedonian Eastern,5083 Onondaga Rd,Syracuse,NY,13215
Onondaga Hill Presbyterian Chr,4797 Makyes Rd,Syracuse,NY,13215
Seventh-Day Adventist Church,2511 W Genesee St,Syracuse,NY,13219
St Charles of Borromeo Church,417 S Orchard Rd,Syracuse,NY,13219
Grace Assembly of God,4220 Fay Rd,Syracuse,NY,13219
Fairmount Community Church,4801 W Genesee St,Syracuse,NY,13219
Robinson Memorial United Chr,126 S Terry Rd,Syracuse,NY,13219
Taunton Memorial United Presby,4326 Fay Rd,Syracuse,NY,13219
First Congregation Of Infinite,821 Salisbury Rd,Syracuse,NY,13219
Our Lady of Solace Church,516 Salt Springs Rd,Syracuse,NY,13224
St Joseph's Rectory,110 Charles St,Boonville,NY,13309
Boonville United Methodist Ch,202 Main St,Boonville,NY,13309
Abundant Life Fellowship,12644 State Route 12,Boonville,NY,13309
Abundant Life Cmnty Chr-camden,86 Mexico St,Camden,NY,13316
St Johns-St Marks Lutheran Chr,PO Box 275,Canajoharie,NY,13317
Ames-Sprout Brook Methodist,613 Latimer Hill Rd,Ames,NY,13317
Annunciation Church,7616 E South St,Clinton,NY,13323
Clinton United Methodist,105 Utica Rd,Clinton,NY,13323
Resurrection Assembly Of God,44 Kirkland Ave,Clinton,NY,13323
Methodist Church,PO Box 67,Earlville,NY,13332
St James Church,PO Box 287,Fort Plain,NY,13339
Fords Bush Bible Baptist Ch,PO Box 92,Fort Plain,NY,13339
Freys Bush United Methodist,PO Box 93,Fort Plain,NY,13339
Our Lady Queen of Apostle,408 S Frankfort St,Frankfort,NY,13340
Randallsville Baptist Church,1528 River Rd,Hamilton,NY,13346
St Anthony ,228 S Main St,Herkimer,NY,13350
Reformed Church of Herkimer,102 Church St,Herkimer,NY,13350
St Ann's Church,PO Box 59,Hinckley,NY,13352
St Leo's Church,PO Box 185,Holland Patent,NY,13354
First Methodist Church,36 2nd St,Ilion,NY,13357
Christ Lutheran Church,14 Petrie St,Little Falls,NY,13365
Emmanuel Episcopal Church,PO Box 592,Little Falls,NY,13365
Holy Trinity Evangelical Chr,512 E Gansevoort St,Little Falls,NY,13365
First Assembly of God,PO Box 419,Marcy,NY,13403
Maynard United Methodist Chr,PO Box 431,Marcy,NY,13403
St Joan's Church,PO Box 1087,Morrisville,NY,13408
St John the Evangelist,66 Oxford Rd,New Hartford,NY,13413
St Thomas Church,150 Clinton Rd,New Hartford,NY,13413
New Hartford First United Meth,105 Genesee St,New Hartford,NY,13413
Moravian Church of the Good,350 Higby Rd,New Hartford,NY,13413
New Hartford Presbyterian Chr,45 Genesee St,New Hartford,NY,13413
St John the Baptist Church,PO Box 475,Newport,NY,13416
St Mary's Roman Catholic Chr,201 Main St,New York Mills,NY,13417
Cornerstone Community Church,386 Main St,New York Mills,NY,13417
St Paul's United Methodist Chr,PO Box 296,Oneida,NY,13421
New Hope Christian Community,PO Box 115,Oneida,NY,13421
St Stephen's Church,PO Box 780,Oriskany,NY,13424
Remsen United Methodist Church,PO Box 304,Remsen,NY,13438
Transfiguration Church,111 Ridge St,Rome,NY,13440
St John's Evangelical Lutheran,502 W Chestnut St,Rome,NY,13440
Adas Israel Synagogue,705 Hickory St,Rome,NY,13440
St Paul Lutheran Church,32 W Main St,St Johnsville,NY,13452
Sauquoit United Methodist Chr,PO Box 101,Sauquoit,NY,13456
St Helena's Church,210 Primo Ave,Sherrill,NY,13461
Gethsemane Episcopal Church,320 Park St,Sherrill,NY,13461
Sherrill United Methodist Chr,417 Park St,Sherrill,NY,13461
Holy Family Church,PO Box 988,Vernon,NY,13476
St Peter's Lutheran Church,4897 Old Oneida Rd,Verona,NY,13478
Verona United Methodist Church,PO Box 125,Verona,NY,13478
St Joseph's Church,305 W Main St,West Winfield,NY,13491
Federated Church of W Winfield,PO Box 337,West Winfield,NY,13491
St Anne's Church,8539 Clark Mills Rd,Whitesboro,NY,13492
Whitesboro Presbyterian Chr,1 Elm St,Whitesboro,NY,13492
St Patricks Parish Ctr,PO Box 33,Williamstown,NY,13493
St Stanislaus Church,607 Nichols St,Utica,NY,13501
Tabernacle Baptist Church,13 Clark Pl,Utica,NY,13501
St Johns Catholic Church,240 Bleecker St,Utica,NY,13501
St Paul's Baptist Church,219 Leah St,Utica,NY,13501
Catholic Deaf Community,1119 Elm St,Utica,NY,13501
St Agnes Catholic Church,700 Kossuth Ave,Utica,NY,13501
Asbury United Methodist Church,932 Rutger St,Utica,NY,13501
Adair C H Reverend,811 John St,Utica,NY,13501
Westminster Presbyterian Chr,714 Washington St,Utica,NY,13502
St Marks Church,440 Keyes Rd,Utica,NY,13502
Church of Our Lady of Lourdes,2 Barton Ave,Utica,NY,13502
Holy Trinity Catholic Church,1206 Lincoln Ave,Utica,NY,13502
St Joseph ,702 Columbia St,Utica,NY,13502
St Peters Catholic Church,422 Coventry Ave,Utica,NY,13502
St Vladimir Ukrainian Catholic,296 Genesee St,Utica,NY,13502
Soul's Harbor Pentecostal Chr,215 Leland Ave,Utica,NY,13502
Plymouth Bethesda United Chr,500 Plant St,Utica,NY,13502
Mount Zion Ministries,PO Box 525,Utica,NY,13503
St Anthony's Catholic Church,PO Box 4156,Utica,NY,13504
Slavic Pentecostal Church,PO Box 4185,Utica,NY,13504
St Margaret Mary's Church,1110 Pennsylvania Ave,Apalachin,NY,13732
Park Terrace United Methodist,18 Brookside Ave E,Apalachin,NY,13732
Mc Kendree United Methodist,224 Owego St,Candor,NY,13743
Castle Creek United Meth Ch,PO Box 63,Castle Creek,NY,13744
Chenango Bridge United Meth,PO Box 501,CHENANGO BRIDGE,NY,13745
North Fenton Methodist Church,1 Brookside Ln,Chenango Forks,NY,13746
Little White Church,PO Box 100,Conklin,NY,13748
Conklin First Presbyterian Chr,PO Box 151,Conklin,NY,13748
St Ambrose Church,203 Washington Ave,Endicott,NY,13760
St Paul's Episcopal Church,200 Jefferson Ave,Endicott,NY,13760
St Peter ,210 Hill Ave,Endicott,NY,13760
Christ the King Church,1501 Davis Ave,Endwell,NY,13760
Church of the Nazarene,1385 Union Center Maine Hwy,Endicott,NY,13760
Our Lady of Angels Catholic Ch,3600 Phyllis St,Endwell,NY,13760
Endwell United Methodist Chr,3301 Watson Blvd,Endwell,NY,13760
Holy Nativity Lutheran Church,312 E Main St,Endicott,NY,13760
Union Center United Methodist,128 Maple Dr,Endicott,NY,13760
Lutheran Church Our Saviour,PO Box 8623,Endwell,NY,13762
Northminster Presbyterian Chr,PO Box 8655,Endwell,NY,13762
Union Center Christian Church,PO Box 5563,Endicott,NY,13763
All Saints National Cath Chrch,42 Harry L Dr,Johnson City,NY,13790
St Paul's Lutheran Church Elca,500 Main St,Johnson City,NY,13790
Sarah Jane Johnson Memorial,308 Main St,Johnson City,NY,13790
St John's Ukranian Orth Church,"1 Saint Johns Pky, #o",Johnson City,NY,13790
Most Holy Rosary Church,PO Box 248,Maine,NY,13802
Nichols United Methodist Chr,PO Box 84,Nichols,NY,13812
First Baptist Church-Owego,228 Main St,Owego,NY,13827
A New Hope Center,108 Green St,Owego,NY,13827
Abide In Vine Fellowship,1277 Taylor Rd,Owego,NY,13827
Twin Orchards Baptists Church,3701 Old Vestal Rd,Vestal,NY,13850
Our Lady of Sorrows,157 Clark St,Vestal,NY,13850
Valleyview Alliance Church,11 Foster Rd,Vestal,NY,13850
Christ the King Lutheran Chr,499 Plaza Dr,Vestal,NY,13850
Vestal Center Methodist Church,478 W Hill Rd,Vestal,NY,13850
Vestal United Methodist Church,328 Main St,Vestal,NY,13850
Whitney Point United Meth Chr,PO Box 739,Whitney Point,NY,13862
First Church Of Nazarene,1282 Chenango St,Binghamton,NY,13901
Central Baptist Church,1606 RT-12,Binghamton,NY,13901
Community Baptist Church,743 Chenango St,Binghamton,NY,13901
St Catherines Rectory,1031 Chenango St,Binghamton,NY,13901
St Mary of the Assumption,37 Fayette St,Binghamton,NY,13901
Centenary-Chenango Street Chr,438 Chenango St,Binghamton,NY,13901
St Andrews Church,356 Conklin Ave,Binghamton,NY,13903
St John Evangelist Church,1263 Vestal Ave,Binghamton,NY,13903
Conklin Forks United Methodist,4420 Brady Hill Rd,Binghamton,NY,13903
Hawleyton United Methodist Chr,901 Hawleyton Rd,Binghamton,NY,13903
High St United Methodist Chr,1290 Vestal Ave,Binghamton,NY,13903
Fairview United Methodist Chr,252 Robinson St,Binghamton,NY,13904
St Cyril ,148 Clinton St,Binghamton,NY,13905
Trinity Memorial Church,44 Main St,Binghamton,NY,13905
Temple Concord Reform,9 Riverside Dr,Binghamton,NY,13905
Lutheran Church-Redeemer,72 Main St,Binghamton,NY,13905
Boulevard United Methodist Chr,113 Grand Blvd,Binghamton,NY,13905
Choconut Center United Meth,5 Lewis Rd,Binghamton,NY,13905
Nimmonsburg United Methodist,918 Upper Front St,Binghamton,NY,13905
Tabernacle United Methodist,83 Main St,Binghamton,NY,13905
Holy Spirit Byzantine Catholic,360 Clinton St,Binghamton,NY,13905
St Michael's Greek Catholic,280 Clinton St,Binghamton,NY,13905
Aerie Cliff ,29 Vermont Ave,Binghamton,NY,13905
St Teresa's Roman Catholic Chr,5771 Buell St,Akron,NY,14001
St Michael Lutheran Church,6379 Wolcottsville Rd,Akron,NY,14001
Akron Free Methodist Parsonage,18 Scotland Rd,Akron,NY,14001
St John's Roman Catholic,2021 Sandridge Rd,Alden,NY,14004
Town Line Lutheran Church,1159 Town Line Rd,Alden,NY,14004
Presbyterian Church of Alden,13298 Broadway St,Alden,NY,14004
Alden Community Church,1400 Sullivan Rd,Alden,NY,14004
Alden United Methodist Church,13242 Broadway St,Alden,NY,14004
Alden Mennonite Church,923 Two Rod Rd,Alden,NY,14004
Alexander United Methodist Chr,10540 Main St,Alexander,NY,14005
St John Lutheran Church,962 Gold St,Angola,NY,14006
First Congregational United,PO Box 231,Angola,NY,14006
St Francis of Assisi Church,PO Box 182,Athol Springs,NY,14010
St Patricks Catholic Church,1726 Quaker Rd,Barker,NY,14012
Free Methodist Church,350 Bank St,Batavia,NY,14020
Batavia Assembly of God,24 N Spruce St,Batavia,NY,14020
St John the Baptist Rc Chr,6895 Boston Cross Rd,Boston,NY,14025
Faith United Church of Christ,8651 Boston State Rd,Boston,NY,14025
Churchill Memorial Methodist,PO Box 155,Boston,NY,14025
Our Lady of Mount Carmel Chr,PO Box 225,Brant,NY,14027
Our Lady of Peace Rc Church,10950 Main St,Clarence,NY,14031
Clarence United Methodist Chr,10205 Greiner Rd,Clarence,NY,14031
Clarence Church of Christ,5375 Old Goodrich Rd,Clarence,NY,14031
Faith Fellowship Church,11478 Main St,Clarence,NY,14031
Clarence First Presbyterian,9675 Main St,Clarence,NY,14031
Zion Lutheran Church,PO Box 235,Clarence Center,NY,14032
Clarence Center United Meth,9750 Clarence Center Rd,Clarence Center,NY,14032
New Hope Presbyterian Church,6969 Strickler Rd,Clarence Center,NY,14032
Redeemer Lutheran Church,8740 Supervisor Ave,Colden,NY,14033
Saint Frances Cabrinin Rc Chr,PO Box 332,COLLINS CTR,NY,14035
North Darien Baptist Church,9762 Simonds Rd,Corfu,NY,14036
Indian Falls Methodist Church,7908 Alleghany Rd,Corfu,NY,14036
Our Lady of Blessed Sacrament,10 French Rd,Depew,NY,14043
St Augustine Roman Catholic,425 Penora St,Depew,NY,14043
Lord of Life Lutheran Church,1025 Borden Rd,Depew,NY,14043
First Church of Evans,PO Box 364,Derby,NY,14047
First Church Of Evans,7431 Erie Rd,Derby,NY,14047
Apostolic House Of Prayer,212 Park Ave,Dunkirk,NY,14048
Grace Evangelical Lutheran Chr,743 Eagle St,Dunkirk,NY,14048
Trinity Evangelical Lutheran,8760 Transit Rd,East Amherst,NY,14051
Amherst Church Of Christ,8285 Transit Rd,East Amherst,NY,14051
Immaculate Conception Rc,520 Oakwood Ave,East Aurora,NY,14052
St Matthias Episcopal Church,374 Main St,East Aurora,NY,14052
Wesleyan Church,364 Main St,East Aurora,NY,14052
Nativity Lutheran Church,970 Main St,East Aurora,NY,14052
St Nicodemus Lutheran Church,12029 Liberia Rd,East Aurora,NY,14052
Baker Memorial Methodist Chr,345 Main St,East Aurora,NY,14052
Crossroads Christian Church,1050 Girdle Rd,East Aurora,NY,14052
First Presbyterian Church-East,9 Paine St,East Aurora,NY,14052
Agape Bible Fellowship,598 Buffalo Rd,East Aurora,NY,14052
St Marys Roman Catholic Church,5107 Langford Rd,Eden,NY,14057
Eden United Methodist Church,2820 E Church St,Eden,NY,14057
St John's United Church,2871 E Church St,Eden,NY,14057
Our Lady of Fatima,PO Box 185,Elba,NY,14058
St Gabriels Roman Catholic Chr,5271 Clinton St,Elma,NY,14059
Elma United Methodist Church,2991 Bowen Rd,Elma,NY,14059
Calvary Chapel Of Niagara,2090 Bowen Rd,Elma,NY,14059
St Anthony's Roman Catholic,PO Box A9,Farnham,NY,14061
St Anthony's Church,66 Cushing St,Fredonia,NY,14063
St Joseph Parish,145 E Maple Ct,Fredonia,NY,14063
Laona United Methodist Church,9636 Wilson Rd,Fredonia,NY,14063
Fredonia Assembly Of God,8 White St,Fredonia,NY,14063
Hartland United Methodist Chr,8019 Ridge Rd,Gasport,NY,14067
Covenant United Chr of Christ,PO Box 348,Gasport,NY,14067
St Pius the X Church,PO Box 162,Amherst,NY,14068
Whitehaven Road Baptist,1290 Whitehaven Rd,Grand Island,NY,14072
St Stephens Rc Church,2100 Baseline Rd,Grand Island,NY,14072
St Martin-Fields Episcopal Ch,2587 Baseline Rd,Grand Island,NY,14072
Old Time Baptist Church,PO Box 120,Hamburg,NY,14075
Wesleyan Church of Hamburg,4999 McKinley Pkwy,Hamburg,NY,14075
All Saints Lutheran Church,6065 S Park Ave,Hamburg,NY,14075
Hamburg United Methodist Chr,116 Union St,Hamburg,NY,14075
St James United Church,76 Main St,Hamburg,NY,14075
St Matthew's United Church,5289 McKinley Pky,Hamburg,NY,14075
Wayside United Presbyterian,5017 Lake Shore Rd,Hamburg,NY,14075
Wesleyan Church Of Hamburg,4999 McKinley Pky,Hamburg,NY,14075
Aladdin Fellowship,20 Main St,Hamburg,NY,14075
St Joseph's,46 N Main St,Holland,NY,14080
St Mary's of the Lake Ccd,5401 Lake Shore Rd,Hamburg,NY,14085
Southtowns Christian Ctr,PO Box 10,Lake View,NY,14085
Buffalo Suburban Adventist,5580 Genesee St,Lancaster,NY,14086
Holy Mother-Rosary Cathedral,5776 Broadway St,Lancaster,NY,14086
Our Lady of Pompeii Church,158 Laverack Ave,Lancaster,NY,14086
St Mary of of the Assumption,1 Saint Marys Hl,Lancaster,NY,14086
Love Joy Gospel Church,5423 Genesee St,Lancaster,NY,14086
Lancaster Presbyterian Church,5461 Broadway St,Lancaster,NY,14086
Niagara Frontier Bible,5287 Bronson Dr,Lewiston,NY,14092
First English Lutheran Church,185 Locust St,Lockport,NY,14094
Emmanuel United Methodist Chr,75 East Ave,Lockport,NY,14094
St Patrick Roman Catholic Chr,76 Church St,Lockport,NY,14094
Lockport Alliance Church,555 Davison Rd,Lockport,NY,14094
Community Bible Church,4168 Church Rd,Lockport,NY,14094
Mt Olive Lutheran Church,6965 Chestnut Ridge Rd,Lockport,NY,14094
Warrens Corners Methodist Chr,5293 Stone Rd,Lockport,NY,14094
Victory Christian Ctr,120 Main St,Lockport,NY,14094
Yates Baptist Church,PO Box 497,Lyndonville,NY,14098
Lyndonville United Methodist,102 N Main St,Lyndonville,NY,14098
Lyndonville Presbyterian Chrch,PO Box 493,Lyndonville,NY,14098
Marilla United Methodist Chr,1910 Two Rod Rd,Marilla,NY,14102
Sacred Heart Roman Catholic,208 Ann St,Medina,NY,14103
St Mary's Roman Catholic,211 Eagle St,Medina,NY,14103
Oak Orchard Assembly of God,12111 Ridge Rd,Medina,NY,14103
Alabama Full Gospel Fellowship,5329 S Gravel Rd,Medina,NY,14103
St Stephens Roman Catholic Chr,21 Vernon St,Middleport,NY,14105
Middleport United Methodist,5 Park Ave,Middleport,NY,14105
Faith Lutheran Church,2730 Transit Rd,Newfane,NY,14108
Newfane United Methodist Chr,PO Box 69,Newfane,NY,14108
Grace Bible Church,PO Box 129,Newfane,NY,14108
St Vincent's Roman Catholic,PO Box 114,North Evans,NY,14112
North Presbyterian Church,168 Payne Ave,North Tonawanda,NY,14120
Ascension Roman Catholic Chr,168 Robinson St,North Tonawanda,NY,14120
Our Lady Czestochowa Church,64 Center Ave,North Tonawanda,NY,14120
St Albert Great Rc Church,1520 Kingston Ave,North Tonawanda,NY,14120
Payne Ave Christian Church,PO Box 196,North Tonawanda,NY,14120
Abiding Savior Lutheran Church,1534 Ruie Rd,North Tonawanda,NY,14120
St Martin Lutheran Chr,322 Old Falls Blvd,North Tonawanda,NY,14120
St Matthew's Lutheran,875 Eggert Dr,North Tonawanda,NY,14120
St Paul's Evangical Lutheran,64 E Felton St,North Tonawanda,NY,14120
Pendleton Center United Method,6864 Campbell Blvd,North Tonawanda,NY,14120
St Paul's United Church,3921 Mapleton Rd,North Tonawanda,NY,14120
Abundant Life Assembly Of God,1001 E Robinson St,North Tonawanda,NY,14120
St Cecilia's Roman Catholic,56 Maple Ave,Oakfield,NY,14125
Presbyterian Oakfield Church,PO Box 186,Oakfield,NY,14125
St Charles Borromeo Church,PO Box 3,Olcott,NY,14126
St Bernadette's Rc Church,5930 S Abbott Rd,Orchard Park,NY,14127
St John Vianney Rc Chr,2950 Southwestern Blvd,Orchard Park,NY,14127
Orchard Park United Methodist,3700 N Buffalo St,Orchard Park,NY,14127
Orchard Park Community Church,7451 Quaker Rd,Orchard Park,NY,14127
Armor Bible Presbyterian Chr,5650 Powers Rd,Orchard Park,NY,14127
Orchard Park Presbyterian Chr,4369 S Buffalo St,Orchard Park,NY,14127
Abundant Life Baptist Church,5017 Baer Rd,Sanborn,NY,14132
Hope United Methodist Church,PO Box 304,Sanborn,NY,14132
St Peter Lutheran Church,6167 Walmore Rd,Sanborn,NY,14132
St Jude's Roman Catholic Chr,PO Box 267,Sardinia,NY,14134
Salem Lutheran Church,91 W Main St,Springville,NY,14141
Salem United Church of Christ,114 Morgan St,Tonawanda,NY,14150
St Francis Assisi Church,73 Adam St,Tonawanda,NY,14150
St Francis Of Assisi,144 Broad St,Tonawanda,NY,14150
St Edmund Rc Church,530 Ellicott Creek Rd,Tonawanda,NY,14150
St Timothy's,565 E Park Dr,Tonawanda,NY,14150
Kenmore Alliance Church,175 Bonnett Ave,Tonawanda,NY,14150
Temple Beth El-Greater Buffalo,2368 Eggert Rd,Tonawanda,NY,14150
First Trinity Lutheran Church,1570 Niagara Falls Blvd,Tonawanda,NY,14150
Tonawanda United Methodist Chr,221 Morgan St,Tonawanda,NY,14150
New Life Ctr United Pent Chr,80 Luksin Dr,Tonawanda,NY,14150
Unity Center Of Light,205 Yorkshire Rd,Tonawanda,NY,14150
St Bartholomew's Episcopal Chr,PO Box 265,Tonawanda,NY,14151
Bethesda Full Gospel,PO Box 64,Tonawanda,NY,14151
St George's Roman Church,74 Old Glenwood Rd,West Falls,NY,14170
Our Lady of the Rosary Roman,PO Box 116,Wilson,NY,14172
Exley United Methodist Church,PO Box 69,Wilson,NY,14172
St Bernards Catholic Church,218 Hinman St,Youngstown,NY,14174
Presbyterian Church-Youngstown,100 Church St,Youngstown,NY,14174
Holy Angels Church,348 Porter Ave,Buffalo,NY,14201
Immaculate Conception Roman,144 Edward St,Buffalo,NY,14201
St Anthony's of Padua Rc Chr,160 Court St,Buffalo,NY,14202
St Louis Rc Church,35 Edward St,Buffalo,NY,14202
St Paul's Episcopal Cathedral,128 Pearl St,Buffalo,NY,14202
St Michael's Church Rectory,651 Washington St,Buffalo,NY,14203
St John Baptist Church,184 Goodell St,Buffalo,NY,14204
First Shiloh Baptist Church,15 Pine St,Buffalo,NY,14204
Gethsemane Grape St Bapt Chr,55 Grape St,Buffalo,NY,14204
New Zion Baptist Church,318 High St,Buffalo,NY,14204
Durham Memorial Ame Zion,174 E Eagle St,Buffalo,NY,14204
Grtr Refuge Temple of Christ,943 Jefferson Ave,Buffalo,NY,14204
Pentecostal Temple Chr of God,618 Jefferson Ave,Buffalo,NY,14204
Zion Dominion Chr-God-Christ,360 Genesee St,Buffalo,NY,14204
Abundant Harvest Church Of God,318 Broadway St,Buffalo,NY,14204
Our Lady of Czestochowa,23 Willowlawn Pky,Buffalo,NY,14206
Precious Blood,140 Lewis St,Buffalo,NY,14206
St Casimir's Rc Church,160 Cable St,Buffalo,NY,14206
Visitation Catholic Church,1040 E Lovejoy St,Buffalo,NY,14206
St Nicholas Ukrainian Chr,308 Fillmore Ave,Buffalo,NY,14206
Grace Tabernacle-Church of God,539 William St,Buffalo,NY,14206
Trinity United Church-Christ,115 Gold St,Buffalo,NY,14206
St Josaphats Church,20 Peoria Ave,Cheektowaga,NY,14206
St Elizabeth's Church,986 Grant St,Buffalo,NY,14207
Riverside Baptist Church,346 Ontario St,Buffalo,NY,14207
All Saints Roman Catholic Ch,127 Chadduck Ave,Buffalo,NY,14207
Assumption Parish Religious Ed,435 Amherst St,Buffalo,NY,14207
St Florian Church,567 Hertel Ave,Buffalo,NY,14207
Ontario Street United Meth Chr,179 Ontario St,Buffalo,NY,14207
Victory Assembly Of God,688 Tonawanda St,Buffalo,NY,14207
Tried Stone Baptist Church,559 Woodlawn Ave,Buffalo,NY,14208
Zion Missionary Baptist Chr,179 E Ferry St,Buffalo,NY,14208
St Luke African Meth Episcopal,314 E Ferry St,Buffalo,NY,14208
Walls Memorial Ame Zion Chr,455 Glenwood Ave,Buffalo,NY,14208
Coldspring Church of God,107 Verplanck St,Buffalo,NY,14208
Agape A ,224 Northland Ave,Buffalo,NY,14208
Emmanuel Temple,PO Box 771,Buffalo,NY,14209
Calvary Cme Church,1007 Ellicott St,Buffalo,NY,14209
Lincoln Memorial United Meth,641 Masten Ave,Buffalo,NY,14209
Antioch Holiness Church,1461 Michigan Ave,Buffalo,NY,14209
Bethesda Revival Ctr Church,PO Box 852,Buffalo,NY,14209
Holy Apostles Sts Peter ,660 Smith St,Buffalo,NY,14210
St Jude Shrine,193 Elk St,Buffalo,NY,14210
St Rita ,102 Seymour St,Buffalo,NY,14210
St Teresa's Rc Church,1974 Seneca St,Buffalo,NY,14210
St Paul's United Chr of Christ,49 Indian Church Rd,Buffalo,NY,14210
Cedar Grove Baptist Church,878 Humboldt Pky,Buffalo,NY,14211
Hope Well Baptist Church,1307 Fillmore Ave,Buffalo,NY,14211
True Bethel Baptist Church,907 E Ferry St,Buffalo,NY,14211
St Marys of Sorrow Roman Chtlc,333 Guilford St,Buffalo,NY,14211
Resurrection Lutheran Church,3 Doat St,Buffalo,NY,14211
Metropolitan United Meth Chr,657 Best St,Buffalo,NY,14211
Evening Star Church of God,1552 Fillmore Ave,Buffalo,NY,14211
Epiphany United Church-Christ,2205 Genesee St,Buffalo,NY,14211
Free Spirit Baptist Church,60 Titus Ave,Buffalo,NY,14212
St Adalberts Basilica,212 Stanislaus St,Buffalo,NY,14212
St Anns Rc Church,491 Emslie St,Buffalo,NY,14212
St John Kanty Church,101 Swinburne St,Buffalo,NY,14212
St Stanislaus Roman Catholic,123 Townsend St,Buffalo,NY,14212
Annunciation Rc Church,18 Greenwood Pl,Buffalo,NY,14213
Coronation of Bvm Church,348 Dewitt St,Buffalo,NY,14213
Nativity of the Blessed Mary,20 Herkimer St,Buffalo,NY,14213
Blessed Trinity,317 Leroy Ave,Buffalo,NY,14214
Newman Center Suny/Ab South,3269 Main St,Buffalo,NY,14214
St Mark's Rc Church,401 Woodward Ave,Buffalo,NY,14214
Parkside Lutheran Church,2 Wallace Ave,Buffalo,NY,14214
Central Park United Meth Chr,216 Beard Ave,Buffalo,NY,14214
University Presbyterian Church,3334 Main St,Buffalo,NY,14214
University United Methodist,410 Minnesota Ave,Buffalo,NY,14215
Second Temple Missionary Bapt,PO Box 383,Buffalo,NY,14215
St Aloysius Gonzaga Rectory,157 Cleveland Dr,Buffalo,NY,14215
Cleveland Hill Lutheran Church,261 Cleveland Dr,Buffalo,NY,14215
Cleveland Hill United Meth Chr,546 Eggert Rd,Buffalo,NY,14215
Elim Christian Fellowship,PO Box 145,Buffalo,NY,14215
Expressway Assembly of God,260 Eggert Rd,Buffalo,NY,14215
Grace United Church of Christ,875 E Delavan Ave,Buffalo,NY,14215
Mac Alpine Presbyterian Church,2700 Bailey Ave,Buffalo,NY,14215
Abrams Edward C,230 Stevens Ave,Buffalo,NY,14215
Holy Spirit Roman Catholic,91 Dakota St,Buffalo,NY,14216
St Margarets Catholic School,"1395 Hertel Ave, #2",Buffalo,NY,14216
Plymouth United Chr of Christ,398 Lincoln Pky,Buffalo,NY,14216
Abiding Grace Community Church,534 Kenmore Ave,Buffalo,NY,14216
Achei Tmimim Orthodox,85 Saranac Ave,Buffalo,NY,14216
St John Ukrainian Catholic Chr,3275 Elmwood Ave,Buffalo,NY,14217
St Paul's Rc Church,33 Victoria Blvd,Buffalo,NY,14217
Kenmore United Methodist Chr,32 Landers Rd,Buffalo,NY,14217
Faith United Presbyterian Chr,3150 Elmwood Ave,Buffalo,NY,14217
Kenmore Baptist Church,10 Wardman Rd,Kenmore,NY,14217
Kenmore Presbyterian Church,2771 Delaware Ave,Kenmore,NY,14217
Kenmore United Chr of Christ,295 Delaware Rd,Kenmore,NY,14217
Knox United Presbyterian Chr,2595 Elmwood Ave,Kenmore,NY,14217
Ebenezer Baptist Church,195 Ridge Rd,Lackawanna,NY,14218
Mount Olive Baptist Church,PO Box 37,Lackawanna,NY,14218
Our Lady of Victory Basilica,767 Ridge Rd,Buffalo,NY,14218
St Barbaras Catholic Church,551 Ridge Rd,Buffalo,NY,14218
Lackawanna Church Of God,279 Ingham Ave,Buffalo,NY,14218
Croatian Rc Church,1619 Abbott Rd,Lackawanna,NY,14218
St Hyacinth Church Rectory,253 Ridge Rd,Lackawanna,NY,14218
St Michael the Archangel,144 Warsaw St,Lackawanna,NY,14218
St Stephen's Serbian Orthodox,177 Weber Rd,Lackawanna,NY,14218
Union Presbyterian Church,67 Lake Ave,Blasdell,NY,14219
Our Lady of Grace Roman Cthlc,3319 Lake Shore Rd,Buffalo,NY,14219
Woodlawn Church Of Christ,3691 4th St,Buffalo,NY,14219
First Evangelical Church,66 Arthur Ave,Blasdell,NY,14219
St Agatha's Roman Catholic Chr,65 Abbott Rd,Buffalo,NY,14220
St Martin's Church,1140 Abbott Rd,Buffalo,NY,14220
St Thomas Aquinas,450 Abbott Rd,Buffalo,NY,14220
St Jude's Episcopal Church,124 MacAmley St,Buffalo,NY,14220
Woodside United Methodist Chr,675 Abbott Rd,Buffalo,NY,14220
Bread of Life Christian Acad,1632 S Park Ave,Buffalo,NY,14220
Southtown Church Of Christ,16 Good Ave,Buffalo,NY,14220
St John Maron Maronite Church,2040 Wehrle Dr,Buffalo,NY,14221
Nativity Blessed Virgin Mary,4375 Harris Hill Rd,Williamsville,NY,14221
Newman Center,6325 Main St,Williamsville,NY,14221
Ss Peter and Paul Catholic Ch,5480 Main St,Williamsville,NY,14221
St Gregory the Great Rc Chr,200 Saint Gregory Ct,Williamsville,NY,14221
Eastern Hills Wesleyan Church,8180 Greiner Rd,Williamsville,NY,14221
Temple Beth AM,4660 Sheridan Dr,Williamsville,NY,14221
Amherst Lutheran Church,5125 Main St,Williamsville,NY,14221
Williamsville United Meth Chr,5681 Main St,Williamsville,NY,14221
Evangel Assembly of God,1800 Maple Rd,Williamsville,NY,14221
St John'S-Grace Episcopal Chr,51 Colonial Cir,Buffalo,NY,14222
Hellenic Orthodox Church,146 W Utica St,Buffalo,NY,14222
Pilgrim-St Luke's United Chr,335 Richmond Ave,Buffalo,NY,14222
St Mark's Lutheran Chr Kenmore,576 Delaware Rd,Buffalo,NY,14223
New Covenant Tabernacle,345 McConkey Dr,Buffalo,NY,14223
Church of the Nativity,1530 Colvin Blvd,Buffalo,NY,14223
Curtis Park United Prsbtrn Chr,748 Woodland Dr,Buffalo,NY,14223
Deerhurst Presbyterian Church,257 Deerhurst Park Blvd,Buffalo,NY,14223
Kenilworth United Chr-Christ,45 Dalton Dr,Buffalo,NY,14223
Covenant United Methodist Chr,539 Main St,West Seneca,NY,14224
Seneca United Methodist Church,2846 Seneca St,West Seneca,NY,14224
Queen of Heaven Catholic Ch,4220 Seneca St,Buffalo,NY,14224
Center Road Baptist Church,412 Center Rd,West Seneca,NY,14224
St Bonaventure Catholic Church,36 Flohr Ave,West Seneca,NY,14224
St Catherine of Siena Roman,4920 Seneca St,West Seneca,NY,14224
St David's Church Undercroft,3951 Seneca St,West Seneca,NY,14224
St John's Evang Lutheran,3512 Clinton St,West Seneca,NY,14224
Winchester Community Church,909 Harlem Rd,West Seneca,NY,14224
Ebenezer United Church-Christ,630 Main St,West Seneca,NY,14224
Queen of Martyrs Rc Church,180 George Urban Blvd,Buffalo,NY,14225
Cleveland Heights Christian,4774 Union Rd,Buffalo,NY,14225
St Patrick's Episcopal,1395 George Urban Blvd,Buffalo,NY,14225
Cleveland Drive Presbyterian,735 Cleveland Dr,Buffalo,NY,14225
Maryvale Drive Presbyterian,425 Maryvale Dr,Buffalo,NY,14225
St Stephens-Bethlehem United,750 Wehrle Dr,Buffalo,NY,14225
Cheektowaga Community Baptist,670 Dick Rd,Cheektowaga,NY,14225
Most Holy Redeemer Church Hall,25 Avery Pl,Cheektowaga,NY,14225
Mother of Divine Grace Church,120 Old Maryvale Dr,Cheektowaga,NY,14225
New Creation Fellowship,PO Box 624,Cheektowaga,NY,14225
St Benedict's Rc Church,1317 Eggert Rd,Buffalo,NY,14226
Trinity Old Lutheran Church,3445 Sheridan Dr,Buffalo,NY,14226
St Leo the Great Rc Church,885 Sweet Home Rd,Amherst,NY,14226
Temple Beth Zion,700 Sweet Home Rd,Amherst,NY,14226
Temple Shaarey Zedek,621 Getzville Rd,Amherst,NY,14226
Resurrection Life Fellowship,2145 Old Union Rd,Cheektowaga,NY,14227
A Kingdom Hall-jehovah Sw,2447 Union Rd,Cheektowaga,NY,14227
Amherst Baptist Church Sbc,100 Willow Ridge Dr,Buffalo,NY,14228
Newman Center-Sunyab,520 Lee Entrance,Buffalo,NY,14228
Creekside Assembly Of God,2625 Tonawanda Creek Rd,Buffalo,NY,14228
Randall Memorial Baptist Chr,PO Box 211,Williamsville,NY,14231
Our Lady of Mt Carmel Chr,2486 Grand Ave,Niagara Falls,NY,14301
Walnut Avenue Christian Church,601 28th St,Niagara Falls,NY,14301
Abundant Life Deliverance Temple,620 19th St,Niagara Falls,NY,14301
St George Orthodox Church,PO Box 713,Niagara Falls,NY,14302
Holy Trinity Roman Catholic,1419 Falls St,Niagara Falls,NY,14303
New Hope Baptist Church,1122 Buffalo Ave,Niagara Falls,NY,14303
Our Lady of Lebanon Rc Church,1120 Niagara St,Niagara Falls,NY,14303
Our Lady of the Rosary Rc Chr,339 22nd St,Niagara Falls,NY,14303
St Mary of the Cataract Church,259 4th St,Niagara Falls,NY,14303
Epiphany Episcopal Church,140 Rainbow Blvd,Niagara Falls,NY,14303
St Charles Roman Catholic Chr,5604 Lindbergh Ave,Niagara Falls,NY,14304
St John De Lasalle Church,8627 Buffalo Ave,Niagara Falls,NY,14304
St Leo's Roman Catholic Church,2748 Military Rd,Niagara Falls,NY,14304
Niagara Ministries Church,2074 Lockport Rd,Niagara Falls,NY,14304
Bacon Memorial Presbyterian,166 59th St,Niagara Falls,NY,14304
Riverside United Presbyterian,815 84th St,Niagara Falls,NY,14304
Trinity Baptist Church,1366 South Ave,Niagara Falls,NY,14305
Refuge Temple Of Christ,835 Willow Ave,Niagara Falls,NY,14305
Lily of the Valley Baptist Chr,1141 Michigan Ave,Niagara Falls,NY,14305
St Paul Evangelical Luth,1920 18th St,Niagara Falls,NY,14305
St James United Methodist Chr,4661 Porter Rd,Niagara Falls,NY,14305
St John's Ame Church,917 Garden Ave,Niagara Falls,NY,14305
Niagara Presbyterian Church,3712 Military Rd,Niagara Falls,NY,14305
Adams Eddie D Rev,1215 South Ave,Niagara Falls,NY,14305
Albion Upright Mission Of Jesus Christ,4582 Oak Orchard Rd,Albion,NY,14411
Albion Free Methodist Church,25 S Platt St,Albion,NY,14411
Lutheran Church of Epiphany,6050 Avon-Lima Rd,Avon,NY,14414
Avon United Methodist Church,PO Box 277,Avon,NY,14414
St Bridget's Church,PO Box 219,Bergen,NY,14416
Bergen United Methodist Church,PO Box 216,Bergen,NY,14416
Nativity of the Bvm,152 Main St,Brockport,NY,14420
Newman Oratory,101 Kenyon St,Brockport,NY,14420
Golden Heights Christian Ctr,20 Bethel Dr,Brockport,NY,14420
Brockport United Meth Chr,PO Box 247,Brockport,NY,14420
Christ Community Church,36 Coleman Creek Rd,Brockport,NY,14420
St Columbus St Patrick Church,198 North St,Caledonia,NY,14423
Caledonia Assembly Of God,3087 Main St,Caledonia,NY,14423
Canandaigua Baptist Church,5026 North Rd,Canandaigua,NY,14424
Crosswinds Wesleyan Church,3360 Middle Cheshire Rd,Canandaigua,NY,14424
Zion Fellowship,5188 Bristol Rd,Canandaigua,NY,14424
United Church Presbyterian,11 Gibson St,Canandaigua,NY,14424
Calvary Chapel of Finger Lakes,PO Box 25099,Canandaigua,NY,14425
Farmington United Methodist,5925 County Road 41,Farmington,NY,14425
St Vincent De Paul Church,PO Box 609,Churchville,NY,14428
Open Door Baptist Church,350 Chili Scottsville Rd,Churchville,NY,14428
Union Congregational United,PO Box 123,Churchville,NY,14428
St Felix's Catholic Church,12 Hibbard Ave,Clifton Springs,NY,14432
St John's Catholic Church,114 Sodus St,Clyde,NY,14433
Clyde United Methodist Church,84 Sodus St,Clyde,NY,14433
St Paul's Lutheran Church,21 Clara Barton St,Dansville,NY,14437
Dansville Presbyterian Church,3 School St,Dansville,NY,14437
St Bridget's Hall,PO Box 248,East Bloomfield,NY,14443
St Jerome's Church,207 Garfield St,East Rochester,NY,14445
Koinonia Fellowship,500 Main St,East Rochester,NY,14445
Church of the Assumption,20 East Ave,Fairport,NY,14450
St John of Rochester Church,8 Wickford Way,Fairport,NY,14450
Risen Christ Lutheran Church,1000 Moseley Rd,Fairport,NY,14450
Fairport United Methodist Chr,31 W Church St,Fairport,NY,14450
Evangelical Church of Fairport,38 E Church St,Fairport,NY,14450
Perinton Community Church,636 High St Ext,Fairport,NY,14450
Mountain Rise United Church,2 Mountain Rise,Fairport,NY,14450
Perinton Presbyterian Church,PO Box 611,Fairport,NY,14450
St Michael's Episcopal Church,23 Main St,Geneseo,NY,14454
Interfaith Center,PO Box 265,Geneseo,NY,14454
Geneseo United Methodist Chr,4520 Genesee St,Geneseo,NY,14454
Calvary Chapel of Genesee Vly,5696 Groveland Hill Rd,Geneseo,NY,14454
St Francis De Sales Church,130 Exchange St,Geneva,NY,14456
St Peters Episcopal Church,PO Box 147,Geneva,NY,14456
Trinity Church,520 S Main St,Geneva,NY,14456
Adams James H,517 Castle St,Geneva,NY,14456
St John's Lutheran Church,1107 Lake Road West Frk,Hamlin,NY,14464
Hamlin United Methodist Church,PO Box 64,Hamlin,NY,14464
Good Shepherd Church,3318 E Henrietta Rd,Henrietta,NY,14467
Calvary Church of the Nazarene,4045 E Henrietta Rd,Henrietta,NY,14467
New Life Assembly,PO Box 384,Henrietta,NY,14467
Hilton Baptist Church,50 Lake Ave,Hilton,NY,14468
Hilton United Methodist Church,21 West Ave,Hilton,NY,14468
Disciples United Methodist Chr,4410 Holley Byron Rd,Holley,NY,14470
First Presbyterian Church,PO Box 568,Honeoye Falls,NY,14472
Concordia Lutheran Church,PO Box 461,Kendall,NY,14476
St Mark's Roman Catholic Chr,PO Box 454,Kendall,NY,14476
Kendall United Methodist Chr,PO Box 464,Kendall,NY,14476
Leroy United Methodist Church,10 Trigon Park,Le Roy,NY,14482
Elim Gospel Church,1679 Dalton Rd,Lima,NY,14485
Livonia United Methodist Chr,PO Box 23,Livonia,NY,14487
First Lutheran Church,35 Broad St,Lyons,NY,14489
Lyons United Methodist Church,93 William St,Lyons,NY,14489
Presbyterian Church of Lyons,11 Queen St,Lyons,NY,14489
Assembly Of God Of Lyons,7608 RT-31,Lyons,NY,14489
Macedon Center United Meth Chr,1160 Macedon Center Rd,Macedon,NY,14502
United Church of Marion,PO Box 52,Marion,NY,14505
Second Reformed Church,PO Box 32,Marion,NY,14505
St Mark Lutheran Church,PO Box 239,Mendon,NY,14506
St Catherine of Siena,26 Mendon Ionia Rd,Mendon,NY,14506
St Patricks Holy Angel Cath Ch,46 Stanley St,Mt Morris,NY,14510
St Januarius Church,180 N Main St,Naples,NY,14512
Trinity Federated Church,PO Box 236,Naples,NY,14512
New Hope Community Church,PO Box 279,Chili,NY,14514
Pearce Memorial Free Methodist,4322 Buffalo Rd,North Chili,NY,14514
North Rose United Methodist,PO Box 369,North Rose,NY,14516
North Ontario Methodist Church,7200 Ontario Center Rd,Ontario,NY,14519
Zion Episcopal Church,120 E Main St,Palmyra,NY,14522
Heritage Baptist Church,2367 Newark Marion Rd,Palmyra,NY,14522
Palmyra United Methodist Chr,109 Church St,Palmyra,NY,14522
East Palmyra Christian Reform,2057 E Palmyra Port Gibson Rd,Palmyra,NY,14522
Western Presbyterian Church,101 E Main St,Palmyra,NY,14522
Pavilion United Meth Church,PO Box 456,Pavilion,NY,14525
Incarnation Episcopal Church,1957 Five Mile Line Rd,Penfield,NY,14526
Penfield United Methodist Chr,1795 Baird Rd,Penfield,NY,14526
New Covenant Fellowship,2070 Five Mile Line Rd,Penfield,NY,14526
Penfield Presbyterian Church,1881 Jackson Rd,Penfield,NY,14526
Rochester Christian Reformed,2750 Atlantic Ave,Penfield,NY,14526
United Church of Phelps,PO Box 36,Phelps,NY,14532
Pittsford Community Church,421 Marsh Rd,Pittsford,NY,14534
Christ Episcopal Church-Pitts,36 S Main St,Pittsford,NY,14534
Christ Clarion Presbyterian,415 Thornell Rd,Pittsford,NY,14534
United Church Of Pittsford,123 S Main St,Pittsford,NY,14534
St Joseph's Church of Rush,PO Box 320,Rush,NY,14543
Rush United Methodist Church,PO Box 49,Rush,NY,14543
St Mary of the Assumption Chr,PO Box 23,Scottsville,NY,14546
Seneca Castle United Meth Ch,PO Box 151,Seneca Castle,NY,14547
St Dominic's Rectory,6 Canandaigua St,Shortsville,NY,14548
Church of the Epiphany,105 W Main St,Sodus,NY,14551
Sodus United Third Methodist,56 W Main St,Sodus,NY,14551
First Congregational Church,65 Church St,Spencerport,NY,14559
St John Evangelist Chr,55 Martha St,Spencerport,NY,14559
Calvary Chapel of the Westside,"67 Lyell Ave, #1",Spencerport,NY,14559
Ogden Presbyterian Church,2400 S Union St,Spencerport,NY,14559
Adams Basin United Methodist,4292 Canal Rd,Spencerport,NY,14559
Candace United Methodist Ch,9079 Canadice Townline Rd,Springwater,NY,14560
St Patrick's Church,115 Maple Ave,Victor,NY,14564
United Methodist Church-Victor,102 E Main St,Victor,NY,14564
United Methodist Churches,3679 Wal-Palmyra Rd,Walworth,NY,14568
Webster Baptist Church,59 South Ave,Webster,NY,14580
Episcopal Church-Good Shepherd,1130 Webster Rd,Webster,NY,14580
Webster Bible Church,675 Holt Rd,Webster,NY,14580
St Martin Ev Lutheran Church,813 Bay Rd,Webster,NY,14580
Webster Assembly of God,708 Hard Rd,Webster,NY,14580
Webster Presbyterian Church,550 Webster Rd,Webster,NY,14580
West Henrietta Baptist Church,PO Box 336,West Henrietta,NY,14586
Genesee Valley United Meth Chr,70 Bailey Rd,West Henrietta,NY,14586
Faith United Methodist Church,PO Box 133,Wolcott,NY,14590
First Genesis Baptist Church,PO Box 30424,Rochester,NY,14603
United Missionary Baptist Chr,PO Box 31909,Rochester,NY,14603
Church of Jesus Christ,PO Box 30388,Rochester,NY,14603
Our Lady of Victory-St Josephs,210 Pleasant St,Rochester,NY,14604
Lutheran Church-Reformation,111 N Chestnut St,Rochester,NY,14604
Bethel Christian Fellowship,321 East Ave,Rochester,NY,14604
Mt Vernon Baptist Church,351 Joseph Ave,Rochester,NY,14605
Pentecost Memorial Baptist Chr,382 Central Park,Rochester,NY,14605
Corpus Christi,80 Prince St,Rochester,NY,14605
New Bethel Cme Church,270 Scio St,Rochester,NY,14605
Bethesda Church of God-Christ,120 Saint Bridgets Dr,Rochester,NY,14605
Progressive Church of God,270 Cumberland St,Rochester,NY,14605
St Paul Holiness Church,63 Thomas St,Rochester,NY,14605
Alexander G D,80 Lincoln St,Rochester,NY,14605
Holy Apostles Church,7 Austin St,Rochester,NY,14606
Gates Wesleyan Church,2060 Long Pond Rd,Rochester,NY,14606
Elmgrove United Methodist Chr,1500 Spencerport Rd,Rochester,NY,14606
St Nicholas Church,1492 Spencerport Rd,Rochester,NY,14606
Westside Church Of Christ,469 Lyell Ave,Rochester,NY,14606
Abraham M Rev,15 Snowberry Cres,Rochester,NY,14606
Lutheran Church-Incarnate Word,597 East Ave,Rochester,NY,14607
Asbury First United Methodist,1050 East Ave,Rochester,NY,14607
Baber Ame Church,550 Meigs St,Rochester,NY,14607
Rochester Christian Church,208 Goodman St N,Rochester,NY,14607
Third Presbyterian Church,4 Meigs St,Rochester,NY,14607
Lake Avenue Baptist Church,57 Ambrose St,Rochester,NY,14608
Memorial Ame Zion Church,549 Clarissa St,Rochester,NY,14608
Adams Street Church of God,230 Adams St,Rochester,NY,14608
Central Church Of Christ,101 Plymouth Ave S,Rochester,NY,14608
Parsells Avenue Community Chr,345 Parsells Ave,Rochester,NY,14609
Church of the Annunciation,1754 Norton St,Rochester,NY,14609
Christ the Good Shepherd Luth,1000 Winton Rd N,Rochester,NY,14609
Faith to Faith Fellowship,319 Browncroft Blvd,Rochester,NY,14609
Laurelton United Presbyterian,335 Helendale Rd,Rochester,NY,14609
St John the Evangelist Church,150 Floverton St,Rochester,NY,14610
St Thomas More Church,2617 East Ave,Rochester,NY,14610
Brighton Presbyterian Nursery,1775 East Ave,Rochester,NY,14610
Brighton Reformed Church,805 Blossom Rd,Rochester,NY,14610
Holy Name Of Mary,580 Winton Rd N,Rochester,NY,14610
Aenon Baptist Church,175 Genesee St,Rochester,NY,14611
St Peter and Paul Catholic Ch,720 Main St W,Rochester,NY,14611
West Avenue United Meth Church,56 Chili Ave,Rochester,NY,14611
Light of the World Aog,200 Child St,Rochester,NY,14611
Faith Tabernacle Of Prayer,717 Maple St,Rochester,NY,14611
Holy Temple Of Christ,335 Maple St,Rochester,NY,14611
Abundant Life Faith Ministry,83 Whitney St,Rochester,NY,14611
Our Mother of Sorrows Church,5000 Mt Read Blvd,Rochester,NY,14612
Calvary Chapel of Greece,85 Kuhn Rd,Rochester,NY,14612
Greece Assembly of God,750 Long Pond Rd,Rochester,NY,14612
Lakeside Presbyterian Church,75 Stutson St,Rochester,NY,14612
Lakeview Community Church,30 Long Pond Rd,Rochester,NY,14612
Spiritus Christi Church,121 Fitzhugh St N,Rochester,NY,14614
St Luke ,17 Fitzhugh St S,Rochester,NY,14614
Wesley United Methodist Church,2009 Dewey Ave,Rochester,NY,14615
Aldersgate United Methodist,4115 Dewey Ave,Rochester,NY,14616
Bethany Presbyterian Church,3000 Dewey Ave,Rochester,NY,14616
St Margaret Mary Church,401 Rogers Pky,Rochester,NY,14617
St Thomas the Apostle Church,Saint Paul Blvd,Rochester,NY,14617
Northside Christian Academy,PO Box 67173,Rochester,NY,14617
First Church Divine,510 Thomas Ave,Rochester,NY,14617
St Mary the Protectress,PO Box 17136,Rochester,NY,14617
Irondequoit United Church,644 Titus Ave,Rochester,NY,14617
Summerville Presbyterian Chr,4845 Saint Paul Blvd,Rochester,NY,14617
Our Lady Queen of Peace,601 Edgewood Ave,Rochester,NY,14618
Edgewood Free Methodist Church,250 Edgewood Ave,Rochester,NY,14618
Temple B'Rith Kodesh,2131 Elmwood Ave,Rochester,NY,14618
Twelve Corners Presbyterian,1200 Winton Rd S,Rochester,NY,14618
Prayerhouse Church Of God,72 Elmdorf Ave,Rochester,NY,14619
St Anne Church,1600 Mount Hope Ave,Rochester,NY,14620
Pinnacle Lutheran Church,250 Pinnacle Rd,Rochester,NY,14620
Christ View United Methodist,174 Pinnacle Rd,Rochester,NY,14620
Faith Temple Church,1876 Elmwood Ave,Rochester,NY,14620
Greek Orthodox Church Holy Spr,835 South Ave,Rochester,NY,14620
Islamic Center Of Rochester,727 Westfall Rd,Rochester,NY,14620
Breath of Life Sda Church,1410 Clifford Ave,Rochester,NY,14621
Calvary Bible Baptist Church,746 Norton St,Rochester,NY,14621
St Andrew's Catholic Church,923 Portland Ave,Rochester,NY,14621
St John's Lutheran Church Elca,800 Ridge Rd E,Rochester,NY,14621
New Born Fellowship Church,123 Barberry Ter,Rochester,NY,14621
St Josaphat's Ukrainian Cath,940 Ridge Rd E,Rochester,NY,14621
Full Gospel Tabernacle Gospel,614 Clifford Ave,Rochester,NY,14621
Abundant Life Ministries,175 Carter St,Rochester,NY,14621
Bay Knoll Seventh Day Church,2639 E Ridge Rd,Rochester,NY,14622
St Salome's Church,4282 Culver Rd,Rochester,NY,14622
Durand United Church of Christ,4225 Culver Rd,Rochester,NY,14622
Victory Baptist Church,32 Wildbriar Rd,Rochester,NY,14623
Guardian Angels Church,2061 E Henrietta Rd,Rochester,NY,14623
Trinity South Emmanuel Ucc,1095 E Henrietta Rd,Rochester,NY,14623
First Baptist Church in Chili,3182 Chili Ave,Rochester,NY,14624
Holy Ghost Church,250 Coldwater Rd,Rochester,NY,14624
St Helen's Catholic Church,310 Hinchey Rd,Rochester,NY,14624
Trinity Emmanuel Lutheran Chr,761 Elmgrove Rd,Rochester,NY,14624
Anchor Christian Church,375 Beaver Rd,Rochester,NY,14624
Father's House,692 Paul Rd,Rochester,NY,14624
Chili Presbyterian Church,3600 Chili Ave,Rochester,NY,14624
Gates Presbyterian Church,1049 Wegman Rd,Rochester,NY,14624
Parkminster Presbyterian Chr,2710 Chili Ave,Rochester,NY,14624
Browncroft Community Church,2530 Browncroft Blvd,Rochester,NY,14625
Calvary Chapel of Rochester,2505 Browncroft Blvd,Rochester,NY,14625
First Bible Baptist Church,1039 N Greece Rd,Rochester,NY,14626
Greece Baptist Church,1230 Long Pond Rd,Rochester,NY,14626
Lutheran Church of Concord,485 Holmes Rd,Rochester,NY,14626
Greece United Methodist Church,1924 Maiden Ln,Rochester,NY,14626
New Testament Christian Church,349 North Ave,Rochester,NY,14626
Victory Community Church,PO Box 26799,Rochester,NY,14626
John Knox Presbyterian Church,3233 Ridge Rd W,Rochester,NY,14626
Covenant Life Church,PO Box 22958,Rochester,NY,14692
Hillcrest Baptist Church,40 Hallock St,Jamestown,NY,14701
S S Peter ,508 Cherry St,Jamestown,NY,14701
St James Rc Church,27 Allen St,Jamestown,NY,14701
Episcopal Saint Luke's Church,410 N Main St,Jamestown,NY,14701
Busti Church of God,996 Forest Avenue Ext,Jamestown,NY,14701
Camp St Methodist Church,110 Sanford Dr,Jamestown,NY,14701
Christ First United Methodist,663 Lakeview Ave,Jamestown,NY,14701
Kidder Memorial United Meth,381 S Main St,Jamestown,NY,14701
Stillwater United Methodist,1428 Warren Jamestown Blvd,Jamestown,NY,14701
First Covenant Church,520 Spring St,Jamestown,NY,14701
Fluvanna Community Church,3363 Fluvanna Avenue Ext,Jamestown,NY,14701
Zion Covenant Church,520 Fairmount Ave,Jamestown,NY,14701
First Church Of God,291 Falconer St,Jamestown,NY,14701
Abundant Life Church,309 Jefferson St,Jamestown,NY,14701
Ashville United Methodist Chr,PO Box 124,Ashville,NY,14710
St Timothy Lutheran Church,PO Box 9190,Bemus Point,NY,14712
Bemus Point United Methodist,PO Box 99,Bemus Point,NY,14712
St Patrick's Catholic Church,PO Box P,Brocton,NY,14716
Cassadage Community Baptist,25 Maple Ave,Cassadaga,NY,14718
Immaculate Conception Rc Chr,PO Box 438,Cassadaga,NY,14718
Celeron United Methodist Churc,PO Box 553,Celoron,NY,14720
United Church of Christ,PO Box 68,Chautauqua,NY,14722
Hurlbut Memorial Church,PO Box 33,Chautauqua,NY,14722
St Matthias Catholic Church,1762 French Creek Mina Rd,Clymer,NY,14724
Abbe Reformed Church,595 Clymer Sherman Rd,Clymer,NY,14724
Our Lady of Loreto Parish,309 W Everett St,Falconer,NY,14733
Levant Wesleyan Church,1670 Lindquist Dr,Falconer,NY,14733
Falconer United Methodist Chr,201 N Work St,Falconer,NY,14733
Findley Lake United Meth Chr,PO Box 447,Findley Lake,NY,14736
Free Methodist Church-Gerry,PO Box 357,Gerry,NY,14740
Abbott Carl T Rev,4514 Hillside Dr S,Gerry,NY,14740
Gloria Dei Lutheran Church,35 W Fairmount Ave,Lakewood,NY,14750
Lakewood United Methodist Chr,164 Shadyside Ave,Lakewood,NY,14750
National Spiritualist Assn,PO Box 217,Lily Dale,NY,14752
St Mary's Catholic Church,PO Box 148,Mayville,NY,14757
Mayville United Methodist,81 S Erie St,Mayville,NY,14757
Panama United Methodist Church,PO Box 218,Panama,NY,14767
United Methodist Church,PO Box 748,Ripley,NY,14775
Park United Methodist Church,PO Box 730,Sinclairville,NY,14782
Breesport Baptist Church,PO Box B,Breesport,NY,14816
Grace Church Of Nazarene,431 Wygant Rd,Horseheads,NY,14845
St Mary Our Mother,816 W Broad St,Horseheads,NY,14845
Maranatha Bible Chapel,774 Sing Sing Rd,Horseheads,NY,14845
Glad Tidings Christian Life,PO Box 148,Horseheads,NY,14845
His Tabernacle Family Church,PO Box 189,Horseheads,NY,14845
Love Church,3136 Lake Rd,Horseheads,NY,14845
Central Assembly of God,1 Brenway Dr,Horseheads,NY,14845
Pine City Baptist Church,1516 Pennsylvania Ave,Pine City,NY,14871
Pennsylvania Avenue Methodist,1238 Pennsylvania Ave,Pine City,NY,14871
St James Catholic Church,503 Clark St,Waverly,NY,14892
St Patrick/St Anthony Church,604 Park Pl,Elmira,NY,14901
Christ's United Methodist Chr,330 W Church St,Elmira,NY,14901
Faith Temple Cogic,722 Standish St,Elmira,NY,14901
First United Church of Chirst,160 Madison Ave,Elmira,NY,14901
Park Church,208 W Gray St,Elmira,NY,14901
Oakwood United Methodist Chr,212 Oakwood Ave,Elmira,NY,14903
Bethany Lutheran Church,256 S Walnut St,Elmira,NY,14904
Elmira Sda Church,813 Maple Ave,Elmira,NY,14904
St Mary's Southside Church,224 Franklin St,Elmira,NY,14904
Elmira Christian Academy,235 E Miller St,Elmira,NY,14904
