Name,Address,City,State,Zip
7th Day Adventist First Church,4909 W Sylvania Ave,Toledo,OH,43623
Ashland Church,2001 Ashland Ave,Toledo,OH,43620
Bethel Baptist Church,211 E Plane St,Bethel,OH,45106
Bethlehem Baptist Church,1430 W Bancroft St,Toledo,OH,43606
Calvary Baptist Church,1601 Jackson Ln,Middletown,OH,45044
Christian Temple Baptist Chr,1201 Blum St,Toledo,OH,43607
East Toledo Baptist Church,807 E Broadway St,Toledo,OH,43605
Ebenezer Missionary Baptist,2030 Putnam St,Toledo,OH,43620
Emmanuel Baptist Church,7901 Quincy Ave,Cleveland,OH,44104
Family Baptist Church,1002 W Bancroft St,Toledo,OH,43606
Greater St Mary Baptist Church,416 Belmont Ave,Toledo,OH,43604
Hope Baptist Church,6250 South Ave,Toledo,OH,43615
Indiana Missionary Baptist Chr,640 Indiana Ave,Toledo,OH,43604
Jerusalem Baptist Church,1147 Park Hill Dr,Youngstown,OH,44502
Liberty Baptist Church,140 Perry Dr SW,Canton,OH,44710
Lo Salem Missionary Baptist,PO Box 3371c,Toledo,OH,43607
Macedonia Baptist Church,492 Oakwood Ave,Columbus,OH,43205
Mt Nebo Baptist Church,831 N Detroit Ave,Toledo,OH,43607
Mt Pilgrim Baptist Church,PO Box 3217,Toledo,OH,43607
Mt Zion Missionary Baptist Chr,40 Coral Ave,Cincinnati,OH,45246
New Light Baptist Church,15201 Judson Dr,Cleveland,OH,44128
Northwest Baptist Church,3906 W Alexis Rd,Toledo,OH,43623
Southern Missionary Baptist,1222 Indiana Ave,Toledo,OH,43607
Springstreet Baptist Church,601 Spring St,Toledo,OH,43608
St Mark's Baptist Church,1419 N Detroit Ave,Toledo,OH,43607
Third Baptist Church,1177 Park Hill Dr,Youngstown,OH,44502
Toledo Baptist Temple,5732 Douglas Rd,Toledo,OH,43613
True-Vine Missionary Baptist,739 Russell St,Toledo,OH,43608
United Missionary Baptist Chr,PO Box 42434,Middletown,OH,45042
Christ the King Church,2150 E Powell Rd,Lewis Center,OH,43035
Gesu Church,2049 Parkside Blvd,Toledo,OH,43607
Holy Rosary Parish,821 N Wheeling St,Toledo,OH,43605
Immaculate Conception Parish,434 Western Ave,Toledo,OH,43609
Little Flower Catholic Church,5560 Kirby Ave,Cincinnati,OH,45239
Our Lady of Lourdes Church,200 E Main St,East Palestine,OH,44413
Regina Coeli Parish,530 Regina Pky,Toledo,OH,43612
Sacred Heart Parish,509 Oswald St,Toledo,OH,43605
Sisters of Notre Dame,3837 Secor Rd,Toledo,OH,43623
St Adalbert Parish Church,3233 Lagrange St,Toledo,OH,43608
St Agnes Church,204 Saint Clair Ave,Mingo Junction,OH,43938
St Catherine's Parish,4555 N Haven Ave,Toledo,OH,43612
St Charles Borromeo Catholic,1842 Airport Hwy,Toledo,OH,43609
St Clement Catholic Church,3030 Tremainsville Rd,Toledo,OH,43613
St Francis De Sales Parish,4019 Manchester Rd,Akron,OH,44319
St Hedwig,2916 Lagrange St,Toledo,OH,43608
St Hyacinths Catholic Church,719 Evesham Ave,Toledo,OH,43607
St Joan of Arc Parish,5856 Heatherdowns Blvd,Toledo,OH,43614
St John the Baptist Catholic,5153 N Summit St,Toledo,OH,43611
St Jude Church,5924 Bridgetown Rd,Cincinnati,OH,45248
St Louis Catholic Church,PO Box 125,Custar,OH,43511
St Martin De Porres,9913 Wayne Ave,Cincinnati,OH,45215
St Patrick Historic Dowtown,130 Avondale Ave,Toledo,OH,43604
St Patrick of Heatherdowns,4201 Heatherdowns Blvd,Toledo,OH,43614
St Peter ,180 Belvedere Ave NE,Warren,OH,44483
St Pius X Church,1401 Moncrest Dr NW,Warren,OH,44485
St Stephen's Church,1930 W 54th St,Cleveland,OH,44102
St Thomas Aquinas Rectory,729 White St,Toledo,OH,43605
St Vincent De Paul,1035 Woodward Ave,Toledo,OH,43608
Hampton Park Christian Church,4234 Monroe St,Toledo,OH,43606
Church of Christ Glass City,901 Hoag St,Toledo,OH,43607
Church of Christ of Flanders,5130 Flanders Rd,Toledo,OH,43623
All Saints Episcopal Church,5101 Johnstown Rd,New Albany,OH,43054
St Marks Episcopal Church,2272 Collingwood Blvd,Toledo,OH,43620
St Matthew's Episcopal Church,9549 Highland Dr,Cleveland,OH,44141
St Michael's Episcopal Church,4718 Brittany Rd,Toledo,OH,43615
Trinity Episcopal Church,76 E Main St,Newark,OH,43055
Berean Fellowship-the Church,4212 Onondaga Ave,Toledo,OH,43611
First Alliance Church,1955 Hopley Ave,Bucyrus,OH,44820
First Church of God,3616 State Route 39,Shelby,OH,44875
Trinity Church of the Nazarene,4930 Flanders Rd,Toledo,OH,43623
Westgate Chapel C ,2500 Wilford Dr,Toledo,OH,43615
Calvary Bible Chapel,3740 W Alexis Rd,Toledo,OH,43623
Congregation B'Nai Israel,2727 Kenwood Blvd,Toledo,OH,43606
Congregation Etz Chayim,3853 Woodley Rd,Toledo,OH,43606
All Saints Lutheran Church,7230 Columbia Rd,Olmsted Falls,OH,44138
Augsburg Lutheran Church,11676 Hamilton Ave,Cincinnati,OH,45231
Bethany Lutheran Church,PO Box 3036,Ashtabula,OH,44005
Bethel Lutheran Church,PO Box 207,Bath,OH,44210
Bethlehem Lutheran Church,PO Box 344,Pemberville,OH,43450
Christ Lutheran Church,2314 E Main St,Bexley,OH,43209
Epiphany Lutheran Church,268 Hill Rd N,Pickerington,OH,43147
Faith Lutheran Church Elca,2726 W Market St,Fairlawn,OH,44333
First English Lutheran Church,94 Long St,Ashville,OH,43103
First St John's Lutheran Chr,2471 Seaman St,Toledo,OH,43605
Glenwood Lutheran Church,2545 Monroe St,Toledo,OH,43620
Good Shepherd Lutheran Church,1209 S Miami St,West Milton,OH,45383
Grace Lutheran Church,PO Box 115,Luckey,OH,43443
Holy Cross Lutheran Church,3050 McMackin Rd,Madison,OH,44057
Holy Trinity Lutheran Church,1600 Pearl Rd,Brunswick,OH,44212
Hope Lutheran Church,4792 Oster Rd,Sheffield Village,OH,44054
Martin Luther Lutheran Church,701 Walnut Ave NE,Canton,OH,44702
Memorial Lutheran Church,3215 Douglas Rd,Toledo,OH,43606
Messiah Lutheran Church,4920 Fairport Rd,Newton Falls,OH,44444
Our Saviour Lutheran Church,2820 W Alexis Rd,Toledo,OH,43613
Redeemer Lutheran Church,2141 5th St,Cuyahoga Falls,OH,44221
Reformation Lutheran Church,37900 Lake Shore Blvd,Willoughby,OH,44094
St James Lutheran Church,451 Caldwell St,Bradner,OH,43406
St John's Lutheran Church,PO Box 279,Stony Ridge,OH,43463
St Lucas Lutheran Church,745 Walbridge Ave,Toledo,OH,43609
St Mark's Lutheran Church,302 E Pearl St,Wapakoneta,OH,45895
St Paul's Lutheran Church,PO Box 9,North Robinson,OH,44856
St Petri Lutheran Church,3120 S Byrne Rd,Toledo,OH,43614
Trinity Lutheran Church,410 Taylor St,Delta,OH,43515
Zion Lutheran Church Wels,3360 Nebraska Ave,Toledo,OH,43607
Aldersgate United Methodist,5464 Troy Pike,Huber Heights,OH,45424
Asbury United Methodist Church,PO Box 7,Sandyville,OH,44671
Braden United Methodist Church,2013 Lawrence Ave,Toledo,OH,43606
Church of the Cross Methodist,1806 Cass Rd,Toledo,OH,43614
Collingwood United Methodist,701 Phillips Ave,Toledo,OH,43612
Emanual United Methodist Chr,7715 W Bancroft St,Toledo,OH,43617
Epworth United Methodist Chr,216 Hopley Ave,Bucyrus,OH,44820
Hope United Methodist Church,PO Box 2815,Whitehouse,OH,43571
Monroe Street United Methodist,3613 Monroe St,Toledo,OH,43606
Ottawa River United Methodist,5824 Viramar Rd,Toledo,OH,43611
Phillips Temple Cme Church,2050 Germantown St,Dayton,OH,45408
Riverpoint Ministries,2862 131st St,Toledo,OH,43611
St Andrew United Methodist Chr,350 N Fairfield Rd,Dayton,OH,45430
Trilby United Methodist Church,5918 Secor Rd,Toledo,OH,43623
Unity United Methodist Church,441 Oakdale Ave,Toledo,OH,43605
Upton United Methodist Church,3611 Upton Ave,Toledo,OH,43613
Zion United Methodist Church,4980 Zion Rd,Cleves,OH,45002
Church of All Worlds,960 Berry St,Toledo,OH,43605
Cornerstone Church,PO Box 351690,Toledo,OH,43635
First Church Unity,3535 Executive Pky,Toledo,OH,43606
Grace Church,3700 Dorr St,Toledo,OH,43607
Love Fellowship Church,PO Box 2452,Toledo,OH,43606
Washington Church,3925 W Central Ave,Toledo,OH,43606
Westside Community Church,6045 W Bancroft St,Toledo,OH,43615
Holy Trinity Greek Orthodox,PO Box 788,Steubenville,OH,43952
Bible Temple Family Worship,1664 Wayne St,Toledo,OH,43609
Bibleway Temple,2335 Collingwood Blvd,Toledo,OH,43620
First Apostolic Church,PO Box 123,Tallmadge,OH,44278
Friendship Baptist Church,1954 Brier St SE,Warren,OH,44484
St James Holiness Church-God,3319 Nebraska Ave,Toledo,OH,43607
True Church of God-Apostolic,PO Box 1065,Toledo,OH,43697
Vineyard Fellowship,1019 N Reynolds Rd,Toledo,OH,43615
Calvin United Church of Christ,1946 Bakewell St,Toledo,OH,43605
Christ Presbyterian Church,530 Tuscarawas St W,Canton,OH,44702
Collingwood Presbyterian Chr,2108 Collingwood Blvd,Toledo,OH,43620
Eastminster United Presby Chr,725 Navarre Ave,Toledo,OH,43605
Fairgreen Presbyterian Church,3220 W Laskey Rd,Toledo,OH,43613
Faith Community United Church,1201 S Byrne Rd,Toledo,OH,43614
First Congregational Church,47 Aurora St,Hudson,OH,44236
Glendale Presbyterian Church,155 E Fountain Ave,Cincinnati,OH,45246
Grace Presbyterian Church,7 N 4th St,Martins Ferry,OH,43935
Mayfair Plymouth Cngrgtnl Chr,5253 Bennett Rd,Toledo,OH,43612
Memorial United Church-Christ,PO Box 8188,Toledo,OH,43605
Park Church,1456 Harvard Blvd,Toledo,OH,43614
Point Place United Church,4920 297th St,Toledo,OH,43611
United Church of Christ,PO Box 339,New Knoxville,OH,45871
United Church Of God,555 Techne Center Dr,Milford,OH,45150
True Church Of God-apostolic,2146 N 12th St,Toledo,OH,43620
Abram D F,933 Ranch Dr,Toledo,OH,43607
Abundant Life Ministries,290 Churchill Hubbard Rd,Youngstown,OH,44505
Active Christians Today,612 E Wooster St,Bowling Green,OH,43402
Addiction Services Kwik Assess,2651 Cheltenham Rd,Toledo,OH,43606
Alexis Congregational Church,6202 N Detroit Ave,Toledo,OH,43612
All Nations Community Church,5260 Hill Ave,Toledo,OH,43615
Akron Seventh Day Adventist,655 E Waterloo Rd,Akron,OH,44306
Akron Baptist Temple,2324 Manchester Rd,Akron,OH,44314
Antioch Baptist Church,PO Box 20190,Canton,OH,44701
Chapel of Prayer Baptist Chr,1811 Brittain Rd,Akron,OH,44310
Community Baptist Temple,1398 Canton Rd,Akron,OH,44312
Firestone Park Bapt Church,310 E Wilbeth Rd,Akron,OH,44301
First Bapt Church of Kenmore,2330 East Ave,Akron,OH,44314
Goodyear Heights Baptist Chr,1767 Goodyear Blvd,Akron,OH,44305
Grace Baptist Church,3289 Laurel Rd,Brunswick,OH,44212
Greater Bethel Baptist Church,PO Box 7340,Akron,OH,44306
Millheim Baptist Church,2661 Hayne Rd,Akron,OH,44312
Mount Olive Baptist Church,1180 Slosson St,Akron,OH,44320
Mt Zion Baptist Church,221 N 7th St,Steubenville,OH,43952
New Hope Baptist Church,1154 Pennsylvania Ave,East Liverpool,OH,43920
New Trinity Missionary Baptist,1380 Hartford Ave,Akron,OH,44320
Peoples Baptist Church,PO Box 817,Brunswick,OH,44212
Prince of Peace Baptist Church,844 Garth Ave,Akron,OH,44320
Second Baptist Church,717 Adams St,Steubenville,OH,43952
Shiloh Baptist Church,238 Bright Ave,Campbell,OH,44405
Springfield Baptist Church,1920 Krumroy Rd,Akron,OH,44312
St Thomas Baptist Church,670 Raymond St,Akron,OH,44307
United Baptist Church,900 Lexington Ave,Dayton,OH,45402
Faith United Methodist Church,15 W Columbus St,Canal Winchester,OH,43110
Springfield Church of-Brethren,3500 Albrecht Ave,Akron,OH,44312
Annunciation Church,3547 Clifton Ave,Cincinnati,OH,45220
Guardian Angels Catholic Chr,Massillon Rd,Akron,OH,44306
Immaculate Conception Church,1021 Riverside Ave,Wellsville,OH,43968
Nativity of the Lord Jesus Chr,2425 Myersville Rd,Akron,OH,44312
St Anthony's Church,630 Main St,Martins Ferry,OH,43935
St John's Catholic Church,331 E 2nd St,Delphos,OH,45833
St Martha's Church,300 E Tallmadge Ave,Akron,OH,44310
St Matthew's Church,2603 Benton Ave,Akron,OH,44312
St Paul's Catholic Church,241 S Main St,North Canton,OH,44720
St Sebastian Church,476 Mull Ave,Akron,OH,44320
St Vincent's Catholic School,164 W Market St,Akron,OH,44303
Firestone Park Christian,40 E Wilbeth Rd,Akron,OH,44301
High Street Christian Church,131 S High St,Akron,OH,44308
Kenmore Church of Christ,1900 East Ave,Akron,OH,44314
New Horizons Christian Church,290 Darrow Rd,Akron,OH,44305
South Akron Church of Christ,1828 Marigold Ave,Akron,OH,44301
Brown St Church of Christ,1835 Brown St,Akron,OH,44301
Hope Cafe Ministry,335 E South St,Akron,OH,44311
Lakeview Christian Church,4613 S Main St,Akron,OH,44319
St Paul's Episcopal Church,798 S Coy Rd,Oregon,OH,43616
Arlington Church of-Nazarene,1057 Triplett Blvd,Akron,OH,44306
Cornerstone Free Methodist Chr,578 Killian Rd,Akron,OH,44319
Ellet Community Church of God,2700 Priscilla Ave,Akron,OH,44312
Kenmore Church of the Nazarene,2025 12th St SW,Akron,OH,44314
Riverside Alliance Church,2433 S Main St,Akron,OH,44319
Southeast Church of Nazarene,771 Dunbar Dr,Akron,OH,44311
Wintergreen Ledges Church-God,1889 Wooster Ave,Akron,OH,44320
Goss Memorial Church,2247 11th St SW,Akron,OH,44314
Beth El Congregation,464 S Hawkins Ave,Akron,OH,44320
Temple Israel,333 25th St NW,Canton,OH,44709
Concordia Lutheran Church,6705 Brecksville Rd,Independence,OH,44131
Hope Luth Church Portage Lakes,999 Portage Lakes Dr,Akron,OH,44319
Lutheran Church,833 Carroll St,Akron,OH,44305
St John-St Paul Lutheran Chr,282 W Bowery St,Akron,OH,44307
Zion Lutheran Church-Lcms,139 S High St,Akron,OH,44308
Centenary United Methodist Chr,40 S Market St,East Palestine,OH,44413
Christ United Methodist Church,PO Box 218,Portage,OH,43451
Church of the Good Shepherd,23599 Cedar Rd,Cleveland,OH,44122
Church of the Master United,800 E Market St,Akron,OH,44305
Cottage Grove Evangelical Chr,3133 Cottage Grove Rd,Akron,OH,44319
Firestone Park United Meth,250 N Firestone Blvd,Akron,OH,44301
First United Methodist Church,110 S London St,Mt Sterling,OH,43143
Goodyear Hts United Methodist,1690 Hillside Ter,Akron,OH,44305
Green Valley United Methodist,620 E Turkeyfoot Lake Rd,Akron,OH,44319
Holy Trinity United Methodist,1127 Copley Rd,Akron,OH,44320
Lakemore United Methodist Chr,1536 Flickinger Rd,Akron,OH,44312
Lockwood United Methodist Chr,3680 Manchester Rd,Akron,OH,44319
Manchester United Methodist,5625 Manchester Rd,Akron,OH,44319
Montrose Zion United Methodist,565 N Cleveland Massillon Rd,Akron,OH,44333
Park United Methodist Church,2308 24th St SW,Akron,OH,44314
Phillip's Chapel Cme Church,413 Iroquois Ave,Akron,OH,44305
Redeemer United Methodist Chr,265 E Cuyahoga Falls Ave,Akron,OH,44310
South Arlington United Meth,790 S Arlington St,Akron,OH,44306
St John Christian Methodist,1233 S Hawkins Ave,Akron,OH,44320
St Joseph Melkite Catholic Chr,610 W Exchange St,Akron,OH,44302
Wedgewood United Methodist,2350 Wedgewood Dr,Akron,OH,44312
Wesley Temple Ame Zion,104 N Prospect St,Akron,OH,44304
Church of Jesus Christ of Lds,PO Box 98,Georgetown,OH,45121
Akron Bible Church,783 Brown St,Akron,OH,44311
Arlington Church of God,539 S Arlington St,Akron,OH,44306
Arlington Memorial Baptist Chr,2330 E Market St,Akron,OH,44312
Cathedral of Tomorrow,PO Box 3500,Akron,OH,44309
Chapel,135 Fir Hl,Akron,OH,44304
Community Church-Portage Lakes,3260 Cormany Rd,Akron,OH,44319
Community of Christ Church,834 Grant St,Akron,OH,44311
Deliverance Tabernacle,1507 Copley Rd,Akron,OH,44320
Harvest House Christian Ctr,815 Copley Rd,Akron,OH,44320
House of the Lord,1650 Diagonal Rd,Akron,OH,44320
Manchester Trinity Chapel,5781 Manchester Rd,Akron,OH,44319
Maranatha Bible Church,2410 Massillon Rd,Akron,OH,44312
Miracle Revival Fellowship,1196 Andrus St,Akron,OH,44301
Stone Deliverance Evangelical,595 Copley Rd,Akron,OH,44320
Annunciation Greek Orthodox,129 S Union St,Akron,OH,44304
Holy Ghost Ukrainian Catholic,1859 Carter Ave,Akron,OH,44301
Akron Apostolic Temple,599 Noble Ave,Akron,OH,44320
Akron First Assembly of God,1175 W Market St,Akron,OH,44313
Akron Springfield Assembly-God,1551 Canton Rd,Akron,OH,44312
East Market Street Church-God,2084 E Market St,Akron,OH,44312
Faith Temple Church-Living God,701 Sylvan Ave,Akron,OH,44306
First Apostolic Faith Church,PO Box 8127,Akron,OH,44320
Holy Temple Apostolic Church,1390 Frederick Blvd,Akron,OH,44320
House of Prayer for All People,69 S Balch St,Akron,OH,44302
Unity Holiness Ministries,1019 Harpster Ave,Akron,OH,44314
Fairlawn-West United Church,2095 W Market St,Akron,OH,44313
Firestone Park Presbyterian Ch,275 S Firestone Blvd,Akron,OH,44301
First Grace United Chr-Christ,350 S Portage Path,Akron,OH,44320
First Presbyterian Chr-Akron,647 E Market St,Akron,OH,44304
Goodyear Heights Presbyterian,1430 Goodyear Blvd,Akron,OH,44305
Oak Hill Presbyterian Church,2406 Ardwell Ave,Akron,OH,44312
Trinity United Church,915 N Main St,Akron,OH,44310
Westminster Presbyterian Chr,119 Stadium Dr,Youngstown,OH,44512
Holiness Church Of Christ,1820 S Hawkins Ave,Akron,OH,44314
Immaculate Heart Of Mary,2935 Chenoweth Rd,Akron,OH,44312
God's House Of Grace,859 Witner Ave,Akron,OH,44314
Gateway Ministrries Of Akron,2212 Romig Rd,Akron,OH,44320
Church Of God Of Prophecy,1080 W Longview Ave,Mansfield,OH,44906
Aaron L P,567 East Ave,Akron,OH,44320
Aaron Robert,1214 Hartford Ave,Akron,OH,44320
Abe James,1649 Woods Rd,Akron,OH,44306
Abc International Ministries,481 E South St,Akron,OH,44311
Absalom William J,155 Gleason Ave,Akron,OH,44312
Akron Alliance Fellowship,688 Diagonal Rd,Akron,OH,44320
Akron Christian Reformed Church,50 Marshall Ave,Akron,OH,44303
Akron First Wesleyan Church,2303 S Main St,Akron,OH,44319
Akron Free Will Baptist Church,1802 Eastwood Ave,Akron,OH,44305
Akron Jewish Center Day Camp,750 White Pond Dr,Akron,OH,44320
Akron Masjid,1147 Old Main St,Akron,OH,44301
Akron Missionary Baptist Church,17 W Cuyahoga Falls Ave,Akron,OH,44310
Al-kaf Shrine Temple,1621 Frederick Blvd,Akron,OH,44320
Albrecht Church Of God,3357 Albrecht Ave,Akron,OH,44312
Allen Robert,528 Sunset View Dr,Akron,OH,44320
Allenside Presbyterian Church,410 Rexford St,Akron,OH,44314
Beavercreek Seventh Day,670 Grange Hall Rd,Dayton,OH,45430
Centerville Seventh-Day Church,PO Box 750053,Dayton,OH,45475
Ethan Temple Seventh-Day Chr,PO Box 17528,Dayton,OH,45417
Kettering Seventh-Day Church,3939 Stonebridge Rd,Dayton,OH,45419
Beavercreek Baptist Church,3511 Dayton-Xenia Rd,Dayton,OH,45432
Calvary Missionary Baptist,2067 N Gettysburg Ave,Dayton,OH,45406
Charity Baptist Church,1506 N Fairfield Rd,Dayton,OH,45432
Christian Missionary Baptist,301 Liscum Dr,Dayton,OH,45427
Cornerstone Baptist Temple,1707 Ohmer Ave,Dayton,OH,45410
Crestview Baptist Church,3943 Fishcreek Rd,Stow,OH,44224
East Dayton Bapstist Church,1380 Spaulding Rd,Dayton,OH,45432
Fairview Baptist Church,333 Warner St,Cincinnati,OH,45219
Faith Baptist Church,440 N Lake St,Amherst,OH,44001
Far Hills Community Church,5800 Clyo Rd,Dayton,OH,45459
First Baptist Church,PO Box 64,New Lebanon,OH,45345
First Baptist Church of Dayton,111 W Monument Ave,Dayton,OH,45402
First Baptist Church-Ridgewood,116 Hanover Ave,Dayton,OH,45417
First Dayton Freewill Baptist,1661 Brandt Pike,Dayton,OH,45404
Franklin Street Baptist Church,85 Rhoads Center Dr,Dayton,OH,45458
Gateway Missionary Baptist Chr,117 Chain Ave,Dayton,OH,45417
Grace Baptist Church Sbc,142 Olive Rd,Dayton,OH,45427
Greater St John Missionary Chr,4200 Germantown Pike,Dayton,OH,45417
Harmony Baptist Church,1127 Southeast Ave,Tallmadge,OH,44278
Huber Heights First Baptist,5310 Packard Dr,Dayton,OH,45424
Landmark Baptist Church,PO Box 228,Amelia,OH,45102
Macedonia Missionary Baptist,27 N Gettysburg Ave,Dayton,OH,45417
Meadowdale Baptist Church,3686 Haney Rd,Dayton,OH,45416
Memorial Baptist Church,2435 Eakin Rd,Columbus,OH,43204
Miami Shores Baptist Church,4000 Vance Rd,Dayton,OH,45439
Moraine City Baptist Church,2748 Gladstone St,Dayton,OH,45439
Moraine Heights Baptist Church,5661 Munger Rd,Dayton,OH,45459
Mount Carmel Baptist Church,5370 Dayton Liberty Rd,Dayton,OH,45418
Mount Hebron Baptist Church,108 N Williams St,Dayton,OH,45402
Mount Moriah Baptist Church,301 Mia Ave,Dayton,OH,45417
Mount Pisgah Baptist Church,1 Diamond Ave,Dayton,OH,45403
Mt Calvary Baptist Church,343 N Main St,Mansfield,OH,44902
Mt Olive Baptist Church,2098 Oxford St,Twinsburg,OH,44087
North Dayton Baptist Church,515 Lilian Ave,Dayton,OH,45404
Omega Baptist Church,118 Salem Ave,Dayton,OH,45406
Revelation Baptist Church,1400 Blairwood Ave,Dayton,OH,45417
Spinning Road Baptist Church,538 Spinning Rd,Dayton,OH,45431
St Luke Baptist Church,2262 N Gettysburg Ave,Dayton,OH,45406
St Timothy Missionary Baptist,7101 Carnegie Ave,Cleveland,OH,44103
Tabernacle Baptist Church,707 Arlington St,Youngstown,OH,44510
Townview Baptist Church,PO Box 26508,Dayton,OH,45426
University Baptist Church,4125 Riverview Ave,Middletown,OH,45042
Washington Heights Baptist Chr,5650 Far Hills Ave,Dayton,OH,45429
Zion Baptist Church,PO Box 29071,Cincinnati,OH,45229
First Grace Brethren Church,2624 Stonequarry Rd,Dayton,OH,45414
Ascension Church,2025 Woodman Dr,Dayton,OH,45420
Church of the Incarnation,55 Williamsburg Ln,Dayton,OH,45459
Emmanuel Catholic Church,149 Franklin St,Dayton,OH,45402
Holy Angels Church,218 K St,Dayton,OH,45409
Holy Family Church,2608 Hollywood Blvd,Steubenville,OH,43952
Holy Trinity Church,11383 Sylvania Ave,Berkey,OH,43504
Our Lady Immaculate Conception,2300 S Smithville Rd,Dayton,OH,45420
Our Lady of Mercy Church,PO Box 429,Fayette,OH,43521
Our Lady of the Rosary Church,17 Farragut Rd,Cincinnati,OH,45218
Precious Blood Church,4961 Salem Ave,Dayton,OH,45416
Queen of Apostles Catholic Ch,4400 Shakertown Rd,Dayton,OH,45430
Queen of Martyrs Church,4144 Cedar Ridge Rd,Dayton,OH,45414
Resurrection Church,1744 Iliff Ave,Cincinnati,OH,45205
Saint Albert the Great Church,3033 Far Hills Ave,Dayton,OH,45429
Saint Anthony Church,820 Bowen St,Dayton,OH,45410
Saint Francis of Assisi Parish,6245 Wilmington Pike,Dayton,OH,45459
Saint Henry Church,6696 Springboro Pike,Dayton,OH,45449
Saint Leonard Faith Community,8100 Clyo Rd,Dayton,OH,45458
Saint Mary's Church,310 Allen St,Dayton,OH,45410
Saint Peter Church,6161 Chambersburg Rd,Dayton,OH,45424
St Adalbert Polish Church,1511 Valley St,Dayton,OH,45404
St Helens Catholic Church,605 Granville Pl,Dayton,OH,45431
St James Resurrection,130 Gramont Ave,Dayton,OH,45417
St Rita Church,5401 N Main St,Dayton,OH,45415
Bethany Church of Christ,2755 E Stroop Rd,Dayton,OH,45440
Central Christian Church,587 Mt Vernon Rd,Newark,OH,43055
Church of Christ-East Dayton,3415 Linden Ave,Dayton,OH,45410
Summit Christian Church,PO Box 61223,Dayton,OH,45406
Centerville Church of Christ,1411 Old Spring Valley Ct,Dayton,OH,45458
Residence Park Church of Chrst,4328 Hoover Ave,Dayton,OH,45417
Turner Road Church of Christ,450 Turner Rd,Dayton,OH,45415
Christ Episcopal Church,3445 Warrensville Center Rd,Shaker Heights,OH,44122
St George's Episcopal Church,5520 Far Hills Ave,Dayton,OH,45429
Ashcraft First Church of God,2596 Ashcraft Rd,Dayton,OH,45414
Beavercreek Church of Nazarene,1850 N Fairfield Rd,Dayton,OH,45432
Centerville Community Church,10688 Dayton Lebanon Pike,Dayton,OH,45458
Fairhaven Church,637 E Whipp Rd,Dayton,OH,45459
First Church of the Nazarene,226 N Market St,Mt Sterling,OH,43143
Hillside Chapel of Christian,3515 Shakertown Rd,Dayton,OH,45430
Huber Heights Church of God,6900 Brandt Pike,Dayton,OH,45424
Kettering First Church of God,1450 E Dorothy Ln,Dayton,OH,45429
Parkview Church of the Nzrn,4701 Far Hills Ave,Dayton,OH,45429
Salvation Army,PO Box 234,Lima,OH,45802
West Carrollton Church,550 S Elm St,Dayton,OH,45449
Beth Abraham Synagogue,1306 Salem Ave,Dayton,OH,45406
Beth Jacob Synagogue,7020 N Main St,Dayton,OH,45415
Chabad Center of Dayton,2001 Far Hills Ave,Dayton,OH,45419
Temple Beth or-South Dayton,5275 Marshall Rd,Dayton,OH,45429
Christ Evangelical Lutheran,PO Box 364,Bowling Green,OH,43402
Emmanuel Lutheran Church-Lcms,4865 Wilmington Pike,Dayton,OH,45440
Faith Lutheran Church,200 Dodge St,Swanton,OH,43558
Lutheran Church of Our Savior,155 Thruston Blvd E,Dayton,OH,45419
North Riverdale Lutheran Chrch,45 Kurtz Ave,Dayton,OH,45405
Peace Lutheran Church,28 Elm St,Canal Winchester,OH,43110
Saint Matthew Lutheran Church,5566 Chambersburg Rd,Dayton,OH,45424
Saint Timothy Lutheran Church,5040 Rye Dr,Dayton,OH,45424
St Paul Lutheran Church,PO Box 157,SULPHUR SPGS,OH,44881
St Paul's Evangelical Luth Chr,7700 Dog Leg Rd,Dayton,OH,45414
Trinity Evangelical Lutheran,78 E Liberty St,Girard,OH,44420
Vandalia Church of the Nzrn,620 Stonequarry Rd,Dayton,OH,45414
Zion Evangelical Lutheran Chr,2233 Abbeyville Rd,Valley City,OH,44280
Aley United Methodist Church,4143 Kemp Rd,Dayton,OH,45431
Beardshear United Methodist,3145 Stop 8 Rd,Dayton,OH,45414
Belmont United Methodist Chr,2701 S Smithville Rd,Dayton,OH,45420
Centerville United Methodist,63 E Franklin St,Dayton,OH,45459
Church of the Cross Untd Meth,3121 Wilmington Pike,Dayton,OH,45429
Community United Methodist Chr,120 N Pickaway St,Circleville,OH,43113
Dixon United Methodist Church,1691 Infirmary Rd,Dayton,OH,45418
Eastmount United Methodist Chr,5039 Woodbine Ave,Dayton,OH,45432
Fairview United Methodist Chr,828 W Fairview Ave,Dayton,OH,45406
Fort Mc Kinley United Meth,3721 W Siebenthaler Ave,Dayton,OH,45406
Grace United Methodist Church,318 Hopley Ave,Bucyrus,OH,44820
Greater Allen Ame Church,1620 W 5th St,Dayton,OH,45402
Harris Memorial Cme Church,3950 Haney Rd,Dayton,OH,45416
Higher Ground United Methodist,4800 N Dixie Dr,Dayton,OH,45414
Korean United Methodist Church,5899 Cleveland Ave,Columbus,OH,43231
Liberty United Methodist Chr,7840 Pemberton St,Dayton,OH,45418
Mc Kinley United Methodist Chr,196 Hawthorn St,Dayton,OH,45402
Memorial United Methodist Chr,26 N Locust St,Dayton,OH,45449
Normandy United Methodist Chr,450 W Alex Bell Rd,Dayton,OH,45459
Oakwood United Methodist Chr,PO Box 108,Dayton,OH,45409
South Park United Methodist,140 Stonemill Rd,Dayton,OH,45409
Stillwater United Methodist,6911 Frederick Pike,Dayton,OH,45414
Sulphur Grove United Methodist,7505 Taylorsville Rd,Dayton,OH,45424
Wayman Ame Church,3317 Hoover Ave,Dayton,OH,45402
Beavercreek Christian Church,3009 Shakertown Rd,Dayton,OH,45434
Canaan Missionary Baptist Chr,4688 E 162nd St,Cleveland,OH,44128
Christ Worldwide Church,PO Box 24188,Dayton,OH,45424
Huber Heights Church of Christ,4925 Fishburg Rd,Dayton,OH,45424
Joshua Christian Ministries,PO Box 41438,Dayton,OH,45441
Maranatha Christian Fellowship,4501 Wolf Rd,Dayton,OH,45416
Patterson Park Church,3655 E Patterson Rd,Dayton,OH,45430
Revival Center Ministries,PO Box 17610,Dayton,OH,45417
Southbrook Christian Church,1150 W Spring Valley Pike,Dayton,OH,45458
Victory Christian Church,2275 S Patterson Blvd,Dayton,OH,45409
Greek Orthodox Church,PO Box 1694,Springfield,OH,45501
Apostolic Lighthouse,PO Box 24007,Dayton,OH,45424
Bethel Christian-Assembly-God,327 S Smithville Rd,Dayton,OH,45403
Bethesda Temple,3701 Salem Ave,Dayton,OH,45406
Christ Life Sanctuary,4555 Marshall Rd,Dayton,OH,45429
Christian Life Ctr,6101 S Raccoon Rd,Canfield,OH,44406
Church Living Water Full,1422 N Main St,Dayton,OH,45405
Crossroads Church of God,6213 Miller Ln,Dayton,OH,45414
Kettering Assembly of God,2250 E Stroop Rd,Dayton,OH,45440
Mount Zion Aoh Church,12 College St,Dayton,OH,45402
Mt Olivet Church,920 S Euclid Ave,Dayton,OH,45417
Philadelphia Church of God,2900 Philadelphia Dr,Dayton,OH,45405
United Christian Ctr,PO Box 1717,Dayton,OH,45401
Vineyard Christian Fellowship,3005 Holt Rd,Grove City,OH,43123
Way of the Cross Open Bible,612 Beatrice Dr,Dayton,OH,45404
Bath Presbyterian Church,4624 Bath Rd,Dayton,OH,45424
Central Presbyterian Church,47 2nd St NE,Massillon,OH,44646
College Hill Community Church,1547 Philadelphia Dr,Dayton,OH,45406
David's United Church of Chrst,170 W David Rd,Dayton,OH,45429
Greenmont Oak Park Comm Church,1921 Woodman Dr,Dayton,OH,45420
Kirkmont Presbyterian Church,3377 Shakertown Rd,Dayton,OH,45434
Memorial United Church,2338 E 5th St,Dayton,OH,45403
Miami Presbytery Pc USA,1541 S Smithville Rd,Dayton,OH,45410
Mt Zion Church,22 S Fairfield Rd,Dayton,OH,45440
Oak Creek Ucc Day Care,5280 Bigger Rd,Dayton,OH,45440
Polk Grove United Church,9190 Frederick Pike,Dayton,OH,45414
Shiloh Church,5300 Philadelphia Dr,Dayton,OH,45415
Southminister Presbyterian Chr,7001 Far Hills Ave,Dayton,OH,45459
St John's United Church-Christ,51736 German Ridge Rd,Powhatan Point,OH,43942
Sugar Creek Presby Church,4417 Bigger Rd,Dayton,OH,45440
Safe House Of Worship,870 Mentor Ave,Dayton,OH,45404
River Of Worship,8947 Kingsridge Dr,Dayton,OH,45458
Northridge Assembly Of God,4777 Payne Ave,Dayton,OH,45414
Evangel Church Of God,132 N Smithville Rd,Dayton,OH,45403
Central Church Of Nazarene,610 Brown St,Dayton,OH,45402
Grace Church Of Nazarene,5253 W Webb Rd,Youngstown,OH,44515
Knollwood Church Of Christ,1031 Welford Dr,Dayton,OH,45434
Pleasant Valley Of Nzrn,2552 Bushnell Ave,Dayton,OH,45404
Tabernacle Church Of God,1740 Home Ave,Dayton,OH,45402
Living Word Of Faith,2412 W 3rd St,Dayton,OH,45417
Eastview Church Of God,5289 Burkhardt Rd,Dayton,OH,45431
Redrow Church Of Brethren,3757 Hertland Dr,Dayton,OH,45439
Centerville Church Of God,1665 E Spring Valley Pike,Dayton,OH,45458
Emmanuel Church Of Brthrn,5657 Rosebury Dr,Dayton,OH,45424
Zion Temple Of Deliverance,4944 Hickory Woods Trl,Dayton,OH,45432
A Ministry Of Love,1210 Miami Chapel Rd,Dayton,OH,45417
Abundant Life Apostolic,4100 Brown Rd,Dayton,OH,45440
Abundant Life Missionary Bapt,5025 W 3rd St,Dayton,OH,45417
Affordable Hearing Aid Center,2211 Oneida Ave,Dayton,OH,45414
Agape Bible Fellowship Pantry,2560 N Main St,Dayton,OH,45405
Agape Assembly Of God Deaf,419 Fountain Ave,Dayton,OH,45405
Agape Family Worship Center,385 Miller Ave,Columbus,OH,43205
Agape Ministries,111 E Canal St,Troy,OH,45373
Ahamadiyya Movement In Islam,653 Randolph St,Dayton,OH,45417
Air Street Church Of God,5460 Roxford Dr,Dayton,OH,45432
Airway Baptist Church,4658 Airway Rd,Dayton,OH,45431
All Gospel Church Of God,6887 W 3rd St,Dayton,OH,45417
"Allen,E Rev",400 W Siebenthaler Ave,Dayton,OH,45405
Columbus Eastwood Seventh-Day,250 S Napoleon Ave,Columbus,OH,43213
Ephesus Seventh Day Adventist,3650 Sunbury Rd,Columbus,OH,43219
Anchor Baptist Church,PO Box 240,Massillon,OH,44648
Bethany Baptist Church,6049 Yankee Rd,Middletown,OH,45044
Bethel Mssnry Baptist Church,800 S Ohio Ave,Columbus,OH,43206
Briggs Road Baptist Church,3231 Briggs Rd,Columbus,OH,43204
Broadman Baptist Church,75 Hilliard Rome Rd,Columbus,OH,43228
Calvary Bible Baptist Church,119 N Cleveland Ave,Westerville,OH,43081
Calvary Bible Church,3865 N High St,Columbus,OH,43214
Calvary Tremont Baptist Church,1255 Leonard Ave,Columbus,OH,43203
Christ Memorial Baptist Church,3330 E Livingston Ave,Columbus,OH,43227
Columbus Baptist Temple,5075 Cleveland Ave,Columbus,OH,43231
Corinthian Baptist Church,772 Whittier St,Cincinnati,OH,45229
East Mt Olivet Baptist Church,2940 E 11th Ave,Columbus,OH,43219
Family Missionary Baptist Chr,996 Oakwood Ave,Columbus,OH,43206
Hillcrest Baptist Church,820 Central Ave,Franklin,OH,45005
Hosack Street Baptist Church,1160 Watkins Rd,Columbus,OH,43207
Immanuel Baptist Church Garbc,3417 Palmetto St,Columbus,OH,43204
Karl Road Baptist Church,5750 Karl Rd,Columbus,OH,43229
Lane Avenue Baptist Church,1610 W Lane Ave,Columbus,OH,43221
Lincoln Baptist Church,5755 Feder Rd,Columbus,OH,43228
Love Zion Baptist Church,1459 Madison Ave,Columbus,OH,43205
Maize Rd Baptist Church Sbc,4251 Maize Rd,Columbus,OH,43224
Maranatha Baptist Church,4663 Trabue Rd,Columbus,OH,43228
Mountview Baptist Church,2140 Fishinger Rd,Columbus,OH,43221
Mt Carmel Baptist Church,PO Box 597,Steubenville,OH,43952
Mt Hermon Baptist Church,2283 Sunbury Rd,Columbus,OH,43219
Mt Olivet Baptist Church,428 E Main St,Columbus,OH,43215
New Salem Baptist Church,2956 Cleveland Ave,Columbus,OH,43224
Parsons Baptist Church,3930 Parsons Ave,Columbus,OH,43207
Pilgrim Missionary Baptist Chr,26 N 21st St,Columbus,OH,43203
Refuge Baptist Church,PO Box 83567,Columbus,OH,43203
Salem Baptist Church,5862 Sinclair Rd,Columbus,OH,43229
Sharon Woods Baptist Church,5959 Sharon Woods Blvd,Columbus,OH,43229
Southfield Missionary Baptist,1399 Augmont Ave,Columbus,OH,43207
Southside Baptist Church Sbc,1621 S High St,Columbus,OH,43207
Triedstone Missionary Baptist,858 E 3rd Ave,Columbus,OH,43201
Trinity Baptist Church,1211 E Maple St,North Canton,OH,44720
Union Grove Baptist Church,8932 Quincy Ave,Cleveland,OH,44106
Walnut Heights Baptist Church,1660 Lattimer Dr,Columbus,OH,43227
Westgate Baptist Church Sbc,4234 Clime Rd N,Columbus,OH,43228
Whitehall Baptist Church Sbc,392 Maplewood Ave,Columbus,OH,43213
Zion Hill Baptist Church,527 Wilson Ave,Columbus,OH,43205
Christ the King Catholic Chr,2770 Dover Rd,Columbus,OH,43209
Holy Name Church,613 N Lakeview Ave,Youngstown,OH,44509
Holy Spirit Catholic Church,2952 Edison St NW,Uniontown,OH,44685
Our Lady of Peace,833 39th St NW,Canton,OH,44709
Our Lady of the Miraculous Mdl,5225 Refugee Rd,Columbus,OH,43232
Sacred Heart Church,PO Box 425,Neffs,OH,43940
St Agatha Church,1860 Northam Rd,Columbus,OH,43221
St Aloysius Church,10932 Saint Clair Ave,Cleveland,OH,44108
St Andrew Church,552 Main St,Milford,OH,45150
St Anthony Church,6104 Desmond St,Cincinnati,OH,45227
St Catharine Church,500 S Gould Rd,Columbus,OH,43209
St Cecilia Church,3105 Madison Rd,Cincinnati,OH,45209
St Christopher Church,1420 Grandview Ave,Columbus,OH,43212
St Elizabeth Church,1682 Lynnhurst Rd,Columbus,OH,43229
St Francis of Assisi Church,6850 Mayfield Rd,Gates Mills,OH,44040
St James Less Rc Church,1652 Oakland Park Ave,Columbus,OH,43224
St John-Baptist Catholic Chr,720 Hamlet St,Columbus,OH,43215
St Joseph Cathedral,212 E Broad St,Columbus,OH,43215
St Margaret-Cortona Chr,1600 N Hague Ave,Columbus,OH,43204
St Mary's Church,3504 Main St,Mineral Ridge,OH,44440
St Matthias Church,915 Cornell St,Youngstown,OH,44502
St Philip the Apostle Church,1573 Elaine Rd,Columbus,OH,43227
St Thomas the Apostle,2692 E 5th Ave,Columbus,OH,43219
St Timothy Cath Ch,1088 Thomas Ln,Columbus,OH,43220
Beechwold Christian Church,280 Morse Rd,Columbus,OH,43214
Broad Street Christian Church,1049 E Broad St,Columbus,OH,43205
East Cols Christian Church,1055 McNaughten Rd,Columbus,OH,43213
Eastland Christian Church,3371 Noe Bixby Rd,Columbus,OH,43232
Eastpointe Christian Church,441 S Yearling Rd,Columbus,OH,43213
Karl Road Christian Church,5400 Karl Rd,Columbus,OH,43229
North Park Church of Christ,4938 Westerville Rd,Columbus,OH,43231
Northwest Christian Church,1340 Fishinger Rd,Columbus,OH,43221
Southside Church of Christ,275 Colton Rd,Columbus,OH,43207
Church of Christ,PO Box 364,Toronto,OH,43964
Church of Christ Fishinger,1130 Fishinger Rd,Columbus,OH,43221
Northland Church of Christ,4581 Cleveland Ave,Columbus,OH,43231
Episcopal Diocese Southern Oh,125 E Broad St,Columbus,OH,43215
St Mark's Episcopal Church,515 48th St NW,Canton,OH,44709
St Philip's Episcopal Church,166 Woodland Ave,Columbus,OH,43203
Hilltop Church of God,635 Whitethorne Ave,Columbus,OH,43223
Lighthouse Ministries,2295 S High St,Columbus,OH,43207
Meadow Park Church of God,2425 Bethel Rd,Columbus,OH,43220
Northwest Church of-Nazarene,5707 Olentangy River Rd,Columbus,OH,43235
Shepherd Church-the Nazarene,425 S Hamilton Rd,Columbus,OH,43213
Whitehall Church-the Nazarene,739 S Yearling Rd,Columbus,OH,43213
Fellowship Baptist Church,18320 5th St,Beloit,OH,44609
Agudas Achim Synagogue,2767 E Broad St,Columbus,OH,43209
Beth Jacob Congregation,1223 College Ave,Columbus,OH,43209
Congregation Ahavas Sholom,2568 E Broad St,Columbus,OH,43209
Congregation Tifereth Israel,1354 E Broad St,Columbus,OH,43205
Congregation Torat Emet,2375 E Main St,Columbus,OH,43209
Advent Evangelical Lutheran,15309 Harvard Ave,Cleveland,OH,44128
Ascension Lutheran Church,28081 Lorain Rd,North Olmsted,OH,44070
Atonement Lutheran Church,1621 Francisco Rd,Columbus,OH,43220
Bethany Lutheran Church-Lcms,1000 Noe Bixby Rd,Columbus,OH,43213
Calvary Lutheran Church,1930 Bradner Rd,Northwood,OH,43619
Clinton Heights Lutheran Chr,15 Clinton Heights Ave,Columbus,OH,43202
Emmanuel Lutheran Church,PO Box 2,North Georgetown,OH,44665
Fellowship Lutheran Church,7350 Sawmill Rd,Columbus,OH,43235
Gethsemane Lutheran Church,14560 Madison Ave,Lakewood,OH,44107
Grace Evangelical Lutheran Chr,100 E Schrock Rd,Westerville,OH,43081
Hope Lutheran Church-Elca,820 Lilley Ave,Columbus,OH,43205
Linden Lutheran Church,1230 Oakland Park Ave,Columbus,OH,43224
Lord of Life Lutheran Church,17989 Chillicothe Rd,Chagrin Falls,OH,44023
North Community Lutheran Chr,114 Morse Rd,Columbus,OH,43214
St James Lutheran Church-Mo,5660 Trabue Rd,Columbus,OH,43228
St John Lutheran Church,PO Box 245,Petersburg,OH,44454
St Matthews Evangelical Luth,80 Martin Ave,Columbus,OH,43222
St Paul Lutheran Church Elca,55 Pasadena Ave,Columbus,OH,43228
St Philip Lutheran Church,1506 E Long St,Columbus,OH,43203
St Timothy Lutheran Church,1262 Ashland Rd,Mansfield,OH,44905
Upper Arlington Lutheran Chr,2300 Lytham Rd,Columbus,OH,43220
Zion Lutheran Church Talc,1080 Obetz Rd,Columbus,OH,43207
Unity Church of Christianity,4211 Maize Rd,Columbus,OH,43224
Bethel Ame Church,1422 Young St,Middletown,OH,45044
Bethel United Methodist Church,402 W Plane St,Bethel,OH,45106
Bexley United Methodist Church,2657 E Broad St,Columbus,OH,43209
Church of the Reedemer Meth,235 McNaughten Rd,Columbus,OH,43213
Columbia Heights United Mthdst,91 Sturbridge Rd,Columbus,OH,43228
Crossroads United Meth Church,1100 S Hague Ave,Columbus,OH,43204
District Three Ame Church,"5300 E Main St, #101",Columbus,OH,43213
First Ame Zion Church,PO Box 6866,Columbus,OH,43205
Gates-Fourth United Methodist,1234 S 4th St,Columbus,OH,43206
Glenwood United Methodist Chr,2833 Valleyview Dr,Columbus,OH,43204
Hilltonia United Methodist Chr,514 Columbian Ave,Columbus,OH,43223
Hilltop United Methodist Chr,1930 W Galbraith Rd,Cincinnati,OH,45239
Linden United Methodist Church,1634 Minnesota Ave,Columbus,OH,43211
Linworth United Methodist Chr,7070 Bent Tree Blvd,Columbus,OH,43235
Maize Manor United Methodist,3901 Maize Rd,Columbus,OH,43224
Maple Grove United Methodist,7 W Henderson Rd,Columbus,OH,43214
Mc Kendree United Methodist,3330 Cleveland Ave,Columbus,OH,43224
Minerva Park United Methodist,4930 Cleveland Ave,Columbus,OH,43231
North Broadway United Meth Chr,48 E North Broadway St,Columbus,OH,43214
Northwest Methodist Church,3785 Waldo Pl,Columbus,OH,43220
Northwest United Methodist Chr,5200 Riverside Dr,Columbus,OH,43214
Oakland Park United Methodist,994 Oakland Park Ave,Columbus,OH,43224
Parkview United Methodist Chr,28 S 5th St,Miamisburg,OH,45342
Riverside United Methodist Chr,2701 Zollinger Rd,Columbus,OH,43221
St Mark's United Methodist Chr,4601 Fairfield Ave,Fairfield,OH,45014
St Paul Ame Church,1800 Tuscarawas St E,Canton,OH,44707
Trinity United Methodist Chr,PO Box 168,Bloomdale,OH,44817
Walnut Hill United Methodist,975 Rathmell Rd,Columbus,OH,43207
Westley United Methodist Chr,684 Oakwood Ave,Columbus,OH,43205
Whitehall United Methodist Chr,525 Bernhard Rd,Columbus,OH,43213
Lds Church Educational System,79 E 12th Ave,Columbus,OH,43201
Aasac Community Church,1723 S High St,Columbus,OH,43207
All Nations Church,3330 El Paso Dr,Columbus,OH,43204
Ambassadors for Christ,2255 Kimberly Pky E,Columbus,OH,43232
Brown Road Community Church,1187 Brown Rd,Columbus,OH,43223
Calvary Chapel of Columbus,1068 Country Club Rd,Columbus,OH,43227
Christian Community Church,5586 Olentangy River Rd,Columbus,OH,43235
Christian Fellowship Church,5970 Godown Rd,Columbus,OH,43235
Columbus Bible Way Church,2660 Rhoads Ave,Columbus,OH,43207
Columbus Chinese Christian Chr,4141 Maize Rd,Columbus,OH,43224
Columbus Christian Ctr,2300 N Cassady Ave,Columbus,OH,43219
First Community Church,1320 Cambridge Blvd,Columbus,OH,43212
Good Shepherd Community Church,210 Obetz Rd,Columbus,OH,43207
Gospel Lighthouse Church,PO Box 9730,Columbus,OH,43209
Grace Point Community Church,8828 Commerce Loop Dr,Columbus,OH,43240
Imani Christain Church,286 Belvidere Ave,Columbus,OH,43223
International Christian Ctr,990 Kingsmill Pky,Columbus,OH,43229
Linworth Road Community Church,5400 Linworth Rd,Columbus,OH,43235
Redeemer's Church,1850 Courtright Rd,Columbus,OH,43227
Restoration Christian Ctr,PO Box 7861,Columbus,OH,43207
Rhema Christian Ctr,PO Box 247198,Columbus,OH,43224
Rock-of-Faith Baptist Church,1651 E Main St,Columbus,OH,43205
St James Pentecostal,3593 Refugee Rd,Columbus,OH,43232
Worthington Christian Church,8145 N High St,Columbus,OH,43235
Macedonian Orthodox St Mary,120 S Napoleon Ave,Columbus,OH,43213
Bible Way Church of Our Lord,453 S Wheatland Ave,Columbus,OH,43204
Calvary Apostolic Church,2551 W Schrock Rd,Westerville,OH,43081
Christian Assembly,25595 Chardon Rd,Cleveland,OH,44143
Church-Christ-Apostolic Faith,1200 Brentnell Ave,Columbus,OH,43219
Clime Road Church of God,3600 Clime Rd,Columbus,OH,43228
Eagles Nest Fellowship Ctr,5000 Sunbury Rd,Columbus,OH,43230
Easton Worship Ctr,5400 Strawberry Farms Blvd,Columbus,OH,43230
First Church-Christ Apostolic,1911 Oakland Park Ave,Columbus,OH,43224
Jordan Memorial Cogic,1415 Haddon Rd,Columbus,OH,43209
Living Faith Apostolic,2177 Mock Rd,Columbus,OH,43219
Oakley Full Gospel Baptist,3415 El Paso Dr,Columbus,OH,43204
Parson's Ave Church of God,3389 Parsons Ave,Columbus,OH,43207
Pentecostal Assembly,PO Box 44036,Columbus,OH,43204
Pool of Bethesda,2600 McCutcheon Rd,Columbus,OH,43219
Potter's House Church of God,3220 Lowell Dr,Columbus,OH,43204
Rehoboth Temple Church-Christ,PO Box 83326,Columbus,OH,43203
Temple of Faith Clg,PO Box 24445,Columbus,OH,43224
Advent Church Ucc,2303 N Cassady Ave,Columbus,OH,43219
Bethel Presbyterian Church,1735 Bethel Rd,Columbus,OH,43220
Boulevard Presbyterian Church,24600 S Lake Shore Blvd,Euclid,OH,44123
Broad Street Presbyterian Chr,760 E Broad St,Columbus,OH,43205
Brookwood Presbyterian Church,2685 E Livingston Ave,Columbus,OH,43209
Calvin Presbyterian Church,PO Box 259,Amelia,OH,45102
Covenant Presbyterian Church,1443 Belleview Blvd,Steubenville,OH,43952
Crestview Presbyterian Church,350 E Tulane Rd,Columbus,OH,43202
Glen Echo United Presbyterian,220 Cliffside Dr,Columbus,OH,43202
Hoge Memorial Presbyterian Chr,2930 W Broad St,Columbus,OH,43204
Indianola Presbyterian Church,1970 Waldeck Ave,Columbus,OH,43201
North Congregational United,2040 Henderson Rd,Columbus,OH,43220
Shady Lane Presbyterian Church,4117 E Livingston Ave,Columbus,OH,43227
St John's Evangelical,59 E Mound St,Columbus,OH,43215
Worship Center Of Central Ohio,2600 Old Courtright Rd,Columbus,OH,43232
"Word Church Of God In Christ Of Greater Columbus, Ohio",115 N Wilson Rd,Columbus,OH,43204
Ohio Conference Of United Church Of Christ,6161 Busch Blvd,Columbus,OH,43229
Trinity Assembly Of God,1112 Demorest Rd,Columbus,OH,43204
Catholic Diocese Of Columbus,578 E Main St,Columbus,OH,43215
Resurrection Assembly Of God,1871 Northcliff Loop N,Columbus,OH,43229
Victory Church Of God,2090 E Dublin Granville Rd,Columbus,OH,43229
Calvary Temple-assembly Of God,4525 Glenmawr Ave,Columbus,OH,43224
Northside Church Of God,1790 Cleveland Ave,Columbus,OH,43211
Church Of Christ Of Apostolic,2130 Woodward Ave,Columbus,OH,43219
Westhill Church Of Christ,3220 Sullivant Ave,Columbus,OH,43204
Church At Polaris,1250 Gemini Pl,Columbus,OH,43240
World Harvest Church,9039 Antares Ave,Columbus,OH,43240
State Convention-baptists,9000 Antares Ave,Columbus,OH,43240
Cornerstone Community Church,8930 Commerce Loop Dr,Columbus,OH,43240
Polaris Assembly Of God,8854 Commerce Loop Dr,Columbus,OH,43240
Park Road Church Of Christ,653 Park Rd,Columbus,OH,43085
Trinity Church Of Nazarene,2780 Canton Rd,Uniontown,OH,44685
Dearmey Richard P,1375 Meadowbank Dr,Columbus,OH,43085
Lifepoint Church,90 Northwoods Blvd,Columbus,OH,43235
Christian Church In Ohio,355 E Campus View Blvd,Columbus,OH,43235
St John's Ame Church,7700 Crosswoods Dr,Columbus,OH,43235
Schroeder J R,7755 N High St,Columbus,OH,43235
High Street Baptist Church,7399 N High St,Columbus,OH,43235
Lamb J C,6587 Sharon Woods Blvd,Columbus,OH,43229
Wallace John,2170 Willowick Sq,Columbus,OH,43229
Carter Nathaniel,6335 Bellmeadow Dr,Columbus,OH,43229
Xenos Christian Fellowship,1340 Community Park Dr,Columbus,OH,43229
Church Of Guiding Light,6291 Bellmeadow Dr,Columbus,OH,43229
Lambert Paul E,1736 Arbor Hill Dr,Columbus,OH,43229
Cummings Kennteh,6225 Willowcrest Dr,Columbus,OH,43229
Suen David,2556 Home Acre Dr,Columbus,OH,43231
Gospel Outlet,6178 Busch Blvd,Columbus,OH,43229
Mto Shahmaghsoudi Church,6077 Cleveland Ave,Columbus,OH,43231
Presbytery Of Scioto Valley,6172 Busch Blvd,Columbus,OH,43229
Sharon Woods Bapt Chr Family,1729 Durbridge Rd,Columbus,OH,43229
L.W.B.F.W. Chosen Generation Church,5929 Karl Rd,Columbus,OH,43229
Power House Community Church,2394 Hampstead Dr,Columbus,OH,43229
Devine Kingdom Worship Center,5921 Karl Rd,Columbus,OH,43229
St Andrew Presbyterian Church,1450 E Dublin Granville Rd,Columbus,OH,43229
Mt Sinai Chr Of God ,5909 Cleveland Ave,Columbus,OH,43231
Everyday People Ministries,925 E Dublin Granville Rd,Columbus,OH,43229
Glodkowski Bruno A,5960 Lisa St,Columbus,OH,43231
Eckankar Ohio Satsang Society,1395 E Dublin Granville Rd,Columbus,OH,43229
Central States Jurisdiction,5984 Ella Ct,Columbus,OH,43231
Overcomers Christian Mnstrs,2439 Fuji Dr,Columbus,OH,43229
True Believers Evangelism,29471 PO Box,Columbus,OH,0
Church In Columbus,29126 PO Box,Columbus,OH,0
Linkowksi Eugene R Rev,5858 Cleveland Ave,Columbus,OH,43231
Churchs Dominion Faith,1673 Karl Ct,Columbus,OH,43229
World Church Of Jesus Christ,1681 Karl Ct,Columbus,OH,43229
Local Church In Columbus,5910 Sinclair Rd,Columbus,OH,43229
Wilder C Wayne,2002 Tupsfield Rd,Columbus,OH,43229
Stires Dan L Pastor,5600 Karl Rd,Columbus,OH,43229
Wilson Jim,7754 Glen Hollow Ct,Columbus,OH,43235
Church At Northpoint,5550 Cleveland Ave,Columbus,OH,43231
High Praise International Fellowship,2703 Northland Plaza Dr,Columbus,OH,43231
Hesed Christian Fellowship,5532 Sinclair Rd,Columbus,OH,43229
Praise Lord Fellowship,2086 Teakwood Dr,Columbus,OH,43229
Christian Missionary Alliance,5543 Sinclair Rd,Columbus,OH,43229
Victorious Life Christian Center,1875 Tamarack Cir N,Columbus,OH,43229
Whiteside Mary,5370 Heckin Ct,Columbus,OH,43229
Faith Life Family Church,2580 Jordan Rd,Columbus,OH,43231
New Destiny Church Of God In Christ,1852 Tamarack Cir S,Columbus,OH,43229
Ching Ter Maintreya Temple,2891 E Dublin Granville Rd,Columbus,OH,43231
Christ Embassy International,5393 Sinclair Rd,Columbus,OH,43229
New Creation Missionary Bapt,2965 E Dublin Granville Rd,Columbus,OH,43231
Joy Christian Church,142 Wetherby Ln,Westerville,OH,43081
Jesus Power Assembly God Chr,5215 Cleveland Ave,Columbus,OH,43231
Highlands Presbyterian Church,6909 Smoky Row Rd,Columbus,OH,43235
St Peters Church,1533 E 17th St,Cleveland,OH,44114
Smoky Row Brethren Church,7260 Smoky Row Rd,Columbus,OH,43235
Motel 6-North Columbus,1289 Fahlander Dr N,Columbus,OH,43229
Korean Church Of Columbus,2825 Snouffer Rd,Columbus,OH,43235
Ministry Vision Of Faith,2218 Minerva Ave,Columbus,OH,43229
Moxley Irvin S,420 Charleston Ave,Columbus,OH,43214
North Woods Community Church,876 Freeway Dr N,Columbus,OH,43229
Matejic Mateja Rev,1404 Norma Rd,Columbus,OH,43229
Ministries Abba,4979 Woodbriar Pl,Columbus,OH,43229
Columbus Center-spiritual Lvng,2436 W Dublin Granville Rd,Columbus,OH,43235
North Baptist Church,76 Charleston Ave,Columbus,OH,43214
Fleming Ronald R,2396 Queen Ann Ct,Columbus,OH,43235
Gurdwara Of Central Ohio,2580 W Dublin Granville Rd,Columbus,OH,43235
Jehovah's Witnesses,421 E College Ave,Westerville,OH,43081
Justice Jay Pete,420 Rosslyn Ave,Columbus,OH,43214
Zoller Hariette G Rev,5155 N High St,Columbus,OH,43214
Abounding Praise Worship Center,5250 Strawberry Farms Blvd,Columbus,OH,43230
Holy Cross Orthodox Mission,2548 Billingsley Rd,Columbus,OH,43235
Kingdon Community Church,5105 Ormanton Dr,Columbus,OH,43230
St Mary Coptic Orthodox Church,4061 Forest Edge Dr,Columbus,OH,43230
Griesinger Robert Rev,7041 Bent Tree Blvd,Columbus,OH,43235
New Life Baptist Church,PO Box 31359,Cincinnati,OH,45231
Abundant Faith Church Of God,800 E 5th Ave,Columbus,OH,43201
Abundant Life Mortgage Finance,920 Old Farm Rd,Columbus,OH,43213
Abundant Life Tabernacle,9440 Eby Rd,Germantown,OH,45327
Acts Of Faith Cmnty Crusade,1209 Cleveland Ave,Columbus,OH,43201
Adoration ,786 Mulberry St,Columbus,OH,43219
Aenon Missionary Baptist Chr,1385 Brentnell Ave,Columbus,OH,43219
Agora's Little Gems Early,400 W Broad St,Columbus,OH,43215
Akers James E,251 N Algonquin Ave,Columbus,OH,43204
All Nations Baptist Church,4105 Westerville Rd,Columbus,OH,43224
All Saints Catholic Academy,2855 E Livingston Ave,Columbus,OH,43209
Allegheny West Conference,1339 E Broad St,Columbus,OH,43205
Allen Carl W,668 E 2nd Ave,Columbus,OH,43201
First Seventh-Day Adventist,7480 Mayfield Rd,Chesterland,OH,44026
St Anselm Church,12969 Chillicothe Rd,Chesterland,OH,44026
Fowlers Mills Christian Church,10793 Butternut Rd,Chesterland,OH,44026
Word of Grace Church,9021 Mayfield Rd,Chesterland,OH,44026
Glenville Seventh Day Adv Chr,737 E 105th St,Cleveland,OH,44108
Temple of Praise Seventh Day,1985 Green Rd,Cleveland,OH,44121
Affinity Baptist Church,4411 E 175th St,Cleveland,OH,44128
Allen Chapel Missionary Bapt,9333 Miles Ave,Cleveland,OH,44105
Avon Avenue Baptist Church,10902 Avon Ave,Cleveland,OH,44105
Bethel Church of Cleveland Hgt,2706 Noble Rd,Cleveland,OH,44121
Beulah Missionary Baptist Chr,14918 Cardinal Ave,Cleveland,OH,44110
Blessed Hope Missionary Bapt,8804 Buckeye Rd,Cleveland,OH,44104
Bright Star Missionary Baptist,13028 Shaw Ave,Cleveland,OH,44108
Calvary Hill Baptist Church,2171 E 103rd St,Cleveland,OH,44106
Cedar Hill Baptist Church,12601 Cedar Rd,Cleveland,OH,44106
Central Bible Baptist Church,2285 Noble Rd,Cleveland,OH,44121
Cleveland Baptist Church,4431 Tiedeman Rd,Cleveland,OH,44144
Concord Baptist Church,1175 E 125th St,Cleveland,OH,44112
East Mount Zion Church,9990 Euclid Ave,Cleveland,OH,44106
East Mt Vernon Baptist Church,4164 E 123rd St,Cleveland,OH,44105
Elizabeth Baptist Church,7 S Garland Ave,Youngstown,OH,44506
Everlasting Baptist Church,579 Eddy Rd,Cleveland,OH,44108
Fairview Community Church-Bapt,21220 Lorain Rd,Cleveland,OH,44126
Faith Temple Baptist Church,10804 Union Ave,Cleveland,OH,44105
First Community Baptist Church,7004 Wade Park Ave,Cleveland,OH,44103
Fulton Road Community Church,3354 Fulton Rd,Cleveland,OH,44109
Gethsemane Baptist Church,1885 E 79th St,Cleveland,OH,44103
Good Hope Church,7519 Central Ave,Cleveland,OH,44104
Good Shepherd Baptist Church,1100 Cleveland Ave,Amherst,OH,44001
Greater Abyssinia Baptist Chr,1161 E 105th St,Cleveland,OH,44108
Greater Faith Baptist Church,PO Box 10758,Cleveland,OH,44110
Greater Friendship Baptist Chr,646 Lakewood Ave,Youngstown,OH,44502
Greater Peace Missionary Bapt,3435 Fairmount Blvd,Cleveland,OH,44118
Harvest Missionary Baptist Chr,3649 E 93rd St,Cleveland,OH,44105
Holy Grove Baptist Church,2844 E 130th St,Cleveland,OH,44120
Hopewell Missionary Bapt Chr,6920 Lexington Ave,Cleveland,OH,44103
Lee Road Baptist Church,3970 Lee Rd,Cleveland,OH,44128
Madison Avenue Baptist Church,2015 W 95th St,Cleveland,OH,44102
Morning Star Baptist Church,PO Box 6235,Cincinnati,OH,45206
Mount Haven Baptist Church,3484 Martin Luther King Jr Dr,Cleveland,OH,44104
Mount Nebo Baptist Church,12701 Superior Ave,Cleveland,OH,44112
Mt Gillion Baptist Church,7025 Cedar Ave,Cleveland,OH,44103
Mt Pleasant Baptist Church,13009 Kinsman Rd,Cleveland,OH,44120
Mt Sinai Baptist Church,7510 Woodland Ave,Cleveland,OH,44104
New Bethel Baptist Church,1507 Hillman St,Youngstown,OH,44507
New Fellowship Baptist Church,PO Box 608726,Cleveland,OH,44108
New Joshua Baptist Church,PO Box 605607,Cleveland,OH,44105
Olive Grove Baptist Church,15914 Talford Ave,Cleveland,OH,44128
Olivet Institutional Baptist,8712 Quincy Ave,Cleveland,OH,44106
Open Door Baptist Church,8215 Woodland Ave,Cleveland,OH,44104
Original Harvest Missionary,7109 Kinsman Rd,Cleveland,OH,44104
Park Heights Baptist Church,16189 Sheldon Rd,Cleveland,OH,44130
Parma Baptist Church Sbc,12193 W Pleasant Valley Rd,Cleveland,OH,44130
Parma Heights Baptist Church,8971 W Ridgewood Dr,Cleveland,OH,44130
Peace Baptist Church,652 Rockdale Ave,Cincinnati,OH,45229
Pearlbrook Baptist Church,11100 Snow Rd,Cleveland,OH,44130
Philemon Community Baptist Chr,12618 Shaw Ave,Cleveland,OH,44108
Philemon Missionary Baptist,14001 Miles Ave,Cleveland,OH,44128
Philippi Missionary Baptist,11703 Corlett Ave,Cleveland,OH,44105
Prince of Peace Missionary,PO Box 91776,Cleveland,OH,44101
Providence Baptist Church,480 S Hempstead Rd,Westerville,OH,43081
Rock Hill Missionary Baptist,11739 Kinsman Rd,Cleveland,OH,44120
Second Calvary Baptist Church,12017 Emery Ave,Cleveland,OH,44135
Second Ebenezer Baptist Church,1881 E 71st St,Cleveland,OH,44103
Second Metropolitan Bapt Chr,2424 E 79th St,Cleveland,OH,44104
Second Mt Olive Baptist Church,757 Eddy Rd,Cleveland,OH,44108
Second New Hope Baptist Chr,2917 E 116th St,Cleveland,OH,44120
St John's Baptist Church,2300 E 100th St,Cleveland,OH,44106
St Lukes Missionary Baptist,10415 Westchester Ave,Cleveland,OH,44108
St Mark Baptist Church,11123 Buckeye Rd,Cleveland,OH,44104
Starlight Baptist Church,14516 Euclid Ave,Cleveland,OH,44112
Triedstone Baptist Church,2045 Jacobs Rd,Youngstown,OH,44505
Trinity Baptist Church Sbc,2707 Grantwood Dr,Cleveland,OH,44134
True Gospel Missionary Baptist,3303 E 93rd St,Cleveland,OH,44104
Unity Baptist Church,10480 Kinsman Rd,Cleveland,OH,44104
Unity Faith Missionary Baptist,14623 Harvard Ave,Cleveland,OH,44128
Unity Free Will Baptist Church,6658 Fry Rd,Cleveland,OH,44130
Willing Workers Baptist Church,3510 E 124th St,Cleveland,OH,44105
Zion Chapel Baptist Church,4234 Lee Rd,Cleveland,OH,44128
Zion Hill Bapt Church,11115 Kinsman Rd,Cleveland,OH,44104
Ascension Catholic Church,14040 Puritas Ave,Cleveland,OH,44135
Christ the King,1862 Noble Rd,Cleveland,OH,44112
Community of St Malachi,2459 Washington Ave,Cleveland,OH,44113
Congregation of the Blessed,5384 Wilson Mills Rd,Cleveland,OH,44143
Corpus Christi Church,5204 Northcliff Ave,Cleveland,OH,44144
Gesu Parish,2470 Miramar Blvd,Cleveland,OH,44118
Holy Cross Church,19951 S Lake Shore Blvd,Cleveland,OH,44119
Holy Redeemer Church,PO Box 67,New Bremen,OH,45869
Holy Rosary Church,511 E Spring St,St Marys,OH,45885
Our Lady of Angels Church,3644 Rocky River Dr,Cleveland,OH,44111
Our Lady of Good Counsel Chr,4423 Pearl Rd,Cleveland,OH,44109
Our Lady of Lourdes Parish,3395 E 53rd St,Cleveland,OH,44127
Our Lady of Peace Church,12503 Buckingham Ave,Cleveland,OH,44120
Sacred Heart of Jesus Roman,6916 Krakow Ave,Cleveland,OH,44105
Sagrada Familia,7719 Detroit Ave,Cleveland,OH,44102
San Miquel Church,3114 Scranton Rd,Cleveland,OH,44109
St Agnes-Our Lady of Fatima,PO Box 603621,Cleveland,OH,44103
St Albert the Great Church,6667 Wallings Rd,Cleveland,OH,44141
St Angela's Church,20970 Lorain Rd,Cleveland,OH,44126
St Bartholomew,14865 Bagley Rd,Cleveland,OH,44130
St Boniface's Church,3545 W 54th St,Cleveland,OH,44102
St Bridgets Church,5620 Hauserman Rd,Cleveland,OH,44130
St Christine's,840 E 222nd St,Cleveland,OH,44119
St Colman's,2027 W 65th St,Cleveland,OH,44102
St Columbkille Church,6740 Broadview Rd,Cleveland,OH,44134
St Elias Church,8023 Memphis Ave,Cleveland,OH,44144
St Felicitas Church,140 Richmond Rd,Cleveland,OH,44143
St Francis Catholic Church,7206 Myron Ave,Cleveland,OH,44103
St Francis De Sales Church,20 Desales Ave,Lebanon,OH,45036
St Gregory the Great Church,1545 S Green Rd,Cleveland,OH,44121
St Henry Church,18200 Harvard Ave,Cleveland,OH,44128
St Hyacinth Church,6114 Francis Ave,Cleveland,OH,44127
St Ignatius of Antioch Church,10205 Lorain Ave,Cleveland,OH,44111
St Jerome's Church,15000 Lake Shore Blvd,Cleveland,OH,44110
St John Cantius Church-Polish,906 College Ave,Cleveland,OH,44113
St John Nepomucene Church,3785 Independence Rd,Cleveland,OH,44105
St Joseph Church,117 Sandusky St,Plymouth,OH,44865
St Ladislas Church,2345 Bassett Rd,Cleveland,OH,44145
St Lawrence Church,3680 Warsaw Ave,Cincinnati,OH,45205
St Leo the Great Catholic Chr,4940 Broadview Rd,Cleveland,OH,44109
St Lukes Catholic Church,1212 Bunts Rd,Cleveland,OH,44107
St Margaret Mary Parish,4217 Bluestone Rd,Cleveland,OH,44121
St Maron Church,1245 Carnegie Ave,Cleveland,OH,44115
St Martin of Tours Church,7367 York Rd,Cleveland,OH,44130
St Mary of the Falls Church,25615 Bagley Rd,Cleveland,OH,44138
St Mary's Polish Church,PO Box 1901,Cleveland,OH,44106
St Mary's Polish Cthlc Rectory,1901 Wexford Ave,Cleveland,OH,44134
St Mel Church,14436 Triskett Rd,Cleveland,OH,44111
St Michael Catholic Church,5750 N High St,Worthington,OH,43085
St Monica's Church,13623 Rockside Rd,Cleveland,OH,44125
St Patrick's Church,61 S Union St,London,OH,43140
St Patrick's Church Wp,4427 Rocky River Dr,Cleveland,OH,44135
St Paul Croatian Church,1369 E 40th St,Cleveland,OH,44103
St Rocco's Church,3205 Fulton Rd,Cleveland,OH,44109
St Rose of Lima Church,50 Struthers Coitsville Rd,Youngstown,OH,44436
St Stanislaus Church,2702 Elyria Ave,Lorain,OH,44055
St Therese Church,5276 E 105th St,Cleveland,OH,44125
St Vincent De Paul Church,4044 River Rd,Cincinnati,OH,45204
St Vitus Church,6019 Lausche Ave,Cleveland,OH,44103
St Wendelins Church,2281 Columbus Rd,Cleveland,OH,44113
Sts Peter ,4750 Turney Rd,Cleveland,OH,44125
Sts Philip ,412 High St NE,Canal Fulton,OH,44614
Bethany Christian Church,3940 Martin Luther King Jr Dr,Cleveland,OH,44105
Broadway Christian Church,5920 Engel Ave,Cleveland,OH,44127
Euclid Ave Christian Church,3663 Mayfield Rd,Cleveland,OH,44118
Fifth Christian Church,3203 Wold Ave,Cincinnati,OH,45207
Franklin Circle Christian Chr,1688 Fulton Rd,Cleveland,OH,44113
Heights Christian Church,17300 Van Aken Blvd,Cleveland,OH,44120
Parma Christian Church,7000 Ridge Rd,Cleveland,OH,44129
University Church of Christ,1885 E 89th St,Cleveland,OH,44106
Church of the Epiphany,21800 Lake Shore Blvd,Cleveland,OH,44123
Church of the Transfiguration,8614 Euclid Ave,Cleveland,OH,44106
St Andrew's Episcopal Church,267 5th St NW,Barberton,OH,44203
St Bartholomew Episcopal Chr,435 Som Center Rd,Cleveland,OH,44143
St Peter's Episcopal Church,PO Box 329,Delaware,OH,43015
Trinity Cathedral,2230 Euclid Ave,Cleveland,OH,44115
Bedford Church of the Nazarene,365 Center Rd,Cleveland,OH,44146
Grace Church C ,7393 Pearl Rd,Cleveland,OH,44130
Lakeview Church of God,7555 York Rd,Cleveland,OH,44130
Star of Bethel Missionary Chr,1567 Crawford Rd,Cleveland,OH,44106
B'Nai Jeshurun Congregation,27501 Fairmount Blvd,Cleveland,OH,44124
Congregation Bethaynu,27900 Gates Mills Blvd,Cleveland,OH,44124
Fairmount Temple,23737 Fairmount Blvd,Cleveland,OH,44122
Green Road Synagogue,2437 S Green Rd,Cleveland,OH,44122
Heights Jewish Ctr,14270 Cedar Rd,Cleveland,OH,44121
Park Synagogue,3300 Mayfield Rd,Cleveland,OH,44118
Suburban Temple Kol Ami,22401 Chagrin Blvd,Cleveland,OH,44122
Temple Emanuel,2200 S Green Rd,Cleveland,OH,44121
Temple-Tifereth Israel,26000 Shaker Blvd,Cleveland,OH,44122
Warrensville Center Synagogue,1508 Warrensville Center Rd,Cleveland,OH,44121
Young Israel of Cleveland,2463 S Green Rd,Cleveland,OH,44122
Advent Lutheran Church Elca,5525 Harper Rd,Cleveland,OH,44139
Bethany English Lutheran Chr,15460 Triskett Rd,Cleveland,OH,44111
Bethany Evangelical Lutheran,6041 Ridge Rd,Cleveland,OH,44129
Christ the Redeemer Lutheran,9201 Brecksville Rd,Cleveland,OH,44141
Divinity Lutheran Church Elca,11877 Blossom Ave,Cleveland,OH,44130
Dr Martin Luther Lutheran Chr,4470 Ridge Rd,Cleveland,OH,44144
Euclid Lutheran Church,431 E 260th St,Cleveland,OH,44132
Hope Lutheran,2222 N Taylor Rd,Cleveland,OH,44112
Immanuel Evangelical Lutheran,2928 Scranton Rd,Cleveland,OH,44113
Lutheran Church of the Master,28744 Simmons Rd,Perrysburg,OH,43551
Lutheran Church-Good Shepherd,8235 Memphis Ave,Cleveland,OH,44144
Mt Calvary Lutheran Church,12826 Lorain Ave,Cleveland,OH,44111
Our Redeemer Lutheran Church,7196 Som Center Rd,Cleveland,OH,44139
Our Savior Lutheran Church,2154 Som Center Rd,Cleveland,OH,44124
Parma Lutheran Church,5280 Broadview Rd,Cleveland,OH,44134
Prince of Peace Lutheran Chr,5475 Brand Rd,Dublin,OH,43017
St James Lutheran Church Elca,1424 Hayden Ave,Cleveland,OH,44112
St Luke Lutheran Church,4456 Morse Rd,Gahanna,OH,43230
St Mark Lutheran Church,1330 N Carpenter Rd,Brunswick,OH,44212
St Thomas Evangelical Lutheran,9509 Lake Ave,Cleveland,OH,44102
Zion Lutheran Church,PO Box 7111,Lafayette,OH,45854
Lee Heights Community Church,4612 Lee Rd,Cleveland,OH,44128
Aldersgate United Meth Church,4069 Eastwood Ln,Cleveland,OH,44122
Bedford First United Methodist,79 Center Rd,Cleveland,OH,44146
Beth-El Ame Zion Church,1428 E 110th St,Cleveland,OH,44106
Brecksville United Methodist,65 Public Sq,Cleveland,OH,44113
Broadway United Methodist Chr,5246 Broadway Ave,Cleveland,OH,44127
Brooklyn Memorial United Meth,2607 Archwood Ave,Cleveland,OH,44109
Church of the Redeemer United,2420 S Taylor Rd,Cleveland,OH,44118
Church of the Saviour Early Le,2537 Lee Rd,Cleveland,OH,44118
Cory United Methodist Church,1117 E 105th St,Cleveland,OH,44108
Epworth Euclid Church,1919 E 107th St,Cleveland,OH,44106
Fairview Grace United Mthdst,22420 Lorain Rd,Cleveland,OH,44126
Garfield Heights United Meth,4977 Turney Rd,Cleveland,OH,44125
Garfield Memorial Church,3650 Lander Rd,Cleveland,OH,44124
Good Shepherd United Methodist,5930 State Rd,Cleveland,OH,44134
Greater Avery Ame Church,7511 Wade Park Ave,Cleveland,OH,44103
Lane Metropolitan Cme Church,2131 E 46th St,Cleveland,OH,44103
Mt Pleasant United Methodist,89 Canyon Rd SW,Carrollton,OH,44615
Parkwood Cme Church,10915 Morison Ave,Cleveland,OH,44108
Pleasant Hills United Meth Chr,13200 Bagley Rd,Cleveland,OH,44130
Quinn Chapel Ame Church,PO Box 46862,Cincinnati,OH,45246
Ridgewood United Methodist Chr,6330 Ridge Rd,Cleveland,OH,44129
Shaffer United Methodist Chr,12002 Miles Ave,Cleveland,OH,44105
Solon United Methodist Church,5540 Som Center Rd,Cleveland,OH,44139
South Euclid-Hillcrest United,1534 S Green Rd,Cleveland,OH,44121
St James Ame Church,8401 Cedar Ave,Cleveland,OH,44103
St John Ame Church,2261 E 40th St,Cleveland,OH,44103
St Matthew United Methodist,8601 Wade Park Ave,Cleveland,OH,44106
St Paul United Methodist Chr,7641 Wales Ave NW,North Canton,OH,44720
St Pauls Ame Zion Church,2393 E 55th St,Cleveland,OH,44104
Westlake United Methodist Chr,27650 Center Ridge Rd,Cleveland,OH,44145
Bethany Covenant Church,5120 Ridgebury Blvd,Cleveland,OH,44124
Body of Christ Assembly,20900 Miles Pky,Cleveland,OH,44128
Christian Fellowship Ctr,14713 Lake Shore Blvd,Cleveland,OH,44110
Church Alive Intl,4840 State Rd,Cleveland,OH,44109
Church of Unity-Westlake,23855 Detroit Rd,Cleveland,OH,44145
Church On the Rise,3550 Crocker Rd,Cleveland,OH,44145
Cleveland Chinese Christian,474 Trebisky Rd,Cleveland,OH,44143
Gospel House Church ,PO Box 46509,Cleveland,OH,44146
Imani United Church of Christ,1505 E 260th St,Cleveland,OH,44132
Mega Church,PO Box 6773,Cleveland,OH,44101
New Community Bible Fellowship,3557 Washington Blvd,Cleveland,OH,44118
New Spirit Revival Ctr,3130 Mayfield Rd,Cleveland,OH,44118
Orchard,7191 McKenzie Rd,Cleveland,OH,44138
South Point Community Church,7648 Broadview Rd,Cleveland,OH,44134
United House of Prayer,8700 Cedar Ave,Cleveland,OH,44106
Holy Spirit Byzantine Catholic,5500 W 54th St,Cleveland,OH,44129
Holy Trinity Orthodox Church,6822 Broadview Rd,Cleveland,OH,44134
St Andrew Eastern Orthodox Chr,16069 Maple Park Dr,Cleveland,OH,44137
St Andrews Ukrainian Catholic,7700 Hoertz Rd,Cleveland,OH,44134
St Herman of Alaska Greek,4410 Franklin Blvd,Cleveland,OH,44113
St John Byzantine Catholic Chr,36125 Aurora Rd,Cleveland,OH,44139
St Josaphat Ukrainian Catholic,5720 State Rd,Cleveland,OH,44134
St Joseph's Byzantine Catholic,8111 Brecksville Rd,Cleveland,OH,44141
St Mary's Byzantine Catholic,356 S Belle Vista Ave,Youngstown,OH,44509
St Mary's Romanian Orthodox,3256 Warren Rd,Cleveland,OH,44111
St Matthew the Evangelist Chr,PO Box 33183,Cleveland,OH,44133
St Michael's Russian Orthodox,5025 Miller Rd,Cleveland,OH,44141
St Sava Serbian Orthodox Chr,PO Box 470457,Cleveland,OH,44147
St Sava Serbian Orthodox Hall,6306 Broadview Rd,Cleveland,OH,44134
St Theodosius Orthodox Cthdrl,8200 Biddulph Rd,Cleveland,OH,44144
Sts Constantine ,3352 Mayfield Rd,Cleveland,OH,44118
Bethany Assembly of God,6195 Broadview Rd,Cleveland,OH,44134
Bethel Temple,711 25th St NW,Canton,OH,44709
Brecksville Church of God,8131 Brecksville Rd,Cleveland,OH,44141
Calvary Chapel of Cleveland,6770 Brookpark Rd,Cleveland,OH,44129
Church of God,4062 London West Rd,Shelby,OH,44875
Church of God ,PO Box 603368,Cleveland,OH,44103
Cooley Avenue Church of God,12401 Cooley Ave,Cleveland,OH,44111
Immanuel Assembly of God,6486 W 130th St,Cleveland,OH,44130
Jonas Temple Church of God,PO Box 606244,Cleveland,OH,44106
Light of Liberty Church,9216 Superior Ave,Cleveland,OH,44106
Parma Park Church of God,12000 Huffman Rd,Cleveland,OH,44130
Pilgrim Church of Christ,PO Box 608096,Cleveland,OH,44108
Sharon Pentecostal Church-God,3905 E 140th St,Cleveland,OH,44128
Spanish Pentecostal Church-God,2951 W 32nd St,Cleveland,OH,44113
United Pentecostal Churches,10515 Chester Ave,Cleveland,OH,44106
Zion Pentecostal Church-Christ,4070 E 142nd St,Cleveland,OH,44128
Brecksville United Church,23 Public Sq,Cleveland,OH,44113
Brooklyn Heights United Church,2005 W Schaaf Rd,Cleveland,OH,44109
Brooklyn Presbyterian Church,4308 Pearl Rd,Cleveland,OH,44109
Brooklyn Reformed Church,9014 Biddulph Rd,Cleveland,OH,44144
Calvary Presbyterian Church,100 S Marietta St,St Clairsville,OH,43950
Church of the Covenant,3014 Fulton Dr NW,Canton,OH,44718
Church of the Redeemer,2944 Erie Ave,Cincinnati,OH,45208
Church of Western Reserve,30500 Fairmount Blvd,Cleveland,OH,44124
Dover Congregational Church,2239 Dover Center Rd,Cleveland,OH,44145
East View United Church-Christ,15615 Chagrin Blvd,Cleveland,OH,44120
Euclid Avenue Congregational,9606 Euclid Ave,Cleveland,OH,44106
Fairmount Presbyterian Church,2757 Fairmount Blvd,Cleveland,OH,44118
Faith United Church of Christ,1877 Millville Ave,Hamilton,OH,45013
First Hungarian Reformed Chr,14530 Alexander Rd,Cleveland,OH,44146
First Presbyterian Church,116 N 3rd St,Toronto,OH,43964
Forest Hill Church Presby,3031 Monticello Blvd,Cleveland,OH,44118
Glenville New Life Comm Church,10504 Helena Ave,Cleveland,OH,44108
Highland Sixth Presbyterian,5632 Wilson Mills Rd,Cleveland,OH,44143
Hungarian Reformed Church,1691 E 31st St,Lorain,OH,44055
Korean American Presbyterian,9305 Midwest Ave,Cleveland,OH,44125
Korean Central Presbyterian,8220 Brecksville Rd,Cleveland,OH,44141
Lyndhurst Community Presbytrn,5312 Mayfield Rd,Cleveland,OH,44124
Middleburg Heights Community,7165 Big Creek Pky,Cleveland,OH,44130
Mount Zion Congregational Chr,10723 Magnolia Dr,Cleveland,OH,44106
Old Stone Church,91 Public Sq,Cleveland,OH,44113
Olmsted Community Church,7853 Main St,Cleveland,OH,44138
Parma South Presbyterian Chr,6155 Pearl Rd,Cleveland,OH,44130
Pilgrim Congregational Church,2592 W 14th St,Cleveland,OH,44113
Pioneer Presbyterian Church,35100 Solon Rd,Cleveland,OH,44139
Plymouth Church-Shaker Heights,2860 Coventry Rd,Cleveland,OH,44120
Ridge Rd United Church-Christ,6050 Ridge Rd,Cleveland,OH,44129
Solon Community Church,PO Box 391433,Cleveland,OH,44139
St Andrew's Presbyterian Chr,23114 West Rd,Cleveland,OH,44138
St Mark's Presbyterian Church,1319 East Blvd,Cleveland,OH,44106
St Paul United Church-Christ,21 Wooster St NW,Navarre,OH,44662
Trinity United Church-Christ,107 N High St,Baltimore,OH,43105
West Park United Church-Christ,3909 Rocky River Dr,Cleveland,OH,44111
True Churches Of Apostolic Faith,860 Eddy Rd,Cleveland,OH,44108
Crystal Church Of God,7205 Fullerton Ave,Cleveland,OH,44105
Agudath Israel Of Cleveland,3559 Severn Rd,Cleveland,OH,44118
Victorious Church Of Christ,4084 Lee Rd,Cleveland,OH,44128
Northeast Church Of God,8108 Pulaski Ave,Cleveland,OH,44103
First Assembly Of God,515 S Burnett Rd,Springfield,OH,45505
Covenant House Of God,10106 Buckeye Rd,Cleveland,OH,44104
Williams Center Of Truth,10630 Tacoma Ave,Cleveland,OH,44108
Miracle Church Of Religious,11713 Buckeye Rd,Cleveland,OH,44120
Sisters Of Humility Of Mary,22955 Detroit Rd,Cleveland,OH,44145
Glenville Church Of Christ,9009 Wade Park Ave,Cleveland,OH,44106
Universal Assembly Of Christ,11706 Union Ave,Cleveland,OH,44105
Glorious Church Of God-christ,3525 E 93rd St,Cleveland,OH,44105
Original Church Of God,2350 E 79th St,Cleveland,OH,44104
Poor Clares Of Perpetual,4108 Euclid Ave,Cleveland,OH,44103
Riverside Church Of God,7115 Dearborn Ave,Cleveland,OH,44102
Apostolic Church Of God,10917 Miles Ave,Cleveland,OH,44105
Abundant Life International Church,5942 Wilson Mills Rd,Cleveland,OH,44143
Abyssinia Baptist Church,2045 Green Rd,Cleveland,OH,44121
Aden John W,2616 Brentwood Rd,Cleveland,OH,44122
Aden Kato,16209 Clearview Ave,Cleveland,OH,44128
Adler Moshe,4083 Bushnell Rd,Cleveland,OH,44118
Adler Pinchas,3674 Shannon Rd,Cleveland,OH,44118
Adunarea Nazareneana,12002 Geraldine Ave,Cleveland,OH,44111
Al Eman School Of Cleveland,6055 W 130th St,Cleveland,OH,44130
Albanian Orthodox Church,10716 Jasper Rd,Cleveland,OH,44111
Alexander Jr Edsel,23303 Felch St,Cleveland,OH,44128
All Nations Deliverance Ministries,15715 Libby Rd,Cleveland,OH,44137
All Saints Worship Center International,3836 Montevista Rd,Cleveland,OH,44121
Allen Temple Ame Church,7080 Reading Rd,Cincinnati,OH,45237
Seventh Day Adventist Church,9652 Murray Ridge Rd,Elyria,OH,44035
Abbe Road Baptist Church,670 Abbe Rd N,Elyria,OH,44035
College Heights Baptist Church,980 N Abbe Rd,Elyria,OH,44035
Elyria Baptist Church,276 Washington Ave,Elyria,OH,44035
Midway Baptist Church,41812 Griswold Rd,Elyria,OH,44035
Victory Baptist Temple,45155 Telegraph Rd,Elyria,OH,44035
Holy Cross Catholic Church,1417 West Ave,Elyria,OH,44035
Washington Avenue Christian,301 Washington Ave,Elyria,OH,44035
Elyria Church of the Nazarene,1107 Clemens Ave,Elyria,OH,44035
Emmanuel Lutheran,360 Princeton Ave,Elyria,OH,44035
Grace Lutheran Church-Mo Synod,9685 E River Rd,Elyria,OH,44035
First United Methodist Preschl,312 3rd St,Elyria,OH,44035
Jones Chapel Ame Church,PO Box 72,Elyria,OH,44036
La Porte United Methodist,2071 Grafton Rd,Elyria,OH,44035
Laporte United Methodist Ch,10725 Dewhurst Rd,Elyria,OH,44035
Church of the Open Door,43275 Telegraph Rd,Elyria,OH,44035
Cross Community Church,525 N Abbe Rd,Elyria,OH,44035
Macedonia Church of God,PO Box 1877,Elyria,OH,44036
Murray Ridge Rd Church of God,7942 Murray Ridge Rd,Elyria,OH,44035
First Congregational United,PO Box 490,Ashtabula,OH,44005
Lake Avenue United Church,310 Lowell St,Elyria,OH,44035
First Church Of Christ,2501 Market Ave N,Canton,OH,44714
Abundant Life Christian Center,324 Euclid Square Mall,Euclid,OH,44132
Seventh-Day Adventist Church,3800 Clifton Ave,Cincinnati,OH,45220
Shiloh Seventh Day Adventist,3660 Washington Ave,Cincinnati,OH,45229
Ashland Ave Baptist Church,PO Box 12086,Cincinnati,OH,45212
Bells Lane Baptist Church,4596 Bells Ln,Cincinnati,OH,45244
Bethel Baptist Temple,8501 Plainfield Rd,Cincinnati,OH,45236
Bethlehem Baptist Church Inc,760 N Fred Shuttlesworth Cir,Cincinnati,OH,45229
Cincinnati Primative Bptst Chr,128 Parkway Ave,Cincinnati,OH,45216
Clough Pike Baptist Church,1025 Clough Pike,Cincinnati,OH,45245
Creek Road Baptist Church,3906 Creek Rd,Cincinnati,OH,45241
Eastern Hills Baptist Church,5825 Islington Ave,Cincinnati,OH,45227
Eastgate Baptist Church,717 Barg Salt Run Rd,Cincinnati,OH,45244
Faith Fellowship Church,10277 Valley View Rd,Macedonia,OH,44056
First Baptist Church of Dent,6384 Harrison Ave,Cincinnati,OH,45247
Forestville Baptist Church,1311 Nagel Rd,Cincinnati,OH,45255
Galilee Baptist Church,2835 Beekman St,Cincinnati,OH,45225
Golden Leaf Baptist Church,5910 Argus Rd,Cincinnati,OH,45224
Greater Liberty Bapt Church,PO Box 27073,Cincinnati,OH,45227
Greater New Hope,3655 Harvey Ave,Cincinnati,OH,45229
Harvest Baptist Church,1301 Navajo Trl,Wapakoneta,OH,45895
Highland Ave Baptist Church,6110 Highland Ave,Cincinnati,OH,45216
Inspirational Baptist Church,9208 Daly Rd,Cincinnati,OH,45231
Israel Baptist Missionary Chr,PO Box 40167,Cincinnati,OH,45240
Jerriel Baptist Church,1018 Wesley Ave,Cincinnati,OH,45203
Kenwood Baptist Church,8341 Kenwood Rd,Cincinnati,OH,45236
Lakewood Baptist Church,4008 Westwood Northern Blvd,Cincinnati,OH,45211
Lincoln Heights Baptist Church,512 Stewart Rd N,Mansfield,OH,44905
Mission Baptist Church,9501 Highland Ave,Cincinnati,OH,45242
Montgomery Community Baptist,11251 Montgomery Rd,Cincinnati,OH,45249
Mt Moriah Baptist Church,1169 Simmons Ave,Cincinnati,OH,45215
Mt Washington Baptist Church,2021 Sutton Ave,Cincinnati,OH,45230
New Friendship Baptist Church,3212 Reading Rd,Cincinnati,OH,45229
New Jerusalem Baptist Church,26 W North Bend Rd,Cincinnati,OH,45216
New Mission Missionary Bapt,4809 Ravenna St,Cincinnati,OH,45227
New Prospect Baptist Church,1829 Elm St,Cincinnati,OH,45202
New Unity Baptist Church,2124 Burnet Ave,Cincinnati,OH,45219
New Vision Missionary Baptist,3851 Montgomery Rd,Cincinnati,OH,45212
Olivet Baptist Church,6838 Montgomery Rd,Cincinnati,OH,45236
Pleasant Ridge Baptist Church,6401 Ridge Ave,Cincinnati,OH,45213
Price Hill Baptist Church,4431 Glenway Ave,Cincinnati,OH,45205
Rockdale Baptist Church,539 Forest Ave,Cincinnati,OH,45229
Second Trinity Baptist Church,911 Nassau St,Cincinnati,OH,45206
Southern Baptist Church,3556 Reading Rd,Cincinnati,OH,45229
St Mark Missionary Baptist Chr,2365 Compton Rd,Cincinnati,OH,45231
St Stephens Baptist Church,2315 Park Ave,Cincinnati,OH,45206
Trinity Missionary Baptist Chr,6320 Chandler St,Cincinnati,OH,45227
Tryed Stone Baptist Church,5550 Reading Rd,Cincinnati,OH,45237
Union Baptist Church,528 Lincoln Ave,Youngstown,OH,44502
Westside Baptist Church,3508 Glenway Ave,Cincinnati,OH,45205
All Saints Church,1386 Henry Ave SW,Canton,OH,44706
Bellarmine Chapel,3800 Victory Pky,Cincinnati,OH,45207
Church of the Assumption,306 W Main St,Barnesville,OH,43713
Corpus Christi Catholic Church,2014 Springdale Rd,Cincinnati,OH,45231
Good Shepherd Parish,8815 E Kemper Rd,Cincinnati,OH,45249
Guardian Angels Church,6531 Beechmont Ave,Cincinnati,OH,45230
Holy Cross Immaculata Church,Guido St,Cincinnati,OH,45202
Mother of Christ Church,5301 Winneste Ave,Cincinnati,OH,45232
Nativity Church,418 W 15th St,Lorain,OH,44052
Our Lady of Lourdes,2832 Rosebud Dr,Cincinnati,OH,45238
Our Lady of the Sacred Heart,177 Siebenthaler Ave,Cincinnati,OH,45215
Our Lady of Visitation Church,3172 South Rd,Cincinnati,OH,45248
Our Mother of Sorrows Church,7243 Eastlawn Dr,Cincinnati,OH,45237
St Agnes Church of Bond Hill,1619 California Ave,Cincinnati,OH,45237
St Aloysius On the Ohio,134 Whipple St,Cincinnati,OH,45233
St Ann Church of Groesbeck,2900 W Galbraith Rd,Cincinnati,OH,45239
St Anthony of Padua Maronite,2530 Victory Pky,Cincinnati,OH,45206
St Antoninus Church,1500 Linneman Rd,Cincinnati,OH,45238
St Bartholomew Church,9375 Winton Rd,Cincinnati,OH,45231
St Bernard Church,PO Box 337,New Washington,OH,44854
St Bernard Church-Taylors Crk,7130 Harrison Ave,Cincinnati,OH,45247
St Boniface Church,310 S Downing St,Piqua,OH,45356
St Clare Church College Hill,1443 Cedar Ave,Cincinnati,OH,45224
St Clement,4536 Vine St,Cincinnati,OH,45217
St Dominic Church,3450 Norwood Rd,Shaker Heights,OH,44122
St Francis-Xavier Church,607 Sycamore St,Cincinnati,OH,45202
St Gertrude Church,7630 Shawnee Run Rd,Cincinnati,OH,45243
St Gertrude the Great Roman,11144 Reading Rd,Cincinnati,OH,45241
St Ignatius Loyola Church,5222 N Bend Rd,Cincinnati,OH,45247
St James Church of White Oak,3565 Hubble Rd,Cincinnati,OH,45247
St James of the Valley School,411 Springfield Pike,Cincinnati,OH,45215
St Jerome Church,300 Warner St,Walbridge,OH,43465
St John Neumann Church,12191 Mill Rd,Cincinnati,OH,45240
St John the Baptist Church,110 N Hill St,Harrison,OH,45030
St John the Evangelist Church,7121 Plainfield Rd,Cincinnati,OH,45236
St John Vianney Church,7575 Bellflower Rd,Mentor,OH,44060
St Leo's Church,2573 Saint Leo Pl,Cincinnati,OH,45225
St Margaret Mary Church,1830 W Galbraith Rd,Cincinnati,OH,45239
St Margaret of Cortona Church,4100 Watterson St,Cincinnati,OH,45227
St Mark Catholic Church,3500 Montgomery Rd,Cincinnati,OH,45207
St Martin of Tours,3720 Saint Martins Pl,Cincinnati,OH,45211
St Mary Church-Hyde Park,2853 Erie Ave,Cincinnati,OH,45208
St Matthias Catholic Church,1050 W Kemper Rd,Cincinnati,OH,45240
St Michael Church,281 Glenview Rd,Canfield,OH,44406
St Monica-St George Church,328 W McMillan St,Cincinnati,OH,45219
St Peter in Chains Cathedral,325 W 8th St,Cincinnati,OH,45202
St Rose Church,48 E Main St,Girard,OH,44420
St Saviour Church of Rossmoyne,4118 Myrtle Ave,Cincinnati,OH,45236
St Simon Church of Delhi Twp,825 Pontius Rd,Cincinnati,OH,45233
St Stephen Church,129 W Park Ave,Niles,OH,44446
St Teresa of Avila Church,1175 Overlook Ave,Cincinnati,OH,45238
St Veronica Church,Mt Carmel Tobasco Rd,Cincinnati,OH,45244
St Vincent Ferrer Church,7754 Montgomery Rd,Cincinnati,OH,45236
St Vivian Church,7600 Winton Rd,Cincinnati,OH,45224
St William Church,4108 W 8th St,Cincinnati,OH,45205
Anderson Ferry Church-Christ,380 Greenwell Ave,Cincinnati,OH,45238
Anderson Hills Christian Chr,8119 Clough Pike,Cincinnati,OH,45244
Bridgetown Church of Christ,3854 Race Rd,Cincinnati,OH,45211
Cincinnati Church of Christ,4220 E Galbraith Rd,Cincinnati,OH,45236
Clovernook Christian Church,1373 W Galbraith Rd,Cincinnati,OH,45231
Forest Dale Church of Christ,604 W Kemper Rd,Cincinnati,OH,45246
Lockland Christian Church,231 Mill St,Cincinnati,OH,45215
Madeira Church of Christ,7421 E Galbraith Rd,Cincinnati,OH,45243
Northern Hills Christian Chr,4945 National Rd,Clayton,OH,45315
Norwood Christian Church,4400 Ashland Ave,Cincinnati,OH,45212
Parkside Christian Church,6986 Salem Rd,Cincinnati,OH,45230
United Christian Church,PO Box 115,Englewood,OH,45322
Western Hills Church of Christ,5064 Sidney Rd,Cincinnati,OH,45238
Westwood Cheviot Church-Christ,3420 Glenmore Ave,Cincinnati,OH,45211
White Oak Christian Church,3675 Blue Rock Rd,Cincinnati,OH,45247
Church of Christ Central,3501 Cheviot Ave,Cincinnati,OH,45211
Church of Christ Northeast,12020 Southwick Ln,Cincinnati,OH,45241
Church of Christ Withamsville,846 Ohio Pike,Cincinnati,OH,45245
Christ Church,19543 Lunn Rd,Strongsville,OH,44149
Christ Church-Glendale,965 Forest Ave,Cincinnati,OH,45246
Church of Ascension ,334 Burns Ave,Cincinnati,OH,45215
Indian Hill Episcopal-Presby,6000 Drake Rd,Cincinnati,OH,45243
St Barnabas Episcopal Church,468 Bradley Rd,Bay Village,OH,44140
St Simon of Cyrene Episcopal,810 Matthews Dr,Cincinnati,OH,45215
St Timothy's Episcopal Church,PO Box 560204,Macedonia,OH,44056
Calvary Chapel,8151 Stuhldreher St NW,Massillon,OH,44646
Dayspring Church of God,1060 Smiley Ave,Cincinnati,OH,45240
Springdale Church of-Nazarene,11177 Springfield Pike,Cincinnati,OH,45246
Faith Bible Church,5715 Market Ave N,Canton,OH,44721
Adath Israel Synagogue,3201 E Galbraith Rd,Cincinnati,OH,45236
B'Nai Tzedek Congregation,6280 Kugler Mill Rd,Cincinnati,OH,45236
Congregation Ohav Shalom,8100 Cornell Rd,Cincinnati,OH,45249
Golf Manor Synagogue,6442 Stover Ave,Cincinnati,OH,45237
Isaac M Wise Temple,8329 Ridge Rd,Cincinnati,OH,45236
Northern Hills Synagogue B'Nai,PO Box 498819,Cincinnati,OH,45249
Rockdale Temple,8501 Ridge Rd,Cincinnati,OH,45236
Temple Sholom,3100 Longmeadow Ln,Cincinnati,OH,45236
Valley Temple,145 Springfield Pike,Cincinnati,OH,45215
Beautiful Savior Lutheran,11981 Pippin Rd,Cincinnati,OH,45231
Gloria Dei Lutheran Church,2113 Ravenna St,Hudson,OH,44236
Immanuel Lutheran Church,2120 Lakewood Ave,Lima,OH,45805
Lutheran Church of-Good Shphrd,7701 Kenwood Rd,Cincinnati,OH,45236
Lutheran Church-Resurrection,1950 Nagel Rd,Cincinnati,OH,45255
Peace Lutheran Church Mo Synod,1451 Ebenezer Rd,Cincinnati,OH,45233
Roselawn Lutheran Church,1608 Summit Rd,Cincinnati,OH,45237
St Paul Ev Lutheran Church,106 Maple St,Cincinnati,OH,45215
New Thought Unity Ctr,1401 E McMillan St,Cincinnati,OH,45206
Anderson Hills Methodist Chr,7515 Forest Rd,Cincinnati,OH,45255
Armstrong Chapel Church,5125 Drake Rd,Cincinnati,OH,45243
Brown Chapel Ame Church,2804 Alms Pl,Cincinnati,OH,45206
Calvary Methodist Church,3215 Woodburn Ave,Cincinnati,OH,45207
Cherry Grove United Methodist,1428 Eight Mile Rd,Cincinnati,OH,45255
Cheviot United Methodist Chr,3820 Westwood Northern Blvd,Cincinnati,OH,45211
Child Enrichment Ctr,6365 Corbly Rd,Cincinnati,OH,45230
Church of the Savior,120 Cleveland Ave SW,Canton,OH,44702
Clough United Methodist Church,2010 Wolfangle Rd,Cincinnati,OH,45255
Forest Chapel United Church,680 W Sharon Rd,Cincinnati,OH,45240
Friendship United Methodist,1025 Springfield Pike,Cincinnati,OH,45215
Gaines Methodist Church,5707 Madison Rd,Cincinnati,OH,45227
Groesbeck United Methodist Chr,8871 Colerain Ave,Cincinnati,OH,45251
Hartzell United Methodist Chr,8999 Applewood Dr,Cincinnati,OH,45236
Hyde Park Community United,1345 Grace Ave,Cincinnati,OH,45208
John Wesley United Methodist,1927 W Kemper Rd,Cincinnati,OH,45240
Korean-Madisonville Meth Chr,6130 Madison Rd,Cincinnati,OH,45227
Monfort Heights United Meth,3682 W Fork Rd,Cincinnati,OH,45247
Mt Airy United Methodist Chr,2645 W North Bend Rd,Cincinnati,OH,45239
Mt Healthy United Methodist,7612 Perry St,Cincinnati,OH,45231
Mt Moriah United Methodist Chr,681 Mount Moriah Dr,Cincinnati,OH,45245
New Vision United Meth Mnstry,3025 Walter Ave,Cincinnati,OH,45206
Northern Hills United Meth Chr,6700 Winton Rd,Cincinnati,OH,45224
Oak Hills Umc Child Care,6069 Bridgetown Rd,Cincinnati,OH,45248
Sharonville United Methodist,3751 Creek Rd,Cincinnati,OH,45241
Shiloh United Methodist Church,580 Anderson Ferry Rd,Cincinnati,OH,45238
Westwood United Methodist Chr,3460 Epworth Ave,Cincinnati,OH,45211
Church of Christ Kennedy Hts,5930 Red Bank Rd,Cincinnati,OH,45213
Church of Scientology Fndtn,219 W 4th St,Cincinnati,OH,45202
Cincinnati Chinese Church,1393 Compton Rd,Cincinnati,OH,45231
Crossroads Community Church,1456 Park Ave W,Mansfield,OH,44906
Faith Christian Ctr,5325 Smothers Rd,Westerville,OH,43081
Horizon Community Church,"7800 Laurel Ave, #400",Cincinnati,OH,45243
James Temple Chr of God-Christ,1116 Lincoln Ave,Cincinnati,OH,45206
Love ,3946 Hopper Hill Rd,Cincinnati,OH,45255
Mariemont Community Church,3908 Plainville Rd,Cincinnati,OH,45227
Mt Carmel Christian Church,4183 Mount Carmel Tobasco Rd,Cincinnati,OH,45255
New Burlington Church-Christ,1989 Struble Rd,Cincinnati,OH,45231
New Hope Community Church,4953 Delhi Ave,Cincinnati,OH,45238
New Life Outreach Church,PO Box 40358,Cincinnati,OH,45240
Overflow Ministries,PO Box 18314,Cincinnati,OH,45218
St Luke's Evangelical Church,3313 Glenmore Ave,Cincinnati,OH,45211
United Church of God,PO Box 541069,Cincinnati,OH,45254
Vineyard Community Church,1928 E 300th St,Wickliffe,OH,44092
Word of Deliverance,11331 Southland Rd,Cincinnati,OH,45240
St Nicholas Greek Orthodox Chr,2000 Tower Blvd,Lorain,OH,44053
Apostolic the First Church,7595 Montgomery Rd,Cincinnati,OH,45236
Bethlehem Temple,1205 Elm St,Cincinnati,OH,45202
Calvary Chapel-the Tri-State,PO Box 36446,Cincinnati,OH,45236
Calvary Pentecostal Church,PO Box 46533,Cincinnati,OH,45246
Central Parkway Church of God,3220 Central Pky,Cincinnati,OH,45225
Christ Cathedral Church,1191 Devils Backbone Rd,Cincinnati,OH,45233
Christ Emmanuel Christian,1055 Laidlaw Ave,Cincinnati,OH,45237
Church of the Living God Cwf,430 Forest Ave,Cincinnati,OH,45229
Church-God Greater Cincinnati,8290 Batavia Pike,Cincinnati,OH,45244
Covenant Apostolic Church,7630 View Place Dr,Cincinnati,OH,45224
Delhi Christian Ctr,260 Fairbanks Ave,Cincinnati,OH,45204
First Christian Assembly-God,220 William Howard Taft Rd,Cincinnati,OH,45219
Good News Church of God-Christ,1063 W North Bend Rd,Cincinnati,OH,45224
Greater Emanuel Apostolic Tmpl,1150 W Galbraith Rd,Cincinnati,OH,45231
Montgomery Assembly of God,7950 Pfeiffer Rd,Cincinnati,OH,45242
St Mark Christian Fellowship,820 Ezzard Charles Dr,Cincinnati,OH,45214
Vineyard Church Northwest,8240 Clara Ave,Cincinnati,OH,45239
Zion Temple First Pentecostal,3771 Reading Rd,Cincinnati,OH,45229
Blue Ash Presbyterian Church,4309 Cooper Rd,Cincinnati,OH,45242
Carmel Presbyterian Church,3549 Reading Rd,Cincinnati,OH,45229
College Hill Presbyterian Chr,5742 Hamilton Ave,Cincinnati,OH,45224
Eastminster Presbyterian Chr,4600 Erie Ave,Cincinnati,OH,45227
Evangelical Community Church,2192 Springdale Rd,Cincinnati,OH,45231
Faith Presbyterian Church,6434 Corbly Rd,Cincinnati,OH,45230
First United Church of Christ,2150 Warren Rd,Lakewood,OH,44107
Fleming Road United Chr-Crst,691 Fleming Rd,Cincinnati,OH,45231
Grace Bible Presbyterian Chr,12060 Lebanon Rd,Cincinnati,OH,45241
Greenhills Community Presby,21 Cromwell Rd,Cincinnati,OH,45218
Immanuel Presbyterian Church,3445 Clifton Ave,Cincinnati,OH,45220
Kennedy Heights Presbyterian,6312 Kennedy Ave,Cincinnati,OH,45213
Knox Presbyterian Church,3400 Michigan Ave,Cincinnati,OH,45208
Madeira-Silverwood Prsbytrn,8000 Miami Ave,Cincinnati,OH,45243
Matthew United Church-Christ,717 E Epworth Ave,Cincinnati,OH,45232
Montgomery Presbyterian Church,9994 Zig Zag Rd,Cincinnati,OH,45242
Mt Auburn Presbyterian Church,103 William Howard Taft Rd,Cincinnati,OH,45219
Mt Washington Presbyterian Chr,6474 Beechmont Ave,Cincinnati,OH,45230
Northminster Presbyterian,703 Compton Rd,Cincinnati,OH,45231
Norwood Presbyterian Church,4400 Floral Ave,Cincinnati,OH,45212
Philippus United Church,106 W McMicken Ave,Cincinnati,OH,45202
Pilgrim United Church-Christ,130 Broad Blvd,Cuyahoga Falls,OH,44221
Pleasant Ridge Presbyterian,5950 Montgomery Rd,Cincinnati,OH,45213
Reading-Lockland Presby Church,125 S Cooper Ave,Cincinnati,OH,45215
St John United Church-Christ,715 Reid Ave,Lorain,OH,44052
St Johns Westminister Union Ch,1085 Neeb Rd,Cincinnati,OH,45233
St Peter's United Church,6120 Ridge Ave,Cincinnati,OH,45213
Sycamore Presbyterian Church,11800 Mason Rd,Cincinnati,OH,45249
West Cincinnati Presbyterian,1708 Baymiller St,Cincinnati,OH,45214
Westwood First Presbyterian,3011 Harrison Ave,Cincinnati,OH,45211
White Oak Presbyterian Church,8735 Cheviot Rd,Cincinnati,OH,45251
Zion United Church of Christ,415 S Main St,North Canton,OH,44720
Lockland Church Of Nazarene,335 W Wyoming Ave,Cincinnati,OH,45215
Norwood Church Of Nazarene,4424 Floral Ave,Cincinnati,OH,45212
Emanuel Church Of God-christ,421 Catherine Ave,Cincinnati,OH,45229
Cincinnati Community Of Christ,1253 Kemper Meadow Dr,Cincinnati,OH,45240
Fairfax Church Of Nazarene,3906 Southern Ave,Cincinnati,OH,45227
Fairfax Church Of God,3705 Lonsdale St,Cincinnati,OH,45227
Universal Church Of Christ,1413 Sycamore St,Cincinnati,OH,45202
Aaron Campell's Ministries,1450 Teakwood Ave,Cincinnati,OH,45224
Abundant Life Apostolic Church,730 Jacksontown Rd,Heath,OH,43056
Abundant Life Christian Church,946 Dana Ave,Cincinnati,OH,45229
Abundant Life Faith Fellowship,2740 Hyannis Dr,Cincinnati,OH,45251
Abundant Life Minstries,3132 Mozart Ave,Cincinnati,OH,45211
Adkins Carl Rev,1300 Oak Knoll Dr,Cincinnati,OH,45224
Allen Chapel Ame,6271 Simpson Ave,Cincinnati,OH,45224
Worthington Seventh-Day,385 E Dublin Granville Rd,Worthington,OH,43085
Linworth Baptist Church,6200 Linworth Rd,Worthington,OH,43085
Grace Brethren Church,22797 Ellsworth Ave,Minerva,OH,44657
St John's Episcopal Church,2220 2nd St,Cuyahoga Falls,OH,44221
Congregation Beth Tikvah,6121 Olentangy River Rd,Worthington,OH,43085
All Saints Evangelical Luth,PO Box 1200,Worthington,OH,43085
Worthington United Methodist,600 High St,Worthington,OH,43085
Worthington Presbyterian Chr,773 High St,Worthington,OH,43085
Central Ohio Korean Sda Chr,7849 Worthington Galena Rd,Worthington,OH,43085
Indian Christian Assembly,911 Linkfield Dr,Worthington,OH,43085
Christ Restoration Minstries,740 Lakeview Plaza Blvd,Worthington,OH,43085
Daryl Stramm Church World Service,89 E Wilson Bridge Rd,Worthington,OH,43085
Eighty Five Church,85 E Wilson Bridge Rd,Worthington,OH,43085
All Saints Lutheran (Elca),6770 N High St,Worthington,OH,43085
Grace Brethren Church Of Colum,6670 Worthington Galena Rd,Worthington,OH,43085
Bible Believers Fellowship,662 PO Box,Worthington,OH,0
Worthington Baptist Church,6540 Worthington Galena Rd,Worthington,OH,43085
Haimerl Arthur F Rev,6816 McGreegor St,Worthington,OH,43085
Methodist Conference Ofcs,32 Wesley Blvd,Worthington,OH,43085
Huff Ronald E,90 Wilson Dr,Worthington,OH,43085
Word Of God In Christ Church,115 Wilson Dr,Worthington,OH,43085
Worthington Seventh-day,870 Griswold St,Worthington,OH,43085
Evans Grady F,447 Highgate Ave,Worthington,OH,43085
Church Of God Mpg Of T1,682 Plymouth St,Worthington,OH,43085
Pendell W D Rev,275 McCoy Ave,Worthington,OH,43085
Believers Bible Church,156 E South St,Worthington,OH,43085
Bloom Presbyterian Church,75 E South St,Worthington,OH,43085
Knodt Hermann,488 Oxford Ct,Worthington,OH,43085
Reorganized Church-jesus Chrst,110 Park Blvd,Worthington,OH,43085
Booth John E,5760 N High St,Worthington,OH,43085
Jamaica Christian Mission,472 S Selby Blvd,Worthington,OH,43085
St Michael Church School,64 E Selby Blvd,Worthington,OH,43085
Alexandria Baptist Church,94 W Main St,Alexandria,OH,43001
Alexandria Methodist Church,PO Box 98,Alexandria,OH,43001
Alliance Baptist Temple,1441 W Vine St,Alliance,OH,44601
First Baptist Pre-School,1659 W State St,Alliance,OH,44601
New Zion Baptist Church,1135 Jersey St,Alliance,OH,44601
Regina Coeli Church,663 Fernwood Blvd,Alliance,OH,44601
St Joseph's Church of Alliance,427 E Broadway St,Alliance,OH,44601
First Christian Church,5271 Alexis Rd,Sylvania,OH,43560
Marlboro Christian Church,9401 Edison St NE,Alliance,OH,44601
Abiding Savior Lutheran Church,4000 Wallings Rd,North Royalton,OH,44133
St Paul's Luthern Church,PO Box 3830,Alliance,OH,44601
Beechwood United Methodist Chr,3450 Beechwood Ave,Alliance,OH,44601
Union Ave United Methodist Chr,1843 S Union Ave,Alliance,OH,44601
Vine St United Methodist Chr,1544 W Vine St,Alliance,OH,44601
First Friends Church,1028 Jennings Ave,Salem,OH,44460
New Baltimore Community Church,7761 Pontius St NE,Alliance,OH,44601
First Assembly of God,6779 Belmont Ave,Girard,OH,44420
Alliance Area Habitat-humanity,405 S Linden Ave,Alliance,OH,44601
Alliance Christian Center,670 W Main St,Alliance,OH,44601
Alliance Free Will Baptist,731 Buckeye Ave,Alliance,OH,44601
Alliance Church- Nazarene,1345 S Arch Ave,Alliance,OH,44601
Allison Avenue Baptist Church,5915 Allison Ave,Hamilton,OH,45011
Gordon Avenue Baptist Church,18 Gordon Ave,Hamilton,OH,45013
Hamilton West Baptist Church,1050 NW Washington Blvd,Hamilton,OH,45013
Horse Shoe Bend Baptist Church,5753 Horse Shoe Bend Rd,Hamilton,OH,45011
Immanuel Baptist Church,1770 Eaton Rd,Hamilton,OH,45013
North Fairfield Baptist Church,6853 Gilmore Rd,Hamilton,OH,45011
Pilgrim Baptist Church,711 S 4th St,Hamilton,OH,45011
Richmond Road Baptist Church,2170 Hamilton Richmond Rd,Hamilton,OH,45013
Stahlheber Baptist Church,1800 Stahlheber Rd,Hamilton,OH,45013
Queen of Peace Parish,2550 Millville Ave,Hamilton,OH,45013
St Ann Catholic Church,646 Clinton Ave,Hamilton,OH,45015
St Julie Billiart Parish,224 Dayton St,Hamilton,OH,45011
St Maximilian Kolbe Church,5720 Hamilton Mason Rd,Hamilton,OH,45011
St Peter in Chains of Hamilton,382 Liberty Ave,Hamilton,OH,45013
Community Christian Church,210 N Main St,North Canton,OH,44720
Disciples Christian Church,3401 Hamilton Mason Rd,Hamilton,OH,45011
Ross Christian Church,3756 Herman Rd,Hamilton,OH,45013
West Side Church of Christ,1000 Franklin Rd,Lebanon,OH,45036
Millville Avenue Church of God,1369 Millville Ave,Hamilton,OH,45013
Tri-County Church-the Nazarene,4778 Tylersville Rd,Hamilton,OH,45011
Calvary Christian Ctr,2355 Jacksonburg Rd,Hamilton,OH,45011
Beth Israel Congregation,1267 Oakmont Ave,Hamilton,OH,45013
Zion Lutheran Chr,212 S Front St,Hamilton,OH,45011
Cornerstone United Methodist,7600 Princeton Glendale Rd,Hamilton,OH,45011
Lindenwald United Methodist,3501 Pleasant Ave,Hamilton,OH,45015
Park Avenue United Methodist,396 Park Ave,Amherst,OH,44001
Payne Chapel Ame Church,320 S Front St,Hamilton,OH,45011
Courts of Praise Christian Ctr,7474 Morris Rd,Hamilton,OH,45011
Community Friendship Cogic,PO Box 1245,Hamilton,OH,45012
Covenant Christian Ctr,PO Box 13318,Hamilton,OH,45013
Hamilton Christian Ctr,1940 Millville Ave,Hamilton,OH,45013
Hamilton Church of God,1760 Millville Ave,Hamilton,OH,45013
Hamilton Vineyard Church,2470 Princeton Rd,Hamilton,OH,45011
Mt Zion Apostolic Temple,271 Morris Ave,Hamilton,OH,45011
Pentecostal Highway Holiness,3470 Hamilton Middletown Rd,Hamilton,OH,45011
Presbyterian Church,23 S Front St,Hamilton,OH,45011
Redeemer United Church-Christ,3431 Hamilton Middletown Rd,Hamilton,OH,45011
First Church Of Nazarene,915 Kercher St,Miamisburg,OH,45342
Hispanic Ministry Of Hamilton,223 Buckeye St,Hamilton,OH,45011
Cornerstone Baptist Church,3955 Wales Ave NW,Massillon,OH,44646
Massillon Baptist Temple,1219 Overlook Ave SW,Massillon,OH,44647
St Barbara's Catholic Church,2813 Lincoln Way NW,Massillon,OH,44647
St Joseph's Church-Massillon,322 3rd St SE,Massillon,OH,44646
St Mary's Church of Massillon,726 1st St NE,Massillon,OH,44646
River Tree Christian Church,7373 Portage St NW,Massillon,OH,44646
St Jacobs Lutheran Church,1460 State St NE,Canton,OH,44721
St John Lutheran Church Lcms,1900 Wales Rd NE,Massillon,OH,44646
Pigeon Run United Methodist,11789 Sarbaugh St SW,Massillon,OH,44647
St James Ame Zion Church,209 2nd St SW,Massillon,OH,44646
Wesley United Methodist Church,1600 Main Ave W,Massillon,OH,44647
Faith Community Fellowship,1303 9th St SW,Massillon,OH,44647
Jackson Friends Church,7945 Portage St NW,Massillon,OH,44646
New Life Tabernacle,3542 12th St NW,Massillon,OH,44646
Grace United Church of Christ,3285 Cleveland Massillon Rd,Norton,OH,44203
Unity Church Of Truth,4016 Wales Ave NW,Massillon,OH,44646
Massillon Church Of God,1128 Walnut Rd SW,Massillon,OH,44647
Abundant Life Christian Flwshp,303 8th St SW,Massillon,OH,44647
Austintown Baptist Church,1180 S Raccoon Rd,Youngstown,OH,44515
Evangel Baptist Church,5248 Southern Blvd,Youngstown,OH,44512
Holy Trinity Missionary Bapt,PO Box 1172,Youngstown,OH,44501
Mill Creek Baptist Church,2007 S Schenley Ave,Youngstown,OH,44511
Mt Gilead Baptist Church,2821 Hillman St,Youngstown,OH,44507
Oak Baptist Church,320 Elk St,Youngstown,OH,44505
Rising Star Baptist Church,2943 Wardle Ave,Youngstown,OH,44505
Youngstown Baptist Church,554 S Meridian Rd,Youngstown,OH,44509
Immaculate Heart of Mary,1424 Horning Rd,Kent,OH,44240
St Brendan's Church,4242 Brendan Ln,North Olmsted,OH,44070
St Charles,4500 Ackerman Blvd,Kettering,OH,45429
St Columba's Cathedral,159 W Rayen Ave,Youngstown,OH,44503
St Cyril ,12608 Madison Ave,Lakewood,OH,44107
St Dominic's,77 E Lucius Ave,Youngstown,OH,44507
St Edwards Church,240 Tod Ln,Youngstown,OH,44504
St Joseph Parish-Austintown,4545 New Rd,Youngstown,OH,44515
St Luke Catholic Church,5235 South Ave,Youngstown,OH,44512
St Patrick Church,1420 Oak Hill Ave,Youngstown,OH,44507
St Stanislaus Church Rectory,430 Williamson Ave,Youngstown,OH,44507
Boardman Christian Church,565 Boardman Canfield Rd,Youngstown,OH,44512
Four Mile Run Christian Church,701 N Four Mile Run Rd,Youngstown,OH,44515
Congregation Rodef Sholom,1119 Elm St,Youngstown,OH,44505
Ohev Tzedek Shaarei Torah,5245 Glenwood Ave,Youngstown,OH,44512
Temple El Emeth,3970 Logan Way,Youngstown,OH,44505
Bethel Lutheran Church Elca,4501 Hoover Rd,Grove City,OH,43123
Good Hope Lutheran Church,12030 Market St,North Lima,OH,44452
New Life Lutheran Church,1181 Churchill Hubbard Rd,Youngstown,OH,44505
Victory Lutheran Church,2110 Glenwood Ave,Youngstown,OH,44511
Zion Lutheran Church Elca,702 Raff Rd SW,Canton,OH,44710
Boardman United Methodist,6809 Market St,Youngstown,OH,44512
Churchill United Methodist Chr,189 Churchill Hubbard Rd,Youngstown,OH,44505
Mahoning United Methodist Chr,2214 Mahoning Ave,Youngstown,OH,44509
Poland United Methodist Church,1940 Boardman Poland Rd,Youngstown,OH,44514
Smith Corners Methodist Church,5436 Kirk Rd,Youngstown,OH,44515
Smith Corners United Methodist,3000 S Canfield Niles Rd,Youngstown,OH,44515
Destiny Inc,782 Boardman Canfield Rd,Youngstown,OH,44512
First Covenant Church,5210 Glenwood Ave,Youngstown,OH,44512
Trinity Fellowship,4749 South Ave,Youngstown,OH,44512
St John's Greek Orthodox Chr,4955 Glenwood Ave,Youngstown,OH,44512
St Nicholas Byzantine Catholic,1051 Robinson Ave,Barberton,OH,44203
Bethel Assembly of God,665 W Indiana Ave,Perrysburg,OH,43551
Calvary Assembly of God,28870 Chardon Rd,Wickliffe,OH,44092
Ebenezer Church-God in Christ,566 W Indianola Ave,Youngstown,OH,44511
Fifth Avenue Community Church,1361 5th Ave,Youngstown,OH,44504
Heart Reach,211 Redondo Rd,Youngstown,OH,44504
Highway Tabernacle,3000 S Raccoon Rd,Youngstown,OH,44515
Mt Calvary Pentecostal Church,1812 Oak Hill Ave,Youngstown,OH,44507
Mt Zion Church-God in Christ,3300 Hudson Ave,Youngstown,OH,44511
New Life Assembly of God,3230 Dustin Rd,Oregon,OH,43616
Austintown Community Church,242 S Canfield Niles Rd,Youngstown,OH,44515
Brownlee Woods Presbyterian,1970 Everett Ave,Youngstown,OH,44514
Christ Church Presbyterian,1933 Canfield Rd,Youngstown,OH,44511
Faith Community Church,1919 E Midlothian Blvd,Youngstown,OH,44502
Gibson Heights-Second United,755 E Dewey Ave,Youngstown,OH,44502
John Calvin-St Paul United Chr,1951 Mathews Rd,Youngstown,OH,44514
Pleasant Grove Presbyterian,3919 Southern Blvd,Youngstown,OH,44512
Tabernacle Evangelical Presby,2432 S Raccoon Rd,Youngstown,OH,44515
Wickliffe Presbyterian Church,45 Idlewood Rd,Youngstown,OH,44515
Idlewood Church Of God,3309 Idlewood Ave,Youngstown,OH,44511
Woodworth Church Of Brethren,30 E Western Reserve Rd,Youngstown,OH,44514
Abundant Harvest Church,104 Idlewood Rd,Youngstown,OH,44515
Abundant Love Outreach,93 E Myrtle Ave,Youngstown,OH,44507
Adams Kathryn Reverend,562 Wick Ave,Youngstown,OH,44503
Adventist Temple Emmanuel Sda,108 W Indianola Ave,Youngstown,OH,44507
Aft Ministries,109 W Woodland Ave,Youngstown,OH,44502
Canton Baptist Temple,515 Whipple Ave NW,Canton,OH,44708
Central Baptist Church,1301 North Rd,Niles,OH,44446
East Side Baptist Church,2355 3rd St NE,Canton,OH,44704
Firestone Road Baptist Church,6655 Firestone Ave NE,Canton,OH,44721
First Baptist Church of Canton,4110 38th St NW,Canton,OH,44718
Mt Calvary Second Baptist Chr,1000 3rd St NE,Canton,OH,44704
People's Baptist Church,701 17th St SE,Canton,OH,44707
Pleasant Hill Baptist Church,2305 OH-213,Steubenville,OH,43952
Shiloh Missionary Baptist Chr,383 Washington St,Newark,OH,43055
St Benedict Church,2207 3rd St SE,Canton,OH,44707
St Joseph's Church,131 W Quarry St,Newton Falls,OH,44444
St Mary's Church of Canton,1602 Market Ave S,Canton,OH,44707
St Michael's Catholic Church,16 N 4th St,Ripley,OH,45167
St Peters Catholic Church,614 N Defiance St,Archbold,OH,43502
North Industry Christian Chr,425 45th St SW,Canton,OH,44706
Perry Christian Church,PO Box 177,Perry,OH,44081
Whipple Hts C ,4900 12th St NW,Canton,OH,44708
Shaaray Torah Synagogue,432 30th St NW,Canton,OH,44709
First Lutheran Church,51 W Broadway St,Plymouth,OH,44865
Holy Trinity Lutheran,2551 55th St NE,Canton,OH,44721
St Stephen Martyr Luth Church,4600 Fulton Dr NW,Canton,OH,44718
Bethany United Methodist Chr,6388 Cincinnati Dayton Rd,Middletown,OH,45044
Church of the Lakes Child Care,5944 Fulton Dr NW,Canton,OH,44718
Dueber United Methodist Chr,645 Dueber Ave SW,Canton,OH,44706
North Industry United Meth Chr,PO Box 40,Canton,OH,44707
Simpson United Methodist Chr,4900 Middlebranch Ave NE,Canton,OH,44705
St Paul's United Methodist,105 E Main St,Elida,OH,45807
Westbrook Park Methodist Chr,2521 12th St NW,Canton,OH,44708
Canton Christian Fellowship,PO Box 35309,Canton,OH,44735
Cathedral of Life Ministries,PO Box 35212,Canton,OH,44735
Church of Christ 38th Street,3904 38th St NW,Canton,OH,44718
Deliverance Christian Church,2130 31st St NW,Canton,OH,44709
Greenwood Christian Church,4425 Frazer Ave NW,Canton,OH,44709
High Mill Church-Resurrection,1950 Schneider St NE,Canton,OH,44721
Trinity Gospel Temple,PO Box 20029,Canton,OH,44701
Holy Trinity Greek Ortho Chr,4705 Fairhaven Ave NW,Canton,OH,44709
St George Antiochian Estrn Chr,1118 Cherry Ave NE,Canton,OH,44704
St George Byzantine Catholic,1123 44th St NE,Canton,OH,44714
St George Romanian Ortho Chr,144 30th St NW,Canton,OH,44709
St Haralambos Greek Orthdx Chr,251 25th St NW,Canton,OH,44709
Apostolic Faith Assembly,PO Box 225,Barberton,OH,44203
Canton Temple of Praise Church,2800 Woodlawn Ave NW,Canton,OH,44708
God Given Chr of God in Christ,PO Box 20477,Canton,OH,44701
Link Church,PO Box 6419,Canton,OH,44706
Pentecostal Assembly Church,1802 Clarendon Ave SW,Canton,OH,44706
Pentecostal Temple Church,PO Box 20642,Canton,OH,44701
Market Hts United Church,3129 Market Ave N,Canton,OH,44714
Westminster Presbyterian Chrch,171 Aultman Ave NW,Canton,OH,44708
Southwest Church Of Christ,1116 Dueber Ave SW,Canton,OH,44706
Southeast Church Of Christ,1424 Allen Ave SE,Canton,OH,44707
A Lifetime Of Deliverance,3757 Cleveland Ave NW,Canton,OH,44709
Afatherspresence.Com,2922 Gilbert Ave NE,Canton,OH,44705
Agudas Achim Congregation,2508 Market Ave N,Canton,OH,44714
Akron Community Friends Church,615 Meadowridge Ave NW,Canton,OH,44708
All Nations Tabernacle,3054 17th St SW,Canton,OH,44706
All Saints Temple,1451 Nimisilla Ct SE,Canton,OH,44707
Allen Wilbur,1550 Cherry Ave SE,Canton,OH,44707
Arrowbrook Baptist Church,1124 Upper Bellbrook Rd,Xenia,OH,45385
Dayton Avenue Baptist Church,1121 Dayton Ave,Xenia,OH,45385
St Brigid Catholic Church,258 Purcell Ave,Xenia,OH,45385
Xenia First Church-Nazarene,1204 W 2nd St,Xenia,OH,45385
First Evangelical Lutheran Chr,PO Box 69,Donnelsville,OH,45319
Faith Community United Mthdst,100 Country Club Dr,Xenia,OH,45385
United Ame Church,286 E Church St,Xenia,OH,45385
Xenia Christian Ctr,282 Stelton Rd,Xenia,OH,45385
First Church of Christ,20 W Martin St,East Palestine,OH,44413
Memorial United Presbyterian,343 W Ankeney Mill Rd,Xenia,OH,45385
Westminister Presbyterian Chr,990 Old Springfield Pike,Xenia,OH,45385
A House Of Prayer,134 Rogers St,Xenia,OH,45385
Ahop Church,356 Home Ave,Xenia,OH,45385
Avon Lake Baptist Church,321 Lear Rd,Avon Lake,OH,44012
Holy Spirit Parish,410 Lear Rd,Avon Lake,OH,44012
St Joseph Church-Avon Lake,32929 Lake Rd,Avon Lake,OH,44012
Lake Shore United Methodist,33119 Electric Blvd,Avon Lake,OH,44012
Avon Lake Presbyterian Church,32340 Electric Blvd,Avon Lake,OH,44012
Avon Lake United Church,32801 Electric Blvd,Avon Lake,OH,44012
Bailey Road Baptist Church,PO Box 176,North Jackson,OH,44451
St James Catholic Church,17514 Detroit Ave,Lakewood,OH,44107
First Federated Church,PO Box 188,North Jackson,OH,44451
Baptist Church,PO Box 269,Felicity,OH,45120
Felicity Church of Christ,PO Box 102,Felicity,OH,45120
Felicity United Methodist Chr,PO Box 68,Felicity,OH,45120
Baptist Church of Spencer,PO Box 127,Spencer,OH,44275
Baptist Tabernacle,7816 Dubois Rd,Franklin,OH,45005
Chapel of Miami Valley,PO Box 85,Franklin,OH,45005
Faith Missionary Baptist Chr,5702 Olive Ave,Franklin,OH,45005
First Baptist Church-Franklin,16 W 2nd St,Franklin,OH,45005
Pennyroyal Baptist Church,3733 Pennyroyal Rd,Franklin,OH,45005
Riverview Baptist Church Sbc,215 S Riverview Ave,Miamisburg,OH,45342
St Mary Catholic Church,6647 Van Buren Ave,Georgetown,OH,45121
Franklin Christian Church,403 Oxford Rd,Franklin,OH,45005
Towne Boulevard Church of God,3722 Towne Blvd,Franklin,OH,45005
St Paul Lutheran Elca,500 E 2nd St,Franklin,OH,45005
New Jersey Presbyterian Church,780 Fairview Dr,Franklin,OH,45005
Abbott Ron Reverend,6459 Manchester Rd,Franklin,OH,45005
Batavia Baptist Temple,770 S Riverside Dr,Batavia,OH,45103
First Baptist Church-Glen Este,1034 Old Oh-74,Batavia,OH,45103
Monterey Baptist Church,5345 Hutchinson Rd,Batavia,OH,45103
Victory Baptist Church,PO Box 246,Lodi,OH,44254
Holy Trinity Church-Batavia,140 N 6th St,Batavia,OH,45103
Batavia Church of Christ,2170 Old State Route 32,Batavia,OH,45103
Batavia Faith United Methodist,180 N 5th St,Batavia,OH,45103
Owensville United Methodist,2580 US-50,Batavia,OH,45103
Batavia Church Of Nazarene,4650 State Route 132,Batavia,OH,45103
Batavia Church Of God,2451 Straight St,Batavia,OH,45103
Adams Brian,2852 Aulenbush Dr,Batavia,OH,45103
Afton Wesleyan,2940 Old State Route 32,Batavia,OH,45103
Beacon Baptist Church,3407 W Erie Ave,Lorain,OH,44053
Mount Zion Baptist Church,1516 E 30th St,Lorain,OH,44055
Tower Baptist Church,1331 Tower Blvd,Lorain,OH,44053
Sacred Heart Chapel,4301 Pearl Ave,Lorain,OH,44055
St Anthony of Padua Church,316 5th St,Fairport Harbor,OH,44077
St John Roman Catholic Church,2143 Homewood Dr,Lorain,OH,44055
St Mary Church-Lorain,309 W 7th St,Lorain,OH,44052
St Peter Church,1192 Bethel-New Richmond Rd,New Richmond,OH,45157
Christian Temple,940 W 5th St,Lorain,OH,44052
Faith Ministries Christian Ctr,1306 Euclid Ave,Lorain,OH,44052
Episcopal Church-Redeemer,PO Box 521,Lorain,OH,44052
Zion Lutheran Church Lcms,5100 Ashland Ave,Lorain,OH,44053
Christ United Methodist,PO Box 748,Newark,OH,43058
Delaware Ave United Methodist,658 E Erie Ave,Lorain,OH,44052
House of Praise,4321 Elyria Ave,Lorain,OH,44055
St Nicholas Byzantine,2711 W 40th St,Lorain,OH,44053
Cathedral of Praise,4545 Elyria Ave,Lorain,OH,44055
Church On the North Coast,4125 Leavitt Rd,Lorain,OH,44053
Iglesia De Dios Pentecostal,PO Box 124,Lorain,OH,44052
Agudath Bnai Israel Synagogue,1715 Meister Rd,Lorain,OH,44053
Berea Baptist-Garbc,250 West St,Berea,OH,44017
St Adalbert Church,66 Adelbert St,Berea,OH,44017
St Mary's Church of Berea,250 Kraft St,Berea,OH,44017
Berea United Methodist Church,170 Seminary St,Berea,OH,44017
People's Community Church,631 N Rocky River Dr,Berea,OH,44017
Metro Church South,PO Box 200,Berea,OH,44017
Berean Baptist Church,2145 Middle Bellville Rd,Mansfield,OH,44904
Community Baptist Bible Church,PO Box 2815,Mansfield,OH,44906
Cook Road Baptist Church,54 E Cook Rd,Mansfield,OH,44907
Diamond Hills Baptist Church,647 S Diamond St,Mansfield,OH,44907
Mansfield Baptist Temple,752 Stewart Rd N,Mansfield,OH,44905
Mt Hermon Missionary Baptist,PO Box 1147,Mansfield,OH,44901
Shiloh Full Gospel Baptist Chr,PO Box 1081,Mansfield,OH,44901
St Mary's Catholic Church,111 E High St,Oxford,OH,45056
St Peter's Catholic Church,104 W 1st St,Mansfield,OH,44902
Grace Episcopal Church,41 Bowman St,Mansfield,OH,44903
Apostolic Christian Church,7860 Sawmill Rd,Dublin,OH,43016
St Luke's Lutheran Church,215 N 2nd St,North Baltimore,OH,45872
Main Street United Methodist,230 W Main St,Barnesville,OH,43713
Ontario United Methodist Chr,3540 Park Ave W,Mansfield,OH,44906
Diamond Hill Cathedral,500 Tingley Ave,Mansfield,OH,44905
Grace Fellowship Church,365 Straub Rd E,Mansfield,OH,44903
Greater St John Church of God,190 Chester Ave,Mansfield,OH,44903
Living Word Church,250 S Cassel Rd,Vandalia,OH,45377
Springmill Church of God,2578 State Route 39,Mansfield,OH,44903
Stewart Road Church of God,1425 N Stewart Rd,Mansfield,OH,44903
First Church Of Brethren,889 Grace St,Mansfield,OH,44905
All Believers In Christ Church,22 N Walnut St,Mansfield,OH,44902
Elk Creek Baptist Church,7175 Elk Creek Rd,Middletown,OH,45042
New Era Baptist Church,1120 Yankee Rd,Middletown,OH,45044
Spring Hill Church of Christ,2021 Brell Dr,Middletown,OH,45042
Church of the Ascension,13216 Detroit Ave,Lakewood,OH,44107
Church Breiel First Chr of God,2000 N Breiel Blvd,Middletown,OH,45042
New Covenant Church,PO Box 931,Middletown,OH,45042
Yankee Road First Church-God,3029 Yankee Rd,Middletown,OH,45044
Royal Redeemer Lutheran,7127 Dutchland Pky,Middletown,OH,45044
Amanda United Methodist Church,1315 Oxford State Rd,Middletown,OH,45044
Pleasant Ridge Methodist Chr,1052 Middletown Eaton Rd,Middletown,OH,45042
River Church,5546 Cincinnati Dayton Rd,Middletown,OH,45044
Wellspring Community Church,7689 Bethany Rd,Middletown,OH,45044
Stratford Heights Church-God,4419 Nelson Rd,Middletown,OH,45042
St Pauls United Church,PO Box 421160,Middletown,OH,45042
International Church Of God,705 Moore St,Middletown,OH,45044
A New Beginning Full Gospel,200 S Marshall Rd,Middletown,OH,45044
Northside Baptist Church,161 Miller Rd,Lebanon,OH,45036
Southgate Baptist Church,2111 S Center Blvd,Springfield,OH,45506
Springfield Missionary Baptist,2650 Hilldale Rd,Springfield,OH,45505
St John Missionary Baptist Chr,34 W Pleasant St,Springfield,OH,45506
St Bernard Catholic Church,910 Lagonda Ave,Springfield,OH,45503
St Teresa Catholic Church,1829 N Limestone St,Springfield,OH,45503
Springfield Church of Christ,1620 Buck Creek Ln,Springfield,OH,45502
Clifton Ave Church of God,1408 Clifton Ave,Springfield,OH,45505
High Street Church of Nazarene,1625 E High St,Springfield,OH,45505
Hillside Ave Church of God,2021 Hillside Ave,Springfield,OH,45503
Maiden Lane Church of God,1201 Maiden Ln,Springfield,OH,45504
Northside Church of God,3705 Middle Urbana Rd,Springfield,OH,45502
Faith in Christ Lutheran Chr,1603 Moorefield Rd,Springfield,OH,45503
Good Shepherd Ev Lutheran Chr,712 N Fountain Ave,Springfield,OH,45504
Risen Christ Lutheran Church,41 E Possum Rd,Springfield,OH,45502
Rockway Lutheran Church,3517 W National Rd,Springfield,OH,45504
St John's Community Outreach,27 N Wittenberg Ave,Springfield,OH,45502
Central United Methodist Chr,102 W High St,Springfield,OH,45502
High Street United Methodist,230 E High St,Springfield,OH,45505
Lagonda United Methodist Chr,2030 Mitchell Blvd,Springfield,OH,45503
Northridge United Methodist,4610 Derr Rd,Springfield,OH,45503
St Mark United Methodist Chr,PO Box 1545,Springfield,OH,45501
Story-Hypes United Methodist,2000 E Main St,Springfield,OH,45503
Fellowship Christian Church,2301 Valley Loop Rd,Springfield,OH,45504
Word of Faith Family Church,3660 Springfield Jamestown Rd,Springfield,OH,45502
Christ Chapel Church of God,2404 Troy Rd,Springfield,OH,45504
Church of Jesus,PO Box 628,Piqua,OH,45356
Northminster Presbyterian Chr,237 W Maple St,North Canton,OH,44720
Cornerstone Church Of God,3318 Dayton Rd,Springfield,OH,45506
Lawrenceville Church Of God,4444 Saint Paris Pike,Springfield,OH,45504
Abundant Life Church,661 N County Road 25A,Troy,OH,45373
Allied Baptist Church,238 W State St,Springfield,OH,45506
St Mary Church,3398 OH-125,Bethel,OH,45106
Bethel Church of Christ,125 E Plane St,Bethel,OH,45106
Saltair Church of Christ,2124 Oh-222,Bethel,OH,45106
Bethel Church of the Nazarene,50 E Water St,Bethel,OH,45106
Bethesda Baptist Church,19815 Kings Hwy,Warrensville Heights,OH,44122
Aldersgate United Mthdst Chr,4069 Eastwood Ln,Warrensville Heights,OH,44122
Bible Baptist Church,PO Box 63,Sardinia,OH,45171
Mt Orab Church of Christ,400 Smith Ave,Mt Orab,OH,45154
Mount Orab United Methodist,212 Church St,Mt Orab,OH,45154
Sardinia Church of Christ,PO Box 303,Sardinia,OH,45171
Bible Baptist Temple,230 Lettie Ave,Campbell,OH,44405
St Elizabeth's Church,124 Keystone St,Campbell,OH,44405
St John's Church,159 Reed Ave,Campbell,OH,44405
St Lucy Church,394 Tenney Ave,Campbell,OH,44405
St Michael's Byzantine Cath,PO Box 426,Campbell,OH,44405
St John's Orthodox Church,301 Struthers Liberty Rd,Campbell,OH,44405
Bloom Baptist Church,PO Box 121,Lithopolis,OH,43136
St John Evangelical Lutheran,400 Hill Blvd,East Liverpool,OH,43920
Lithopolis United Methodist,PO Box 42,Lithopolis,OH,43136
Branch Hill Baptist Church,PO Box 295,Loveland,OH,45140
Northeast Community Church,PO Box 215,Loveland,OH,45140
Springvale Baptist Church,1700 Clark Dr,Loveland,OH,45140
St Columban Church,894 Oakland Rd,Loveland,OH,45140
St Margaret of York Church,9495 Columbia Rd,Loveland,OH,45140
Congregation Beth Adam,10201 Loveland Madeira Rd,Loveland,OH,45140
Epiphany United Methodist Chrc,6635 Loveland Miamiville Rd,Loveland,OH,45140
Loveland United Methodist Chr,10975 S Lebanon Rd,Loveland,OH,45140
Beth Messiah Congregation,9054 Columbia Rd,Loveland,OH,45140
Living Word Fellowship,700 W Cherry St,Sunbury,OH,43074
Riverhills Christian Church,6642 Branch Hill Guinea Pike,Loveland,OH,45140
Loveland Presbyterian Church,360 Robin Ave,Loveland,OH,45140
St Margaret Of York,9483 Columbia Rd,Loveland,OH,45140
Supreme Council Of House,629 Loveland Miamiville Rd,Loveland,OH,45140
Brookside Baptist Church Sbc,590 Lancaster Ave,Reynoldsburg,OH,43068
Reynoldsburg Baptist Church,887 Rosehill Rd,Reynoldsburg,OH,43068
St Pius X,1051 Waggoner Rd,Reynoldsburg,OH,43068
Church of Christ Reynoldsburg,1649 Graham Rd,Reynoldsburg,OH,43068
Reynoldsburg Church-Nazarene,1340 Crest Rd,Reynoldsburg,OH,43068
Reynoldsburg United Methodist,1636 Graham Rd,Reynoldsburg,OH,43068
Faith Chapel,15187 Palmer Rd SW,Reynoldsburg,OH,43068
New Song Community Church,13873 National Rd SW,Reynoldsburg,OH,43068
Parkview Presbyterian Church,6969 E Livingston Ave,Reynoldsburg,OH,43068
Agape Sanctuary-pickerington,7551 E Main St,Reynoldsburg,OH,43068
Burlington Baptist Church,7309 County Road 1,South Point,OH,45680
Leatherwood Missionary Baptist,330 County Road 131,South Point,OH,45680
Solida Baptist Church,PO Box 631,South Point,OH,45680
Calvary Chapel Baptist Church,71 N Hamilton St,Minster,OH,45865
St Augustine Rectory,PO Box 93,Minster,OH,45865
Calvary Fellowship Baptist Chr,727 Mentor Ave,Painesville,OH,44077
Painesville Baptist Church,140 Mantle Road Ext,Painesville,OH,44077
Church of the Brethren,300 Monument St,Pleasant Hill,OH,45359
St Mary Church-Painesville,242 N State St,Painesville,OH,44077
St James Episcopal Church,131 N State St,Painesville,OH,44077
Leroy Community Chapel,12920 Painesville Warren Rd,Painesville,OH,44077
First Church Congregational,22 Liberty St,Painesville,OH,44077
Union Congregational Church,10959 Johnnycake Ridge Rd,Painesville,OH,44077
Painsville Church Of God,6369 Chestnut St,Painesville,OH,44077
Camden Baptist Church,17901 OH-511,Wellington,OH,44090
St Patrick's Catholic Church,512 N Main St,Wellington,OH,44090
United Church of Huntington,26677 OH-58,Wellington,OH,44090
Pittsfield United Church,17026 OH-58,Wellington,OH,44090
United Church Of Huntington,26500 OH-58,Wellington,OH,44090
Abundant Grace Efc,17171 State Route 58,Wellington,OH,44090
Alexander Thomas,19121 State Route 58,Wellington,OH,44090
Cass Road Baptist Church,1400 Cass Rd,Maumee,OH,43537
St Joseph's Church-Maumee,104 W Broadway St,Maumee,OH,43537
Heritage Church of God,3520 Strayer Rd,Maumee,OH,43537
Maumee United Methodist Church,405 Sackett St,Maumee,OH,43537
Adams Brad Pastor,6451 Millbrook Rd,Maumee,OH,43537
Our Lady of Mount Carmel,381 Robbins Ave,Niles,OH,44446
St Nicholas Roman Catholic,764 5th St,Niles,OH,44446
Pleasant Valley Church,2055 Pleasant Valley Rd,Niles,OH,44446
Church of the Carpenter,5711 Shull Rd,Huber Heights,OH,45424
Colonial Baptist Church,201 Gumps Ln,Wintersville,OH,43953
Blessed Sacrament Church,852 Main St,Wintersville,OH,43953
Wintersville United Methodist,702 Main St,Wintersville,OH,43953
Word of Life Fellowship,565 Lovers Ln,Wintersville,OH,43953
Starkdale Presbyterian Church,PO Box 236,Wintersville,OH,43952
Columbia Road Baptist Church,4116 Columbia Rd,North Olmsted,OH,44070
St Clarence Church,30106 Lorain Rd,North Olmsted,OH,44070
St Richard's Church,26855 Lorain Rd,North Olmsted,OH,44070
St Andrew Lutheran Church,282 S Broadway St,Farmersville,OH,45325
North Olmsted United Methodist,4600 Dover Center Rd,North Olmsted,OH,44070
North Olmsted Evangelical,5665 Great Northern Blvd,North Olmsted,OH,44070
North Olmsted Assembly of God,3874 Columbia Rd,North Olmsted,OH,44070
Clague Road United Church,3650 Clague Rd,North Olmsted,OH,44070
John Knox Presbyterian Church,5155 Eastlake St NW,North Canton,OH,44720
Columbiana Baptist Church,44420 Heck Rd,Columbiana,OH,44408
Saint Jude Church,180 7th St,Columbiana,OH,44408
Church of the Nazarene,PO Box 187,Tipp City,OH,45371
Jerusalem Lutheran Church,415 S Main St,Columbiana,OH,44408
Upper Room Fellowship,500 Sponseller Rd,Columbiana,OH,44408
Cortland Trinity Baptist Chr,2576 McCleary Jacoby Rd,Cortland,OH,44410
St Roberts Catholic Chr,4659 OH-46,Cortland,OH,44410
Bazetta Christian Church,4131 Bazetta Rd,Cortland,OH,44410
Cortland Christian Church,153 Grove St,Cortland,OH,44410
Cortland United Methodist Chr,155 N High St,Cortland,OH,44410
Jericho Center,2878 Warren Meadville Rd,Cortland,OH,44410
All Saints Community Church,4530 State Route 46,Cortland,OH,44410
Cozaddale Baptist Temple,10632 Eltzroth Rd,Goshen,OH,45122
Crosspointe Community Church,10208 Cozaddale Murdock St,Goshen,OH,45122
Goshen United Methodist Church,PO Box 286,Goshen,OH,45122
Holy Family Catholic Church,115 E Cherry St,North Baltimore,OH,45872
First Christian Church of Stow,3493 Darrow Rd,Stow,OH,44224
Stow Alliance Fellowship Chr,4460 Stow Rd,Stow,OH,44224
St Stephen Lutheran-Stow,3725 Kent Rd,Stow,OH,44224
Stow United Methodist Child Cr,4880 Fishcreek Rd,Stow,OH,44224
Victory Life Church of Stow,3833 Hudson Dr,Stow,OH,44224
Stow Presbyterian Church,4150 Fishcreek Rd,Stow,OH,44224
Achmoody Kenneth Rev,2788 Williamsburg Cir,Stow,OH,44224
Crossroad Baptist Church,9903 W National Rd,New Carlisle,OH,45344
Lake Avenue Christian Church,PO Box 213,New Carlisle,OH,45344
Good Shepherd Methodist Church,1520 Styer Dr,New Carlisle,OH,45344
Cuyahoga Valley Community Chr,5055 E Wallings Rd,Broadview Heights,OH,44147
Assumption Church,594 W Main St,Geneva,OH,44041
Triune Lutheran Church Elca,4810 W Mill Rd,Broadview Heights,OH,44147
Darrtown Baptist Church,4280 Walnut St,Oxford,OH,45056
Holy Trinity Episcopal Church,25 E Walnut St,Oxford,OH,45056
Oxford United Methodist Church,14 N Poplar St,Oxford,OH,45056
Oxford Church of God,5450 College Corner Rd,Oxford,OH,45056
Oxford Presbyterian Church,101 N Main St,Oxford,OH,45056
University Church Of Christ,3735 Oxford Millville Rd,Oxford,OH,45056
Dublin Baptist Church,7195 Coffman Rd,Dublin,OH,43017
St Brigid-Kildare Cthlc Scl,PO Box 3130,Dublin,OH,43016
Dublin Christian Church,2900 Martin Rd,Dublin,OH,43017
St Andrew Christian Church,1985 Swansford Dr,Dublin,OH,43016
St Patrick's Episcopal Church,7121 Muirfield Dr,Dublin,OH,43017
Indian Run United Methodist,6305 Brand Rd,Dublin,OH,43016
Radiant Life Church,7055 Avery Rd,Dublin,OH,43017
Dublin Community Church,81 W Bridge St,Dublin,OH,43017
Norden Stephen M,2220 Gnarled Pine Dr,Dublin,OH,43016
East River Road Baptist Church,4525 River Rd,Fairfield,OH,45014
Fairfield Wesleyan Church,4685 Anthony Wayne Ave,Fairfield,OH,45014
Fairfield West Baptist Church,5345 Muskopf Rd,Fairfield,OH,45014
Hilltop Baptist Church,2425 Mack Rd,Fairfield,OH,45014
Lindenwald Baptist Church,460 Symmes Rd,Fairfield,OH,45014
Rolling Hills Baptist Church,5742 Pleasant Ave,Fairfield,OH,45014
Fairfield Church of Christ,745 Symmes Rd,Fairfield,OH,45014
Fairfield Church of Nazarene,1425 Nilles Rd,Fairfield,OH,45014
Winston Road First Church-God,6200 Winton Rd,Fairfield,OH,45014
Fairfield Church of God,6001 Dixie Hwy,Fairfield,OH,45014
Tri-County Assembly of God,7350 Dixie Hwy,Fairfield,OH,45014
Icfc Assemblies Of God,1367 Hicks Blvd,Fairfield,OH,45014
Eleventh Street Missionary Chr,108 E 11th St,Lima,OH,45804
Fourth Street Baptist Church,122 W 4th St,Lima,OH,45804
Lima Baptist Temple,982 Brower Rd,Lima,OH,45801
Lima Missionary Baptist Church,3085 Yoder Rd,Lima,OH,45806
New Morning Star Baptist Chr,1904 S Main St,Lima,OH,45804
Philippian Missionary Bapt Chr,190 E 8th St,Lima,OH,45804
Shiloh Mb Church,110 W 11th St,Lima,OH,45804
St Charles Catholic Church,2200 W Elm St,Lima,OH,45805
St Gerard's Catholic Church,240 W Robb Ave,Lima,OH,45801
St Rose Catholic Church,222 S West St,Lima,OH,45801
Southside Christian Church,3300 S Side Dr,Lima,OH,45807
Cable Road Alliance Church,2264 N Cable Rd,Lima,OH,45807
Gardendale Church of God,4130 Spencerville Rd,Lima,OH,45805
Lima Community Church,2945 N Cole St,Lima,OH,45801
Shawnee Alliance Church,4455 Shawnee Rd,Lima,OH,45806
St Matthew Lutheran Church,400 N Broadway St,Medina,OH,44256
Forest Park United Meth Church,315 S Collins Ave,Lima,OH,45804
St Mark's United Methodist,302 3rd St,Belpre,OH,45714
Trinity United Methodist Ch,PO Box 125,Spencerville,OH,45887
Westside United Methodist Chr,604 Gloria Ave,Lima,OH,45805
Cornerstone Harvest Church,PO Box 88,Lima,OH,45802
New Life Christain Ministies,676 S Elizabeth St,Lima,OH,45804
New Life Church Intl,2100 W Breese Rd,Lima,OH,45806
North Park Community Church,633 W Ashton Ave,Lima,OH,45801
Rousculp Church of Christ,890 Amherst Rd,Lima,OH,45806
Full Gospel Tabernacle,1520 Stewart Rd,Lima,OH,45801
Grace Church Worldwide Mnstrs,2945 Wells Dr,Lima,OH,45804
First Evangelical ,320 W Wayne St,Lima,OH,45801
Market Street Presbyterian Chr,1100 W Market St,Lima,OH,45805
West Elm United Chr of Christ,1606 W Elm St,Lima,OH,45805
Churches United Pantry,129 S Pierce St,Lima,OH,45801
Shawnee Church Of Christ,1600 Jo Jean Rd,Lima,OH,45806
Calvary Chapel Of Lima,682 W Grand Ave,Lima,OH,45801
Abundant Life Temple,3885 Bellefontaine Rd,Lima,OH,0
Alexander Arthur J Pastor,2330 Bowman Rd,Lima,OH,0
Allentown United Methodist Church,4900 Allentown Road,Lima,OH,45807
Allentown United Mthdst Prsng,110 Gregory Ln,Lima,OH,45807
Galilee Missionary Bapt Church,PO Box 771,Barberton,OH,44203
Holy Trinity Roman Cath Church,398 Van St,Barberton,OH,44203
St Augustine's Church,204 6th St NW,Barberton,OH,44203
Barberton First Church-Christ,552 Harvard Ave,Barberton,OH,44203
Lakeview United Methodist Chr,211 3rd St NW,Barberton,OH,44203
Moore Memorial United Meth Chr,185 3rd St NW,Barberton,OH,44203
St Paul's United Methodist Chr,803 Wooster Rd N,Barberton,OH,44203
Emmanuel Christian Assembly,925 W Hopocan Ave,Barberton,OH,44203
Columbia United Church,978 Wooster Rd W,Barberton,OH,44203
Barberton Church Of God,885 N Summit St,Barberton,OH,44203
Church Of Christ Of Barberton,984 Robinson Ave,Barberton,OH,44203
Allen Chapel A M E,150 Oakwood St,Ravenna,OH,44266
Williamsburg United Methodist,330 Gay St,Williamsburg,OH,45176
Clear Mountain Community,PO Box 528,Williamsburg,OH,45176
Trinity Christian Fellowship,PO Box 556,Williamsburg,OH,45176
Nativity Church-South Amherst,333 S Lake St,Amherst,OH,44001
St Joseph Catholic Church,PO Box 166,Plain City,OH,43064
Church of Christ-Amherst,591 Washington St,Amherst,OH,44001
Old Stone United Methodist Chr,553 S Main St,Amherst,OH,44001
Trinity Evangelical Free,46485 Middle Ridge Rd,Amherst,OH,44001
Family Fellowship Foursquare,PO Box 146,Amherst,OH,44001
Heritage Presbyterian Church,6546 S Mason Montgomery Rd,Mason,OH,45040
St Peter United Church-Christ,582 Church St,Amherst,OH,44001
Alabaster Jar Ministries,389 Ambleside Way,Amherst,OH,44001
Faith Baptist Temple,34361 Lorain Rd,North Ridgeville,OH,44039
North Ridgeville Baptist,PO Box 39120,North Ridgeville,OH,44039
St Julie Billiart Chapel,5545 Opal St,North Ridgeville,OH,44039
St Peter's Church,425 N 4th St,Steubenville,OH,43952
Shepherd of the Ridge Lutheran,34555 Center Ridge Rd,North Ridgeville,OH,44039
Fields United Methodist Church,34077 Lorain Rd,North Ridgeville,OH,44039
Favorite Hill Baptist Church,1601 South St,Piqua,OH,45356
Park Ave Baptist Church,232 S Wayne St,Piqua,OH,45356
Piqua Baptist Church,1402 W High St,Piqua,OH,45356
Upper Valley Community Church,1400 Seidel Pky,Piqua,OH,45356
Greene Street United Methodist,415 W Greene St,Piqua,OH,45356
Liberty Christian Ctr,8527 N County Road 25a,Piqua,OH,45356
Congregational Christian Chr,421 Broadway St,Piqua,OH,45356
St Paul's United Church,306 Church St W,East Canton,OH,44730
Westminster Presbyterian,325 W Ash St,Piqua,OH,45356
First Church Of God,9016 N Main St,Windham,OH,44288
Kings Point Church of God,5600 S Oh-48,Maineville,OH,45039
Lakeview United Church-Christ,8639 Columbia Rd,Maineville,OH,45039
Abiding Word Lutheran Church,8663 Simpson Ct,Mason,OH,45040
Bunker Hill United Meth Chr,15096 W Middletown Rd,Beloit,OH,44609
Community Bible Church,3671 Tallmadge Rd,Rootstown,OH,44272
Bethel United Church of Christ,25701 Buck Rd,Beloit,OH,44609
Vandalia Baptist Temple,724 Helke Rd,Vandalia,OH,45377
Vandalia United Methodist Chr,200 S Dixie Dr,Vandalia,OH,45377
Grace Baptist Church Garbc,21 Littlejohn Rd,Troy,OH,45373
Troy Baptist Temple-Indepndnt,691 E Staunton Rd,Troy,OH,45373
Saint Patrick Church,409 E Main St,Troy,OH,45373
Mid-County Church of Christ,1580 N Dorset Lytle Rd,Troy,OH,45373
Church of the Nazarene-Troy,PO Box 605,Troy,OH,45373
Miami Valley Christian Ctr,PO Box 626,Troy,OH,45373
Troy Christian Church,1440 E Oh-55,Troy,OH,45373
Alcony Grace Church,1045 S Alcony-Conover Rd,Troy,OH,45373
Bradford United Methodist Chr,112 E Church St,Bradford,OH,45308
Genoa Baptist Church,7562 Lewis Center Rd,Westerville,OH,43082
Westerville Free Will Baptist,630 N State St,Westerville,OH,43082
St Paul's Church-Westerville,313 N State St,Westerville,OH,43082
St Matthews Episcopal Church,233 S State St,Westerville,OH,43081
Westerville Church-Nazarene,355 Cherrington Rd,Westerville,OH,43081
Church of the Saviour Meth,141 S State St,Westerville,OH,43081
Christ Community Church,PO Box 2165,Hudson,OH,44236
Grace Chapel Community Church,7798 Big Walnut Rd,Westerville,OH,43082
Heritage Christian Church,1640 S Coy Rd,Oregon,OH,43616
Vineyard Church of Columbus,6000 Cooper Rd,Westerville,OH,43081
Westerville Christian Church,471 E College Ave,Westerville,OH,43081
Central College Presbyterian,975 S Sunbury Rd,Westerville,OH,43081
Northside Fellowship Presby,6841 Freeman Rd,Westerville,OH,43082
Westerville Community Church,770 County Line Rd,Westerville,OH,43081
Grace Church Of Christ,8060 Harlem Rd,Westerville,OH,43081
Gauen Mark,1086 Arundel Ave,Westerville,OH,43081
Mccormack James,784 W Main St,Westerville,OH,43081
Reorganized Church Of Jesus,8128 Africa Rd,Westerville,OH,43082
St Paul's School-westerville,61 Moss Rd,Westerville,OH,43082
Church Of Master United,24 N Grove St,Westerville,OH,43081
Sonntag H,43 W Lincoln St,Westerville,OH,43081
Church Of Messiah,51 N State St,Westerville,OH,43081
Westerville Bible Church,2665 W Schrock Rd,Westerville,OH,43081
Fellowship Of Chrstn Athletes,5805 Chandler Ct,Westerville,OH,43082
Lifeline Christian Mission,184 Old County Line Rd,Westerville,OH,43081
Columbus Family Worship Center,33 E Park St,Westerville,OH,43081
Crusade For Christ,790 PO Box,Westerville,OH,0
Meuser Paul M,277 Dogwood Ln,Westerville,OH,43082
Baha'i Faith,611 PO Box,Westerville,OH,0
Ohio Bible Mission,103 Parkview Ave,Westerville,OH,43081
Oasis Ministries,242 Sterling Glen Dr,Westerville,OH,43081
Associated Bible Students,6285 Freeman Rd,Westerville,OH,43082
Westerville Free Will Baptist Church,390 E College Ave,Westerville,OH,43081
Authority Of Believers,184 Heatherdown Dr,Westerville,OH,43081
Westerville Alliance Church,75 E Schrock Rd,Westerville,OH,43081
Peebles Michael,97 Daniel Dr,Westerville,OH,43081
Hall M E,341 Seminole Ave,Westerville,OH,43081
Christian Life Church,665 Linnville Rd,Newark,OH,43056
American Baptist Church,401 E Schrock Rd,Westerville,OH,43081
"Wise,Dexter Rev",973 Corbin Ct,Westerville,OH,43081
Newsong Community Church,937 Eastwind Dr,Westerville,OH,43081
Church Of Jesus Christ Of Latter-day Saints,450 N Liberty St,Powell,OH,43065
Higher Demesions,252 Cross Wind Dr,Westerville,OH,43081
Sperling Jeffrey,6412 Saddle Lane Ct,Westerville,OH,43081
Meacham James H,7720 Big Walnut Rd,Westerville,OH,43082
Lattimore Vergel,610 Olde North Church Rd,Westerville,OH,43081
Spencer-smith Susan Rev,11 S Hempstead Rd,Westerville,OH,43081
Gessner Raymond Jr,34 N Hempstead Rd,Westerville,OH,43081
Faith Covenant Church,3607 Dempsey Rd,Westerville,OH,43081
Kittner Barbara A,761 Liverpool Pl,Westerville,OH,43081
Triumphant Church Of God,8281 Harvest Wind Dr,Westerville,OH,43082
Redeemer's Church-westerville,395 Sunbury Rd,Westerville,OH,43082
Ellis Vernon,1036 Timberbank Dr,Westerville,OH,43081
Farina Paulette,1100 Forest Glen Rd,Westerville,OH,43081
St Nicholas Ministries,3760 Lima Dr,Westerville,OH,43081
Thomas Walter A,5598 Natalie Ct S,Westerville,OH,43081
Huber Ridge Christian Union,5411 Buenos Aires Blvd,Westerville,OH,43081
Thomas Richard,4385 Scissortail Loop,Westerville,OH,43081
Logan Elm Baptist Church,22530 Bolender Pontius Rd,Circleville,OH,43113
Crossroads Church,PO Box 494,Circleville,OH,43113
Good Shepherd Methodist Chr,310 E Main St,Circleville,OH,43113
Circleville Presbyterian Ch,PO Box 147,Circleville,OH,43113
Circle Of Light Worship Center,2146 N Court St,Circleville,OH,43113
Northridge Church Of Christ,578 Northridge Rd,Circleville,OH,43113
Kingsville Presbyterian Church,PO Box 41,Kingsville,OH,44048
Holland Free Methodist Church,PO Box 246,Holland,OH,43528
Amazing Grace Baptist Church,1205 S Crissey Rd,Holland,OH,43528
Providence Lutheran Church,11475 Providence Pike,Brookville,OH,45309
Christian Fellowship of Toledo,6711 Pilliod Rd,Holland,OH,43528
Sharon Baptist Church,2010 S 5th St,Ironton,OH,45638
Souls Harbor Baptist Church,115 Caywood Rd,Marietta,OH,45750
Marietta Bible Ctr Church,4070 OH-60,Marietta,OH,45750
St Lukes Lutheran Church,401 Scammel St,Marietta,OH,45750
Gilman United Methodist Church,312 Gilman Ave,Marietta,OH,45750
Norwood United Methodist Chr,23 Colegate Dr,Marietta,OH,45750
Valley Harvest Church,RR 11 Box 14,Marietta,OH,45750
Celebration Center Of Marietta,822 Front St,Marietta,OH,45750
Church-jesus Christ Of Lds,1503 Glendale Rd,Marietta,OH,45750
Spring Hills Baptist Church,1820 Newark Granville Rd,Granville,OH,43023
St Edwards Catholic Church,785 Newark Granville Rd,Granville,OH,43023
West Jefferson Methodist Chr,36 S Center St,West Jefferson,OH,43162
Mother of Sorrows Church,1464 W 6th St,Ashtabula,OH,44004
Mt Carmel Church,1200 E 21st St,Ashtabula,OH,44004
Saybrook United Methodist Chr,7900 Depot Rd,Ashtabula,OH,44004
Harvest International Church,604 W 57th St,Ashtabula,OH,44004
East Side Presbyterian Church,3440 Edgewood Dr,Ashtabula,OH,44004
Second Congregational United,319 Lake Ave,Ashtabula,OH,44004
Abundant,4638 N Ridge Rd W,Ashtabula,OH,44004
Acts 4 Ministries,4631 Park Ave,Ashtabula,OH,44004
Adams David J,5515 Adams Ave,Ashtabula,OH,44004
St John Neumann,16271 Pearl Rd,Strongsville,OH,44136
Strongsville United Methodist,13354 Pearl Rd,Strongsville,OH,44136
Strongsville United Church,13740 Pearl Rd,Strongsville,OH,44136
Church of Christ Rome,86 Township Rd 1056,Proctorville,OH,45669
New Hope United Methodist Chr,PO Box 405,Proctorville,OH,45669
Abundant Life Baptist Church,5959 County Road 107,Proctorville,OH,45669
Heartland Community Church,133 N Court St,Medina,OH,44256
Holy Martyrs Church,3100 S Weymouth Rd,Medina,OH,44256
St Francis Xavier Catholic Chr,606 E Washington St,Medina,OH,44256
First Christian Church-Medina,4797 Sharon Copley Rd,Medina,OH,44256
Prince of Peace Evangelical,3355 Medina Rd,Medina,OH,44256
Granger United Methodist Chr,1235 Granger Rd,Medina,OH,44256
Medina United Methodist Church,260 S Court St,Medina,OH,44256
York United Methodist Church,6566 Norwalk Rd,Medina,OH,44256
Church at Stony Hill,2756 Stony Hill Rd,Medina,OH,44256
Medina Community Church,416 S Broadway St,Medina,OH,44256
Weymouth Community Church,3398 S Weymouth Rd,Medina,OH,44256
Assembly of God-Medina,830 Lafayette Rd,Medina,OH,44256
Cornerstone Chapel,3939 Granger Rd,Medina,OH,44256
Medina Presbyterian Church,5020 Burgundy Bay Blvd,Medina,OH,44256
Blessed Sacrament the Church,3020 Reeves Rd NE,Warren,OH,44483
Christ Our King Catholic Chr,1000 Tod Ave SW,Warren,OH,44485
St Mary's Rectory,602 Marietta St,Bremen,OH,43107
Champion Christian Church,151 Center St W,Warren,OH,44481
Lordstown Christian Chr,Tod Ave SW,Warren,OH,44481
Northeast Christian Church,865 Perkins Jones Rd NE,Warren,OH,44483
Second Christian Church,904 W Market St,Warren,OH,44481
Third Christian Church,241 1st St SW,Warren,OH,44485
East Side Church-Christ,1416 Adelaide Ave SE,Warren,OH,44484
Champion Church of Nazarene,3924 High St NW,Warren,OH,44483
North-Mar Chr-Christian,3855 E Market St,Warren,OH,44484
Warren First Church-Nazarene,4179 Parkman Rd NW,Warren,OH,44481
Living Lord Lutheran Church,851 Niles Cortland Rd NE,Warren,OH,44484
Lordstown Evangelical Lutheran,5615 Palmyra Rd SW,Warren,OH,44481
Grace Ame Church,1137 Main Ave SW,Warren,OH,44483
Howland United Methodist Chr,730 Howland Wilson Rd NE,Warren,OH,44484
Otterbein United Methodist Chr,6025 Shepler Church Ave SW,Navarre,OH,44662
Tod Avenue United Methodist,155 Tod Ave NW,Warren,OH,44485
Glenn Christian Church,5540 Parkman Rd NW,Warren,OH,44481
St Demetrios Hellenic,PO Box 4214,Warren,OH,44482
Monument of Faith Cogic,PO Box 62,Warren,OH,44482
Champion Presbyterian Church,4997 Mahoning Ave NW,Warren,OH,44483
Howland Community Church,198 Niles Cortland Rd SE,Warren,OH,44484
Warren Church Of God,2609 Weir Rd NE,Warren,OH,44483
Agape Assembly,426 Nevada Ave SW,Warren,OH,44485
Waterville United Meth Church,102 N 5th St,Waterville,OH,43566
Waterville Community Church,8217 Dutch Rd,Waterville,OH,43566
Blessed Sacrament,378 E Main St,Newark,OH,43055
St Francis De Sales,66 Granville St,Newark,OH,43055
St Leonard Catholic Chr,57 Dorsey Mill Rd E,Newark,OH,43056
St Johns Lutheran Church,PO Box 762,Newark,OH,43058
Cox United Methodist Church,1031 Buckeye Ave,Newark,OH,43055
Marne United Methodist,1019 Licking Valley Rd,Newark,OH,43055
Neal Avenue Methodist Church,12 Neal Ave,Newark,OH,43055
Wright Memorial Church,735 Mount Vernon Rd,Newark,OH,43055
Family of Faith Community Chr,975 Mount Vernon Rd,Newark,OH,43055
Old Country Church,PO Box 758,Newark,OH,43058
Christian Apostolic Church,22 N 23rd St,Newark,OH,43055
Highwater United Ch of Christ,1213 Dutch Ln NW,Newark,OH,43055
Second Presbyterian Church,42 E Church St,Newark,OH,43055
St John's United Church,214 E Broadway St,Harrison,OH,45030
1St United Methodist Church,1620 Tower Ct,Newark,OH,43055
Allison Delbert Reverend,149 S 32nd St,Newark,OH,43055
Lancaster United Brethren Chr,1125 Pleasantville Rd,Lancaster,OH,43130
St Mark Church,324 Gay St,Lancaster,OH,43130
St Mary Cemetery,132 S High St,Lancaster,OH,43130
Fairfield Christian Church,1965 N Columbus St,Lancaster,OH,43130
Fifth Avenue Church of Christ,PO Box 457,Lancaster,OH,43130
Faith Memorial Church,2610 W Fair Ave,Lancaster,OH,43130
Gloryland Nazarene Church,PO Box 2554,Lancaster,OH,43130
Emanuel Lutheran Church,PO Box 2270,Lancaster,OH,43130
St Paul Evangelical Lutheran,PO Box 455,Valley City,OH,44280
Maple Street United Methodist,438 E Wheeling St,Lancaster,OH,43130
Mills Memorial Methodist Chr,402 N Broad St,Lancaster,OH,43130
Sixth Ave United Methodist Chr,1004 W 6th Ave,Lancaster,OH,43130
Lancaster Community Church,230 N Columbus St,Lancaster,OH,43130
New Life Christian Ctr,PO Box 2239,Lancaster,OH,43130
New Richmond Church of Christ,1126 Bethel-New Richmond Rd,New Richmond,OH,45157
Sunbury Christian Church,250 Rainbow Ave,Sunbury,OH,43074
Sunbury United Methodist Chr,100 W Cherry St,Sunbury,OH,43074
North Gate Community Church,7097 E Oh-37,Sunbury,OH,43074
Vineyard Church of Delaware,722 Kintner Pky,Sunbury,OH,43074
Vineyard Church Of Delaware,1001 W Cherry St,Sunbury,OH,43074
Church in Aurora,28 S Chillicothe Rd,Aurora,OH,44202
St Joan of Arc Streetsboro,8894 OH-14,Streetsboro,OH,44241
United Methodist Church,PO Box 119,New Knoxville,OH,45871
Church of God Streetsboro,9267 OH-43,Streetsboro,OH,44241
Franklin United Brethren Chr,7171 Central College Rd,New Albany,OH,43054
Resurrection Church Roman Cath,6300 E Dublin Granville Rd,New Albany,OH,43054
New Albany First Chr-Nazarene,6000 Johnstown Rd,New Albany,OH,43054
Temple Beth Shalom,5089 Johnstown Rd,New Albany,OH,43054
New Albany United Methodist,PO Box 428,New Albany,OH,43054
Faithful Family Fellowship,PO Box 167,New Albany,OH,43054
New Albany Christian Church,PO Box 494,New Albany,OH,43054
St Paul Catholic Church,1000 W Wenger Rd,Englewood,OH,45322
St Paul Religious Educational,1004 W Wenger Rd,Englewood,OH,45322
Concord United Methodist Chr,1123 S Main St,Englewood,OH,45322
Englewood United Methodist Chr,107 N Walnut St,Englewood,OH,45322
Salem Church Of Brethren,6037 Phillipsburg Union Rd,Englewood,OH,45322
Abundant Life Christ Centered Ministries,201 W Martindale Rd,Englewood,OH,45322
St Eugene's Byzantine Catholic,Center Rd,Bedford,OH,44146
Bedford Christian Church,98 Center Rd,Bedford,OH,44146
St Caspar Catholic Church,1205 N Shoop Ave,Wauseon,OH,43567
Emmaus Lutheran Church,841 N Shoop Ave,Wauseon,OH,43567
Crossroads Evangelical Church,845 E Leggett St,Wauseon,OH,43567
North Clinton Mennonite Church,831 W Linfoot St,Wauseon,OH,43567
West Clinton Mennonite Church,18029 County Road C,Wauseon,OH,43567
Church Our Lady of Good Hope,12 S 3rd St,Miamisburg,OH,45342
Miamisburg Church of Christ,PO Box 227,Miamisburg,OH,45343
Miamisburg First Church of God,PO Box 163,Miamisburg,OH,45343
St Jacob's Lutheran Church,213 E Central Ave,Miamisburg,OH,45342
St James United Methodist Chr,401 Carlwood Dr,Miamisburg,OH,45342
Miamisburg Church Of Nzrn,1216 Richard St,Miamisburg,OH,45342
Miamisburg Assembly Of God,501 N 9th St,Miamisburg,OH,45342
Braceville Christian Church,4387 Church St SW,Newton Falls,OH,44444
Braceville United Methodist,577 Park St SW,Newton Falls,OH,44444
Newton Falls United Methodist,336 Ridge Rd,Newton Falls,OH,44444
St Augustine Church,6891 Weaver Rd,Germantown,OH,45327
Emmanuel's Lutheran Church,PO Box 215,Germantown,OH,45327
Germantown United Methodist,PO Box 1,Germantown,OH,45327
Community Harvest Church,PO Box 79,Germantown,OH,45327
Agape Church,36 S Cherry St,Germantown,OH,45327
St Ignatius Church,212 N Stadium Rd,Oregon,OH,43616
East Christian Church,525 S Coy Rd,Oregon,OH,43616
Echo Meadows Church of Christ,PO Box 167588,Oregon,OH,43616
Oregon Church of the Nazarene,2350 Starr Ave,Oregon,OH,43616
First St Mark's Lutheran Chr,1121 Grasser St,Oregon,OH,43616
New Harvest Christian Church,3540 Seaman St,Oregon,OH,43616
Farmersville United Methodist,110 W Center St,Farmersville,OH,45325
St Rose Parish Perrysburg,215 E Front St,Perrysburg,OH,43551
Zoar Lutheran Church,314 E Indiana Ave,Perrysburg,OH,43551
Cedar Creek Community Church,29129 Lime City Rd,Perrysburg,OH,43551
First Presby Church-Perrysburg,200 E 2nd St,Perrysburg,OH,43551
Abundant Life-perrysburg,100 Trinity Ct,Perrysburg,OH,43551
St Peters Lutheran Church,8990 W 3rd St,New Lebanon,OH,45345
First Baptist Church ,85 W Jefferson St,Jefferson,OH,44047
Jefferson Church of Nazarene,55 E Satin St,Jefferson,OH,44047
Bethel Bible Church,571 Goodale Rd,Jefferson,OH,44047
Jefferson Methodist Church,125 E Jefferson St,Jefferson,OH,44047
Apostolic Faith Church,PO Box 432,Jefferson,OH,44047
First Baptist Church Heath,525 S 30th St,Heath,OH,43056
Newark Baptist Temple,81 Licking View Dr,Heath,OH,43056
Heath Christian Union,80 Licking View Dr,Heath,OH,43056
Heath United Methodist Church,1149 Hebron Rd,Heath,OH,43056
Church of Christ Heath,PO Box 2130,Heath,OH,43056
First Baptist Church of Amelia,85 W Main St,Amelia,OH,45102
Lindale Baptist Church,3052 OH-132,Amelia,OH,45102
St Bernadette Church,1479 Locust Lake Rd,Amelia,OH,45102
Amelia Church of Christ,185 State Route 125,Amelia,OH,45102
Amelia Church of the Nazarene,1295 W Ohio Pike,Amelia,OH,45102
Amelia United Methodist Church,PO Box 189,Amelia,OH,45102
First Baptist Church of Cleves,82 Harrison Ave,Cleves,OH,45002
Cleves Church of Christ,PO Box 96,Cleves,OH,45002
First Baptist Church of Mason,735 Reading Rd,Mason,OH,45040
Christ's Church at Mason,5165 Western Row Rd,Mason,OH,45040
Tylersville Rd Christian Chr,6771 Tylersville Rd,Mason,OH,45040
King of Kings Lutheran Church,3621 Socialville Foster Rd,Mason,OH,45040
Mason United Methodist Church,773 S Mason Montgomery Rd,Mason,OH,45040
Grace Chapel,406 4th Ave,Mason,OH,45040
Hope Evangelical Free Church,4934 Western Row Rd,Mason,OH,45040
North Cincinnati Community Chr,6170 Irwin Simpson Rd,Mason,OH,45040
First Baptist Church of Salem,1290 E State St,Salem,OH,44460
St Paul of Salem,935 E State St,Salem,OH,44460
Phillips Christian Church,35459 Salem Grange Rd,Salem,OH,44460
Allegheny Wesleyan Methodist,2291 Depot Rd,Salem,OH,44460
First Church of Nazarene,1431 N Ellsworth Ave,Salem,OH,44460
Holy Trinity Lutheran-Elca,1089 E State St,Salem,OH,44460
Believers' Christian Fellowshp,PO Box 714,Salem,OH,44460
Real Life Assembly-God,12824 Salem Warren Rd,Salem,OH,44460
First Baptist Church of South,505 Mason Morrow Millgrove Rd,Morrow,OH,45152
Morrow United Methodist Church,5256 Radford Dr,Morrow,OH,45152
First Baptist Church Sheffield,633 Harris Rd,Sheffield Lake,OH,44054
St Thomas Church,521 Harris Rd,Sheffield Lake,OH,44054
First Baptist Church-Atwater,6498 Waterloo Rd,Atwater,OH,44201
Liberty Bible Church,PO Box 146,Atwater,OH,44201
Atwater United Methodist Chr,6380 Waterloo Rd,Atwater,OH,44201
First Baptist Church-Fairborn,1167 Highview Dr,Fairborn,OH,45324
Maple Heights Baptist Church,PO Box 1047,Fairborn,OH,45324
Mary Help of Christians Church,954 N Maple Ave,Fairborn,OH,45324
Fairborn Wright View Chr-Nzrn,1612 Superior Ave,Fairborn,OH,45324
Abiding Christ Lutheran,326 E Dayton Yellow Springs Rd,Fairborn,OH,45324
Fairborn Umc Preschool,100 N Broad St,Fairborn,OH,45324
Faircreek Church,2400 Faircreek Ridge Dr,Fairborn,OH,45324
Victory Temple,2443 Valle Greene Dr,Fairborn,OH,45324
First Baptist Church-Groveport,5521 Groveport Rd,Groveport,OH,43125
St Mary's Church Groveport,5684 Groveport Rd,Groveport,OH,43125
Groveport Zion Lutheran Church,PO Box 305,Groveport,OH,43125
Groveport United Methodist,512 Main St,Groveport,OH,43125
Madison Christian Church,3565 Bixby Rd,Groveport,OH,43125
Turnpoint Apostolic Church,PO Box 178,Groveport,OH,43125
Church Of Christ Of Groveport,5626 Groveport Rd,Groveport,OH,43125
First Baptist Church-Lagrange,PO Box 136,LaGrange,OH,44050
Lagrange United Methodist,PO Box 71,LaGrange,OH,44050
First Baptist Church-Milford,1367 Woodville Pike,Milford,OH,45150
First Baptist Church-Mt Repose,6088 Branch Hill Guinea Pike,Milford,OH,45150
New Harmony Baptist Church,1397 Emerson Ln,Milford,OH,45150
St Elizabeth Ann Seton Church,PO Box 968,COLUMBIA STA,OH,44028
Milford Church of Christ,PO Box 36,Milford,OH,45150
Milford United Methodist Chr,541 Main St,Milford,OH,45150
Eastside Christian Church,5874 Montclair Blvd,Milford,OH,45150
Faith Evangelical Free Church,5910 Price Rd,Milford,OH,45150
Vineyard Church,PO Box 886,Milford,OH,45150
House of Restoration Worship,1487 State Route 131,Milford,OH,45150
First Baptist Church-Monroe,457 S Main St,Monroe,OH,45050
Our Lady of Sorrows Church,330 Lebanon St,Monroe,OH,45050
First Church of God Monroe,PO Box 181,Monroe,OH,45050
Monroe United Methodist Church,PO Box 310,Monroe,OH,45050
Solid Rock Church,PO Box 350,Monroe,OH,45050
First Church Of God Of Monroe,100 East Ave,Monroe,OH,45050
First Baptist Church-Willowick,31433 Vine St,Willowick,OH,44095
St Mary Magdalene's Church,460 E 321st St,Willowick,OH,44095
Shoregate Umc Preschool,PO Box 5235,Willowick,OH,44095
Erieside Church On the Blvd,221 E 320th St,Willowick,OH,44095
First Baptist of Grove City,2730 Kingston Ave,Grove City,OH,43123
Highland Baptist Church Sbc,3460 Hoover Rd,Grove City,OH,43123
Our Lady of Perpetual Help,618 Ohio Ave,McDonald,OH,44437
Alkire Road Church of Christ,2779 Alkire Rd,Grove City,OH,43123
Buckeye Christian Church,1528 London Groveport Rd,Grove City,OH,43123
Darbydale Church of Nazarene,5443 Norton Rd,Grove City,OH,43123
Grove City Church of Nazarene,PO Box 758,Grove City,OH,43123
St John's Evangelical Luth Chr,3220 Columbus St,Grove City,OH,43123
Grove City United Methodist,2684 Columbus St,Grove City,OH,43123
Victorious Living Christian,2735 Columbus St,Grove City,OH,43123
Grove City Church of God,4325 Harrisburg Pike,Grove City,OH,43123
City Of Refuge Worship Center,2190 Home Rd,Grove City,OH,43123
House Of Blessing Worship Center,3653 Big Run South Rd,Grove City,OH,43123
Georgesville Church Of Christ,8715 Alkire Rd,Grove City,OH,43123
Abundant Life Assembly Of God,4747 Harrisburg Pike,Grove City,OH,43123
First Southern Baptist Church,PO Box 591,Johnstown,OH,43031
Johnstown Methodist Church,173 S Main St,Johnstown,OH,43031
Miller United Methodist Church,5241 Miller Church Rd,Johnstown,OH,43031
Johnstown Presbyterian Church,81 S Main St,Johnstown,OH,43031
Johnstown Church Of God,9081 Concord Rd,Johnstown,OH,43031
Gospel Baptist Church,6235 Clingan Rd,Poland,OH,44514
South View Baptist Church,6904 Crawford Morrow County Line Rd,Galion,OH,44833
Free Methodist Church,683 Portland Way N,Galion,OH,44833
Galion Alliance Church,430 Portland Way N,Galion,OH,44833
Galion Church of the Nazarene,777 Fairview Ave,Galion,OH,44833
First Lutheran Church-Elca,127 S Columbus St,Galion,OH,44833
Crossway Assembly Of God,200 Gelsanliter Rd,Galion,OH,44833
Addison W Daniel Rev ,8497 State Route 61,Galion,OH,44833
St Patrick's Church-Kent,313 N Depeyster St,Kent,OH,44240
First Christian Church of Kent,335 W Main St,Kent,OH,44240
Christ Episcopal Church-Kent,118 S Mantua St,Kent,OH,44240
Faith Lutheran Church of Kent,931 E Main St,Kent,OH,44240
Trinity Lutheran Church-Kent,600 S Water St,Kent,OH,44240
Lake Brady United Methodist Ch,1995 Brady Lake Rd,Kent,OH,44240
United Methodist Church-Kent,PO Box 646,Kent,OH,44240
Riverwood Community Chapel,1407 Fairchild Ave,Kent,OH,44240
Presbyterian Church of Kent,1456 E Summit St,Kent,OH,44240
United Church of Christ-Kent,1400 E Main St,Kent,OH,44240
Delaware Grace Brethren Church,375 Hills Miller Rd,Delaware,OH,43015
Delaware Christian Church,2600 Marysville Rd,Delaware,OH,43015
Delaware Bible Church,45 Belle Ave,Delaware,OH,43015
St Mark's Evangelical Lutheran,28 E William St,Delaware,OH,43015
Bellpoint United Methodist Chr,4771 Oh-257 S,Delaware,OH,43015
Stratford St Pauls United,1701 Columbus Pike,Delaware,OH,43015
William St United Methodist,PO Box 1062,Delaware,OH,43015
River Community Church,2419 Us-42 N,Delaware,OH,43015
Liberty Presbyterian Church,7080 Olentangy River Rd,Delaware,OH,43015
Old Stone Presbyterian Church,41 Hodges Rd,Delaware,OH,43015
Agape International Catherdral,89 Eaton St,Delaware,OH,43015
Akers Donnie B,142 Troy Rd,Delaware,OH,43015
St Ambrose Church,929 Pearl Rd,Brunswick,OH,44212
St Colette Parish,330 W 130th St,Brunswick,OH,44212
Brunswick Church-Nazarene,3965 Center Rd,Brunswick,OH,44212
Brunswick United Methodist Chr,PO Box 85,Brunswick,OH,44212
Polaris Christian Church,PO Box 66,Brunswick,OH,44212
St Emilian Byzantine Catholic,PO Box 843,Brunswick,OH,44212
Harvest Time Assembly of God,PO Box 746,Brunswick,OH,44212
Brunswick Reformed Church,3535 Grafton Rd,Brunswick,OH,44212
Grace Baptist Church Westlake,23096 Center Ridge Rd,Westlake,OH,44145
St Bernadettes Church,2256 Clague Rd,Westlake,OH,44145
Graham Road Baptist Church,705 Graham Rd,Cuyahoga Falls,OH,44221
Northampton Baptist Church,333 W Steels Corners Rd,Cuyahoga Falls,OH,44223
St Eugene's Catholic Church,1821 Munroe Falls Ave,Cuyahoga Falls,OH,44221
St Joseph Church of Cuyahoga,215 Falls Ave,Cuyahoga Falls,OH,44221
Church in the Falls,837 Chestnut Blvd,Cuyahoga Falls,OH,44221
Chapel Hill Church,1160 Howe Ave,Cuyahoga Falls,OH,44221
Grandview United Methodist Chr,2315 Phelps Ave,Cuyahoga Falls,OH,44223
Northampton United Methodist,852 W Bath Rd,Cuyahoga Falls,OH,44223
Community of Believers Chrstn,2543 State Rd,Cuyahoga Falls,OH,44223
David's House,PO Box 67167,Cuyahoga Falls,OH,44222
Word of His Grace Fellowship,PO Box 3001,Cuyahoga Falls,OH,44223
Church of God-Cuy Chapel,2106 4th St,Cuyahoga Falls,OH,44221
Trinity Church of God,1752 Williams St,Cuyahoga Falls,OH,44221
Bethany United Church-Christ,1235 Broad Blvd,Cuyahoga Falls,OH,44223
United Presbyterian Church,2819 Hudson Dr,Cuyahoga Falls,OH,44221
Heritage Baptist Church,470 Groveport Pike,Canal Winchester,OH,43110
Our Lady of Victory Church,PO Box 669,Andover,OH,44003
St Mark Lutheran Church Elca,158 North Ave,Tallmadge,OH,44278
Tallmadge Lutheran Church,759 East Ave,Tallmadge,OH,44278
Unity Chapel of Light,503 Northwest Ave,Tallmadge,OH,44278
Tallmadge United Methodist Chr,207 N Munroe Rd,Tallmadge,OH,44278
Northwest Ave Church of Christ,737 Northwest Ave,Tallmadge,OH,44278
Tallmadge First Congregational,PO Box 420,Tallmadge,OH,44278
Church Of Christ Of Tallmadge,737 Southeast Ave,Tallmadge,OH,44278
Southeast Church Of Nzrn,771 Dunbar Rd,Tallmadge,OH,44278
Harrison Ave Baptist Church,1125 Harrison Ave,Harrison,OH,45030
Church of Christ at Harrison,220 Sunset Ave,Harrison,OH,45030
Church On Fire,PO Box 504,Harrison,OH,45030
Harrison Christian Ctr,120 N State St,Harrison,OH,45030
New Haven Road Church of God,8985 New Haven Rd,Harrison,OH,45030
St Johns United Ch of Christ,212 Kater Ave,Harrison,OH,45030
St John Catholic Church,11319 Van Buren St,Wapakoneta,OH,45895
Churches Annex,125 E Main St,Cridersville,OH,45806
Ace Academy,1045 Dearbaugh Ave,Wapakoneta,OH,45895
Haskins Federated Church,PO Box 289,Haskins,OH,43525
Here's Hope Baptist Church,6601 Chapel Rd,Madison,OH,44057
Chapel United Methodist Church,2019 Hubbard Rd,Madison,OH,44057
Madison Park United Methodist,PO Box 33,Madison,OH,44057
Central Congregational Church,71 Park St,Madison,OH,44057
Urbancrest Baptist Church,2634 Drake Rd,Lebanon,OH,45036
Countryside Community Church,1436 Deerfield Rd,Lebanon,OH,45036
Resurrection Lutheran Church,1270 N Broadway St,Lebanon,OH,45036
Lebanon United Methodist Chr,122 E Silver St,Lebanon,OH,45036
Praise ,840 Miller Rd,Lebanon,OH,45036
Cornerstone Church of God,1004 Columbus Ave,Lebanon,OH,45036
Hillsdale Baptist Church,1001 Holly St,St Marys,OH,45885
Wayne St United Methodist Chr,130 N Wayne St,St Marys,OH,45885
Hubbard First Baptist Church,59 Orchard Ave,Hubbard,OH,44425
St Patrick's Church-Hubbard,225 N Main St,Hubbard,OH,44425
Grace Lutheran Church-Hubbard,111 Hall Ave,Hubbard,OH,44425
Corner House Christian Church,6954 Chestnut Ridge Rd,Hubbard,OH,44425
Hubbard Church Of Nazarene,1815 Cherry Ln,Hubbard,OH,44425
First Assembly Of God-hubbard,5900 W Liberty St,Hubbard,OH,44425
Jersey Baptist Church,13260 Morse Rd SW,Pataskala,OH,43062
Tri Village Church of Christ,5310 York Rd SW,Pataskala,OH,43062
Pataskala Nazarene Church,8100 Hazelton Etna Rd SW,Pataskala,OH,43062
Hosanna Lutheran Church,7714 Hazelton Etna Rd SW,Pataskala,OH,43062
Pataskala United Methodist Chr,PO Box 777,Pataskala,OH,43062
Kings Mills Baptist Church,PO Box 256,Kings Mills,OH,45034
Lakeland Baptist Church,34024 Roberts Rd,Eastlake,OH,44095
St Justin Martyr,35781 Stevens Blvd,Eastlake,OH,44095
Lakewood Baptist Church ABC,14321 Detroit Ave,Lakewood,OH,44107
St Clement's Church,2022 Lincoln Ave,Lakewood,OH,44107
St Gregory the Theologian Chr,2035 Quail St,Lakewood,OH,44107
St Hedwig Church,12903 Madison Ave,Lakewood,OH,44107
Lakewood Christian Church,17513 Detroit Ave,Lakewood,OH,44107
Grace Lutheran Chr Worship Ctr,13030 Madison Ave,Lakewood,OH,44107
Pilgrim Lutheran Church,9514 Johnnycake Ridge Rd,Mentor,OH,44060
Cove United Methodist Church,12501 Lake Ave,Lakewood,OH,44107
Lakewood United Methodist Chr,15700 Detroit Ave,Lakewood,OH,44107
Lakewood Congregational Church,1375 W Clifton,Lakewood,OH,44107
Lakota Hills Baptist Church,6300 Tylersville Rd,West Chester,OH,45069
Liberty Heights Church,9180 Cincinnati Columbus Rd,West Chester,OH,45069
Tri-County Baptist Church,8195 Beckett Rd,West Chester,OH,45069
West Chester Baptist Church,6856 Dimmick Rd,West Chester,OH,45069
St John Church,9080 Cincinnati Dayton Rd,West Chester,OH,45069
Lakota Christian Church,PO Box 575,West Chester,OH,45071
St Anne Episcopal Church,6461 Tylersville Rd,West Chester,OH,45069
West Chester Church-Nazarene,7951 Tylersville Rd,West Chester,OH,45069
Christ the King Lutheran Chr,50 Nutt Rd,Centerville,OH,45458
Faith Community United Meth,8230 Cox Rd,West Chester,OH,45069
Crestview Presbyterian,9463 Cincinnati Columbus Rd,West Chester,OH,45069
West Chester Presbyterian Chr,8930 Cincinnati Dayton Rd,West Chester,OH,45069
Louisville Baptist Temple,6565 Columbus Rd,Louisville,OH,44641
Sacred Heart of Mary Church,8277 N Nickelplate St,Louisville,OH,44641
St Louis Church of Louisville,300 N Chapel St,Louisville,OH,44641
Louisville Christian Church,1800 S Chapel St,Louisville,OH,44641
Louisville Church of Christ,PO Box 243,Louisville,OH,44641
Kountze Memorial Lutheran Chr,930 S Nickelplate St,Louisville,OH,44641
Beech Mennonite Church,10037 Easton St,Louisville,OH,44641
Fairhope United Methodist Chr,5660 Louisville St,Louisville,OH,44641
Paradise United Church-Christ,619 E Main St,Louisville,OH,44641
Akron District Center-church,8105 Palmer Ave,Louisville,OH,44641
Mamre Missionary Baptist Chr,2367 County Road 182,Kitts Hill,OH,45645
Medway Baptist Church Sbc,PO Box 303,Medway,OH,45341
Bethel Community Church,PO Box 38,Medway,OH,45341
Medway United Methodist Church,PO Box 55,Medway,OH,45341
Mogadore Baptist Church,PO Box 126,Mogadore,OH,44260
St Joseph Church Randolph,2643 Waterloo Rd,Mogadore,OH,44260
Mogadore Christian Church,106 S Cleveland Ave,Mogadore,OH,44260
Mogadore United Methodist Chr,PO Box 158,Mogadore,OH,44260
Suffield Fellowship Church,1669 Waterloo Rd,Mogadore,OH,44260
St Nicholas Orthodox Church,9650 Johnnycake Ridge Rd,Mentor,OH,44060
Suffield United Chr of Christ,1115 OH-43,Mogadore,OH,44260
Monclova Christian Academy,7819 Monclova Rd,Monclova,OH,43542
Monclova Rd Baptist Church,PO Box 15,Monclova,OH,43542
Garden Park Christian Church,8605 Salisbury Rd,Monclova,OH,43542
Holy Name Cathedral,411 S 5th St,Steubenville,OH,43952
La Belle View Church of Christ,PO Box 1768,Steubenville,OH,43952
Grace Evangelical Lutheran,2105 Sunset Blvd,Steubenville,OH,43952
Bell Chapel United Methodist,3419 OH-213,Steubenville,OH,43952
Finley United Methodist Church,958 Lincoln Ave,Steubenville,OH,43952
Holy Resurrection Serbian Orth,528 N 4th St,Steubenville,OH,43952
First Westminster Presbyterian,PO Box 580,Steubenville,OH,43952
Emmanuel Church Of God-christ,128 S 5th St,Steubenville,OH,43952
Wintersville Church Of Christ,316 Two Ridge Rd,Steubenville,OH,43953
1St U M Church Of Toronto,520 Main St,Steubenville,OH,43953
Agape Apostolic Church,525 Slack St,Steubenville,OH,43952
Sanctuary of Praise,8788 Hadden Rd,Twinsburg,OH,44087
Mullen Memorial Baptist Church,PO Box 502,Belpre,OH,45714
Porterfield Baptist Church,39 Hollywood Dr,Belpre,OH,45742
St Ambrose Catholic Church,10692 Freedom St,Garrettsville,OH,44231
Belpre Church of Christ,2932 Washington Blvd,Belpre,OH,45714
Rockland United Methodist Chr,2300 Washington Blvd,Belpre,OH,45714
Celebration Center,PO Box 473,Belpre,OH,45714
St Aloysius Community Parish,235 W 5th St,East Liverpool,OH,43920
St Ann Church,1506 Pennsylvania Ave,East Liverpool,OH,43920
First Christian Church Dscpls,400 College St,East Liverpool,OH,43920
Pennsylvania Ave United Mthdst,PO Box 1204,East Liverpool,OH,43920
Northside Community Church,702 Orchard Grove Ave,East Liverpool,OH,43920
First Evangelical Presbyterian,PO Box 150,East Liverpool,OH,43920
Longs Run Presbyterian Church,15851 Longs Church Rd,East Liverpool,OH,43920
Trinity Presbyterian Church,PO Box 190,East Liverpool,OH,43920
Second Church Of Christ,1302 Pennsylvania Ave,East Liverpool,OH,43920
Adopt A Block,115 W 6th St,East Liverpool,OH,43920
New Milford Baptist Church,PO Box 208,Rootstown,OH,44272
St Peter of the Fields,3487 Old Forge Rd,Rootstown,OH,44272
North Eaton Baptist Church,12109 Reed Rd,Grafton,OH,44044
North Eaton Christian Church,35895 Royalton Rd,Grafton,OH,44044
Grafton United Methodist Chr,973 Mechanic St,Grafton,OH,44044
Christian Unity Church,36353 Capel Rd,Grafton,OH,44044
Avon Church Of God,39183 Davis Dr,Grafton,OH,44044
North Royalton Baptist Church,6616 Royalton Rd,North Royalton,OH,44133
Royal Redeemer Lutheran Church,11680 Royalton Rd,North Royalton,OH,44133
North Royalton United Meth Chr,13601 Ridge Rd,North Royalton,OH,44133
St Paul Greek Orthodox Church,4548 Wallings Rd,North Royalton,OH,44133
Abundant Life Community Church,38301 Lake Shore Blvd,Willoughby,OH,44094
Northfield Baptist Church,311 W Aurora Rd,Northfield,OH,44067
St Barnabas Catholic Church,9451 Brandywine Rd,Northfield,OH,44067
Old North Baptist Church,7105 Herbert Rd,Canfield,OH,44406
Canfield Christian Church,123 S Broad St,Canfield,OH,44406
Canfield United Methodist Chr,27 S Broad St,Canfield,OH,44406
Western Reserve United Meth,4580 Canfield Rd,Canfield,OH,44406
Emmanuel Ministries-Canfield,6512 Kirk Rd,Canfield,OH,44406
Canfield Presbyterian Church,140 W Main St,Canfield,OH,44406
Pleasant Green Missionary Chr,PO Box 26247,Trotwood,OH,45426
Trotwood Church of Brethren,208 E Main St,Trotwood,OH,45426
Northwest Church of Christ,489 S Broadway St,Trotwood,OH,45426
Triumphant Cross Lutheran Chr,525 N Broadway St,Trotwood,OH,45426
Antioch United Methodist Chr,10301 Wolf Creek Pike,Trotwood,OH,45426
Reimer Road Baptist Church,PO Box 239,Wadsworth,OH,44282
Ridgewood Baptist Church,7891 Ridge Rd,Wadsworth,OH,44281
Wadsworth Alliance Church,185 Humbolt Ave,Wadsworth,OH,44281
Wadsworth Church of Nazarene,PO Box 124,Wadsworth,OH,44282
Valleyview Chapel,1391 State Rd,Wadsworth,OH,44281
Restored Church Of God,1 Park Center Dr,Wadsworth,OH,44281
Romanian Baptist Church,581 E Ridgewood Dr,Seven Hills,OH,44131
Seven Hills United Methodist,7593 Elmhurst Dr,Seven Hills,OH,44131
St Peter United Church Christ,125 E Ridgewood Dr,Seven Hills,OH,44131
South Ridge Baptist Church,PO Box 770,Conneaut,OH,44030
St Frances Cabrini,PO Box 619,Conneaut,OH,44030
East Conneaut United Meth Chr,PO Box 632,Conneaut,OH,44030
Wesleyan Methodist Church,315 E Main Rd,Conneaut,OH,44030
St Mary Of Immaculate,480 State St,Conneaut,OH,44030
Springboro Baptist Church,PO Box 788,Springboro,OH,45066
St Francis Episcopal Church,225 N Main St,Springboro,OH,45066
Springboro Lutheran Church,20 Eleanor Dr,Springboro,OH,45066
Clearcreek Chapel,PO Box 327,Springboro,OH,45066
Clearcreek Christian Assembly,1150 S Main St,Springboro,OH,45066
Springboro United Ch of Christ,5 W Mill St,Springboro,OH,45066
Temple Baptist Church,PO Box 181,Uniontown,OH,44685
Queen of Heaven Church,1800 Steese Rd,Uniontown,OH,44685
Harvest Bible Church,4520 Arlington Rd,Uniontown,OH,44685
Adventure Place,1700 Edison St NW,Uniontown,OH,44685
Uniontown United Methodist Chr,13370 Cleveland Ave NW,Uniontown,OH,44685
Hillwood Chapel,4824 Arlington Rd,Uniontown,OH,44319
Abundant Grace Ministries,11776 Cleveland Ave NW,Uniontown,OH,44685
Advent Lutheran Church,6735 Sylvania Ave,Sylvania,OH,43560
St Bede Venerable,9114 Lake Shore Blvd,Mentor,OH,44060
St Gabriel Church,PO Box 275,Minerva,OH,44657
St Andrew Episcopal Church,7989 Little Mountain Rd,Mentor,OH,44060
St Hubert's Episcopal Church,8870 Baldwin Rd,Mentor,OH,44060
Hope Ridge United Methodist,9870 Johnnycake Ridge Rd,Mentor,OH,44060
Mentor Plains Umc,7271 Lake Shore Blvd,Mentor,OH,44060
North Mentor Centenary United,9290 Lake Shore Blvd,Mentor,OH,44060
Grace Church of Mentor,6883 Reynolds Rd,Mentor,OH,44060
Mentor Church of God,PO Box 234,Mentor,OH,44061
Village Baptist Temple,6322 Whipple Ave NW,North Canton,OH,44720
Chapel in North Canton,715 Whittier Ave NW,North Canton,OH,44720
St George Serbian Orthodox Chr,4663 Applegrove St NW,North Canton,OH,44720
Affirmation Ministries,2207 Mohler Dr NW,North Canton,OH,44720
Twin Rivers Baptist Church,110 D a V Rd,Whipple,OH,45788
Whipple Baptist Church,PO Box 93,Whipple,OH,45788
Union Missionary Baptist Chr,17632 OH-243,Chesapeake,OH,45619
Valley View Baptist Church,PO Box 301,Reno,OH,45773
Lodi United Methodist Church,PO Box 3,Lodi,OH,44254
Violet Baptist Church,8345 Blacklick Eastern Rd NW,Pickerington,OH,43147
Seton Parish,600 Hill Rd N,Pickerington,OH,43147
St Andrews of Pickerington,8630 Refugee Rd,Pickerington,OH,43147
Pickerington Church-Nazarene,PO Box 181,Pickerington,OH,43147
Holy Redeemer Lutheran Church,10709 Blacklick Eastern Rd,Pickerington,OH,43147
Peace United Methodist Church,235 Diley Rd,Pickerington,OH,43147
New Hope Church,5780 Reynoldsburg Baltimore Rd,Pickerington,OH,43147
Warrensville Rd Community Bapt,5045 Warrensville Center Rd,Maple Heights,OH,44137
Lutheran Church-the Covenant,19000 Libby Rd,Maple Heights,OH,44137
Maple Hts United Methodist Chr,18900 Libby Rd,Maple Heights,OH,44137
Word Church,15716 Broadway Ave,Maple Heights,OH,44137
Waynesville Baptist Church,1009 Lytle Rd,Waynesville,OH,45068
St Augustine Catholic Church,PO Box F,South Charleston,OH,45368
Crossview Christian Church,4237 E Social Row Rd,Waynesville,OH,45068
Waynesville United Methodist,PO Box 634,Waynesville,OH,45068
Willo-Hill Baptist Church,4200 OH-306,Willoughby,OH,44094
Willoughby Baptist Church,37927 Euclid Ave,Willoughby,OH,44094
Chapel of the Divine Word,8100 Eagle Rd,Willoughby,OH,44094
St Noel Church,35200 Chardon Rd,Willoughby,OH,44094
Willoughby Hills United Meth,34201 Eddy Rd,Willoughby,OH,44094
Willoughby United Meth Chr,15 Public Sq,Willoughby,OH,44094
Eastern Great Lakes Mission,9017 Chillicothe Rd,Willoughby,OH,44094
Body of Christ Church,38057 Erie Rd,Willoughby,OH,44094
Willoughby Hills Evangelical,2846 Som Center Rd,Willoughby,OH,44094
Community of the Holy Spirit,36600 Stevens Blvd,Willoughby,OH,44094
Old South Church,9802 Chillicothe Rd,Willoughby,OH,44094
Churches Christian Science,4597 Waldamere Ave,Willoughby,OH,44094
Restoration Church Of Jesus,9320 Chillicothe Rd,Willoughby,OH,44094
Brookville Church-Brethren,PO Box 397,Brookville,OH,45309
Brookville Grace Brethren,12152 Westbrook Rd,Brookville,OH,45309
Community United Methodist,PO Box 172,Brookville,OH,45309
Plainview Open Bible Church,1488 Johnsville Brookville Rd,Brookville,OH,45309
First Brethren Church,PO Box 496,Pleasant Hill,OH,45359
Community Grace Brethren Chr,2261 S Miami St,West Milton,OH,45383
Transfiguration Church,972 S Miami St,West Milton,OH,45383
Hoffman United Methodist Chr,201 S Main St,West Milton,OH,45383
Nashville United Church-Christ,4540 Ohio 571,West Milton,OH,45383
County Line Chr-the Brethren,4227 N Hardin Rd,Harrod,OH,45850
Covington Church of-Brethren,PO Box 206,Covington,OH,45318
Friedens Lutheran Church,PO Box 245,Covington,OH,45318
Donnels Creek Church,PO Box 21,North Hampton,OH,45349
East Side Grace Brethren Chr,7510 E Broad St,Blacklick,OH,43004
Grace Brethern Church-Norton,754 Ghent Rd,Fairlawn,OH,44333
St Luke's Episcopal Chr,565 S Cleveland Massillon Rd,Fairlawn,OH,44333
Fairlawn Lutheran Church,3415 W Market St,Fairlawn,OH,44333
Presentation-Our Lord Orthodox,3365 Ridgewood Rd,Fairlawn,OH,44333
St George Antiochian Church,3204 Ridgewood Rd,Fairlawn,OH,44333
Gospel Hall Of Akron,2705 Smith Rd,Fairlawn,OH,44333
St Andrew the Apostle Cath Chr,4022 Johnson Rd,Norton,OH,44203
Barberton First Church,1177 Norton Ave,Norton,OH,44203
St Matthew's Lutheran Church,5451 Cleveland Massillon Rd,Norton,OH,44203
Johnson United Methodist,3409 Johnson Rd,Norton,OH,44203
Minerva United Methodist Chr,204 N Main St,Minerva,OH,44657
Minerva Church Of Christ,16735 Bayard Rd,Minerva,OH,44657
Happy Corner Church,7037 Union Rd,Clayton,OH,45315
Salem Church of God,PO Box 39,Clayton,OH,45315
Clayton United Methodist,PO Box 38,Clayton,OH,45315
Hartville Church-Brethren,PO Box 775,Hartville,OH,44632
Hartville Church of Christ,PO Box 13,Hartville,OH,44632
Chapel in Marlboro,PO Box 730,Hartville,OH,44632
Hartville Mennonite Church,PO Box 727,Hartville,OH,44632
Maplegrove Mennonite Church,2121 Smith Kramer St NE,Hartville,OH,44632
Hartville Church Of Christ,715 W Maple St,Hartville,OH,44632
Main Street Church,705 N Main St,Walbridge,OH,43465
New Life Pentecostals-Toledo,30470 Lemoyne Rd,Walbridge,OH,43465
Mt Zion United Brethren Chr,7481 Bays Rd,Wayne,OH,43466
Wayne United Methodist Church,PO Box 56,Wayne,OH,43466
Oakland Church of the Brethren,PO Box 198,Gettysburg,OH,45328
Potsdam Church of the Brethren,PO Box 122,Potsdam,OH,45361
Salem Church of the Brethren,6037 Phillipsburg Union Rd,Union,OH,45322
All Saints Catholic Church,215 Riverview Pl,Rossford,OH,43460
Rossford United Methodist Chr,270 Dixie Hwy,Rossford,OH,43460
Peoples Church,300 S Ridge Rd E,Geneva,OH,44041
United Church,75 S Broadway,Geneva,OH,44041
Geneva Church Of Christ,1007 S Broadway,Geneva,OH,44041
Assumption of Mary Catholic,5445 Smith Rd,Brook Park,OH,44142
St Peter the Apostle Church,6455 Engle Rd,Brook Park,OH,44142
Church of St Helen's,12060 Kinsman Rd,Newbury,OH,44065
Newbury United Community Chr,PO Box 308,Newbury,OH,44065
Advanced Pent Solutions,10750 Music St,Newbury,OH,44065
Church of the Holy Angels,18205 Chillicothe Rd,Chagrin Falls,OH,44023
St Joan of Arc,10700 Liberty Rd S,Powell,OH,43065
St Martin's Episcopal,6295 Chagrin River Rd,Chagrin Falls,OH,44022
Fellowship Bible Church,16391 Chillicothe Rd,Chagrin Falls,OH,44023
Valley Lutheran Church,87 E Orange St,Chagrin Falls,OH,44022
Parkside Church,7100 Pettibone Rd,Chagrin Falls,OH,44023
Federated Church,PO Box 60,Chagrin Falls,OH,44022
Valley Presbyterian Church,17560 Chillicothe Rd,Chagrin Falls,OH,44023
Church-Good Shepherd Methodist,PO Box 235,North Baltimore,OH,45872
St James Parish United,PO Box 73,North Baltimore,OH,45872
Adams Richard ,512 N 2nd St,North Baltimore,OH,45872
Holy Name Catholic Church,222 Hamilton Ave,Trenton,OH,45067
Trenton Church-Nazarene,220 N Miami St,Trenton,OH,45067
St Peter Lutheran Church,422 N Pierce St,Delphos,OH,45833
Trenton Church of God,PO Box 138,Trenton,OH,45067
Mt Olivet United Presby Church,509 W State St,Trenton,OH,45067
St Peters United Church-Christ,PO Box 52,New Bremen,OH,45869
Holy Trinity Catholic Church,760 Tiffin St,Bucyrus,OH,44820
Woodlawn United Methodist Chr,1675 Hopley Ave,Bucyrus,OH,44820
Victory in Truth Ministries,PO Box 373,Bucyrus,OH,44820
Holy Trinity Church-Avon,33601 Detroit Rd,Avon,OH,44011
St Mary of the Immaculate,2640 Stoney Ridge Rd,Avon,OH,44011
Avon United Methodist Church,PO Box 76,Avon,OH,44011
Christian Heritage Assembly,36465 Chester Rd,Avon,OH,44011
Holy Trinity Roman Catholic,250 N Bridge St,Struthers,OH,44471
Struthers United Methodist Chr,33 Sexton St,Struthers,OH,44471
Struthers Presbyterian Church,110 Poland Ave,Struthers,OH,44471
First Christian Church Ravenna,420 S Prospect St,Ravenna,OH,44266
Christian ,9018 OH-44,Ravenna,OH,44266
First United Methodist,263 S Prospect St,Ravenna,OH,44266
Portage Community Chapel,6490 OH-14,Ravenna,OH,44266
United Church of Jesus Christ,6589 Terrill St,Ravenna,OH,44266
Riverside Presbyterian Church,525 Riverside Ave,Wellsville,OH,43968
Most Pure Heart of Mary,29 West St,Shelby,OH,44875
Our Lady Help of Christians,9608 Norwalk Rd,Litchfield,OH,44253
Our Lady of Grace Church,1088 Ridge Rd,Hinckley,OH,44233
Our Saviour's Lutheran Church,PO Box 278,Hinckley,OH,44233
Our Lady Of Lakes,449 Lyonswood Dr,Hinckley,OH,44233
First United Presbyterian Chr,3358 Guernsey St,Bellaire,OH,43906
Our Lady of Mercy,5001 Lowell Hill Rd,Lowell,OH,45744
Our Lady of Mercy Catholic Chr,PO Box 155,Carrollton,OH,44615
Church of Christ Christian,353 Moody Ave SW,Carrollton,OH,44615
Carrollton First United Meth,PO Box 85,Carrollton,OH,44615
Carrollton Assembly Of God,400 Steubenville Rd SE,Carrollton,OH,44615
Fayette United Methodist,PO Box 99,Fayette,OH,43521
Fayette Church Of Nazarene,511 S Fayette St,Fayette,OH,43521
Our Lady of Mt Carmel,PO Box 45,Buckeye Lake,OH,43008
Fellowship United Ch of Christ,PO Box 84,Wickliffe,OH,44092
Our Lady of the Holy Rosary,131 E Wood St,Lowellville,OH,44436
Andover Church of Christ,PO Box 1268,Andover,OH,44003
Pymatuning Community Church,PO Box 779,Andover,OH,44003
Queen of the Holy Rosary,291 Scoville Dr,Vienna,OH,44473
St Vincent De Paul Catholic,PO Box 148,Vienna,OH,44473
Vienna United Methodist Church,PO Box 459,Vienna,OH,44473
Sacred Heart Catholic Church,410 W Lorain St,Oberlin,OH,44074
Rust United Methodist Church,128 Groveland St,Oberlin,OH,44074
First Church in Oberlin,106 N Main St,Oberlin,OH,44074
Sacred Heart of Rock Creek,PO Box 305,Rock Creek,OH,44084
Saint George Church,271 W Chestnut St,Lisbon,OH,44432
New Lisbon Presbyterian Church,111 E Chestnut St,Lisbon,OH,44432
Lisbon Assembly Of God,39442 OH-517,Lisbon,OH,44432
Adams Michael,13227 E Liverpool Rd,Lisbon,OH,44432
Saint Patrick's Church,14010 US-24,Grand Rapids,OH,43522
Saint Patrick'S-Leetonia,PO Box 67,Leetonia,OH,44431
St Adalbert Rectory,39 Smithfield St,Dillonvale,OH,43917
Harmony United Methodist Chr,2119 Commercial St,Mingo Junction,OH,43938
Alexander Leon Counseling Service,112 Valuska Dr,Mingo Junction,OH,43938
St Aloysius Catholic Church,PO Box 485,Bowling Green,OH,43402
Shandon United Church-Christ,PO Box 45,Shandon,OH,45063
St Thomas More University Prsh,425 Thurstin St,Bowling Green,OH,43402
Saint Mark's Lutheran Church,315 S College Dr,Bowling Green,OH,43402
Bowling Green Covenant Church,1165 Haskins Rd,Bowling Green,OH,43402
Dayspring Assembly of God,17360 N Dixie Hwy,Bowling Green,OH,43402
Abiding Word Evangelical Lutheran Church,17202 Mercer Rd,Bowling Green,OH,43402
Agape Church Of Prayer,14867 Mitchell Rd,Bowling Green,OH,43402
Alliance Church,1161 Napoleon Rd,Bowling Green,OH,43402
Garrettsville United Methodist,8223 Park Ave,Garrettsville,OH,44231
United Church of Garretsville,8146 High St,Garrettsville,OH,44231
St Ann's Church,323 S 15th St,Sebring,OH,44672
Pine Lake Christian Church,636 Pine Lake Rd,Sebring,OH,44672
Sebring Church of the Nazarene,626 W Maryland Ave,Sebring,OH,44672
Trinity Lutheran Church Lca,930 N 12th St,Sebring,OH,44672
Sebring United Methodist Chr,126 W Indiana Ave,Sebring,OH,44672
Sebring Presbyterian Church,525 N 16th St,Sebring,OH,44672
Fellowship Journey Of Faith,163 N Chillicothe St,South Charleston,OH,45368
St Basil Catholic Church,8700 Brecksville Rd,Brecksville,OH,44141
St Bernadette's Church,7800 Locust St,Masury,OH,44438
St Bernards Catholic Church,PO Box 98,Beverly,OH,45715
Fifth Street Church of Christ,PO Box 185,Beverly,OH,45715
Beverly United Methodist Chr,700 Park St,Beverly,OH,45715
St Brendan Church,4475 Dublin Rd,Hilliard,OH,43026
Hilliard Church of Christ,4300 Avery Rd,Hilliard,OH,43026
Northwest Bible Church,6639 Scioto Darby Rd,Hilliard,OH,43026
Resurrection Evangelical Luth,3500 Main St,Hilliard,OH,43026
Hilliard United Methodist Chr,5445 Scioto Darby Rd,Hilliard,OH,43026
Scioto Ridge United Meth Chr,4343 Dublin Rd,Hilliard,OH,43026
Warehouse 839,3691 Main St,Hilliard,OH,43026
Darby Creek Community Church,4087 Main St,Hilliard,OH,43026
Hilliard Presbyterian Church,PO Box 63,Hilliard,OH,43026
Agape Community Fellowship,3466 Bryant St,Hilliard,OH,43026
Agape Community House,3912 Alton Darby Creek Rd,Hilliard,OH,43026
St Casimir's Church,221 Hanna Ave,Adena,OH,43901
Celebration of Life Church,4100 Benfield Dr,Kettering,OH,45429
St Cyprian Church,4223 Middle Ridge Rd,Perry,OH,44081
Perry United Methodist Church,3875 Main St,Perry,OH,44081
Lake Erie Church of God,3050 Antioch Rd,Perry,OH,44081
St Edwards Rectory,PO Box 709,Parkman,OH,44080
Parkman Congregational Church,PO Box 655,Parkman,OH,44080
St Christopher'S-By-the-River,PO Box 519,Gates Mills,OH,44040
St Francis Xavier Church,PO Box 486,Malvern,OH,44644
St Martin Lutheran Chr,PO Box 493,Malvern,OH,44644
St George Catholic Church,7615 N 2nd Ave,Clinton,OH,44216
Clinton First Church of Christ,PO Box 220,Clinton,OH,44216
Clinton Church Of Nazarene,2850 Hickory St,Clinton,OH,44216
St James Church,400 W Lisbon St,Waynesburg,OH,44688
Powell United Methodist Church,825 E Olentangy St,Powell,OH,43065
New Hope Reformed Church,5115 Ohio 750,Powell,OH,43065
Living Word Brethren Fllwshp,252 Fox Ridge Cir,Powell,OH,43065
Kelley Robert W,55 Olentangy Ridge Pl,Powell,OH,43065
Intervarsity Christian Fllwshp,8315 Yuma Dr,Powell,OH,43065
Gibbs A K,1805 Birchfield Ct,Powell,OH,43065
Newstart Community Church,168 E Olentangy St,Powell,OH,43065
Sawmill Covenant Church,240 N Liberty St,Powell,OH,43065
Wilkinson Kenneth J,2663 Mallards Landing Dr,Powell,OH,43065
New Covenant Church-brethren,2309 Summit View Rd,Powell,OH,43065
Lds Missionaries,19 Clairedan Dr,Powell,OH,43065
Liberty Christian Church,8901 Liberty Rd N,Powell,OH,43065
Shepherd Of Peace,520 Village Park Dr,Powell,OH,43065
Custer James L,2515 Carriage Rd,Powell,OH,43065
Movement Unlimited LLC,307 Winter Hill Pl,Powell,OH,43065
Zion Christian Fellowship,10405 Sawmill Rd,Powell,OH,43065
Beautiful Savior Church,478 W Olentangy St,Powell,OH,43065
Accelerated Revenue-client Services,3966 N Hampton Dr,Powell,OH,43065
Sawmill Baptist Church,10635 Sawmill Rd,Powell,OH,43065
Dublin-powell Church Of Christ,4020 N Hampton Dr,Powell,OH,43065
Powell Grace Brethren Church,7600 Liberty Rd N,Powell,OH,43065
Sayre Michael,3682 Mead Dr,Powell,OH,43065
St John the Bapt Catholic,218 S 3rd St,Tipp City,OH,45371
Christian Family Fellowship,1575 W Oh-571,Tipp City,OH,45371
Lutheran Church-Zion,11 N 3rd St,Tipp City,OH,45371
Ginghamsburg Church,6759 S County Road 25a,Tipp City,OH,45371
Tipp City United Methodist Chr,8 W Main St,Tipp City,OH,45371
Victory Assembly Of God,4645 S County Road 25A,Tipp City,OH,0
St John the Evangelist,PO Box 309,Hanoverton,OH,44423
St Johns Catholic Church,3745 Tallman Ave,Bellaire,OH,43906
Bellaire Christian Church,3565 Belmont St,Bellaire,OH,43906
South Bellaire United Church,300 W 23rd St,Bellaire,OH,43906
Crestline Church-Nazarene,500 E Main St,Crestline,OH,44827
First English Evangelical Luth,PO Box 287,Crestline,OH,44827
Calvary United Church-Christ,511 Heiser Ct,Crestline,OH,44827
1St Presbyterian Church,119 N Thoman St,Crestline,OH,44827
Sharon Mennonite Church,7675 Amity Pike,Plain City,OH,43064
United Bethel Mennonite Church,PO Box 36,Plain City,OH,43064
Jerome United Methodist Church,10531 Jerome Rd,Plain City,OH,43064
Plain City United Methodist,202 N Chillicothe St,Plain City,OH,43064
Plain City Presbyterian Church,231 E Main St,Plain City,OH,43064
Alleluia Lutheran Church,8624 Industrial Pky,Plain City,OH,43064
Tiltonsville United Methodist,106 Grandview Ave,Tiltonsville,OH,43963
Plymouth Church Of God,206 Trux St,Plymouth,OH,44865
St Joseph Church Mantua,11045 Saint Joseph Blvd,Mantua,OH,44255
Mantua Center Christian Church,PO Box 550,Mantua,OH,44255
Christ Lutheran Church-Mantua,PO Box 737,Mantua,OH,44255
Portage Faith United Methodist,9922 OH-44,Mantua,OH,44255
St Joseph Church North Bend,PO Box 219,North Bend,OH,45052
St Joseph-Sylvania Church,5373 Main St,Sylvania,OH,43560
Boulevard Church of Christ,7041 Sylvania Ave,Sylvania,OH,43560
Mc Cord Road Christian Church,4765 N McCord Rd,Sylvania,OH,43560
Temple-Congregation Shomer,6453 Sylvania Ave,Sylvania,OH,43560
Olivet Lutheran Church,5840 Monroe St,Sylvania,OH,43560
St Stephen Lutheran Church,7800 Erie St,Sylvania,OH,43560
St Elias Antiochian Orthodox,4940 Harroun Rd,Sylvania,OH,43560
Sylvania United Church-Christ,7240 Erie St,Sylvania,OH,43560
Adat Adonai Congregation-lord,5242 McGregor Ln,Sylvania,OH,43560
St Louis Church,PO Box 85,Owensville,OH,45160
St Lucys Catholic Church,PO Box 98,Middlefield,OH,44062
Abundant Life Church Of God,14662 Old State Rd,Middlefield,OH,44062
St Martin's Catholic Church,1800 Station Rd,Valley City,OH,44280
Emmanuel United Church-Christ,PO Box 132,Bluffton,OH,45817
Georgetown Church of Christ,149 Hamer Rd,Georgetown,OH,45121
Georgetown United Methodist,217 S Main St,Georgetown,OH,45121
St Marys Catholic Church,212 W Main St,St Clairsville,OH,43950
English Lutheran Church,111 Grove St,Bluffton,OH,45817
First Mennonite Church,101 S Jackson St,Bluffton,OH,45817
Ebenezer Mennonite Church,8905 Columbus Grove Rd,Bluffton,OH,45817
Thoburn United Methodist Chr,PO Box 4,St Clairsville,OH,43950
East Richland Evangelical Chr,67885 Friends Church Rd,St Clairsville,OH,43950
Celebration Lutheran Church,10621 Auburn Rd,Chardon,OH,44024
Chardon United Methodist,515 North St,Chardon,OH,44024
Pilgrim Christian Church,202 S Hambden St,Chardon,OH,44024
Chardon Assembly Of God,103 Center St,Chardon,OH,44024
Ohltown United Methodist Chr,2001 Ohltown Mineral Ridge Rd,Mineral Ridge,OH,44440
St Mary's Parish,2649 Us Highway 20,Swanton,OH,43558
St Richards Catholic Church,333 Brookside Dr,Swanton,OH,43558
Bremen United Methodist Church,205 Walnut St,Bremen,OH,43107
St Matthew Catholic Rectory,807 Havens Corners Rd,Gahanna,OH,43230
New Life Church Gahanna,3690 N Stygler Rd,Gahanna,OH,43230
Stonybrook United Methodist,PO Box 30733,Gahanna,OH,43230
Cornerstone Fellowship,81 Price Rd,Gahanna,OH,43230
Evangel Temple Assembly of God,817 N Hamilton Rd,Gahanna,OH,43230
Mifflin Presbyterian Church,123 Granville St,Gahanna,OH,43230
Ripley First Presbyterian Chr,PO Box 95,Ripley,OH,45167
Aberdeen Baptist Church,733 S 2nd St,Ripley,OH,45167
St Patrick Church Rectory,PO Box 279,Fayetteville,OH,45118
Thompson Methodist Church,PO Box 29,Thompson,OH,44086
Shiloh Mennonite Church,7521 Woods and West Ave,London,OH,43140
Abundant Love Christian Chrh,11 State Route 56 SW,London,OH,43140
St Paul's Church,308 Phillips St,Yellow Springs,OH,45387
St Martins Lutheran Church,203 S Defiance St,Archbold,OH,43502
Central Mennonite Church,PO Box 191,Archbold,OH,43502
Evangelical Mennonite Church,300 Park St,Archbold,OH,43502
Zion Mennonite Church,300 Short-Buehrer Rd,Archbold,OH,43502
Archbold United Methodist Chr,401 Ditto St,Archbold,OH,43502
St Raphael Catholic Church,525 Dover Center Rd,Bay Village,OH,44140
Bethesda On the Bay Lutheran,28607 Wolf Rd,Bay Village,OH,44140
Bay United Methodist Church,29931 Lake Rd,Bay Village,OH,44140
Bay Presbyterian Church,25415 Lake Rd,Bay Village,OH,44140
Shiloh Full Gospel Church,1310 Shannon Rd,Girard,OH,44420
St Teresa Church,1878 Abbe Rd,Sheffield Village,OH,44054
St Victor Catholic Church,3435 Everett Rd,Richfield,OH,44286
Richfield United Church-Christ,4340 W Streetsboro Rd,Richfield,OH,44286
St William's Church,367 E 260th St,Euclid,OH,44132
Lake Shore Christian Church,28010 Lake Shore Blvd,Euclid,OH,44132
Shore Haven Lutheran Church,280 E 222nd St,Euclid,OH,44123
East Shore Church,23002 Lakeshore Blvd,Euclid,OH,44123
Canal Fouton United Methodist,PO Box 323,Canal Fulton,OH,44614
Brilliant Christian Church,PO Box 185,Brilliant,OH,43913
Christian Church Disciples,75 E 39th St,Shadyside,OH,43947
Lincoln Ave United Methodist,3838 Lincoln Dr,Shadyside,OH,43947
Shadyside Church Of Christ,3821 Leona Ave,Shadyside,OH,43947
Christian Church Shenandoah,5642 State Route 13 N,Shiloh,OH,44878
Adario United Methodist Church,1790 Adario East Rd,Shiloh,OH,44878
First Um Church of Toronto,PO Box 345,Toronto,OH,43964
Riverview Um Church,PO Box 348,Toronto,OH,43964
Abundant Life First Assembly,1009 N 4th St,Toronto,OH,43964
Church of Christ Lexington,230 Delaware Ave,Lexington,OH,44904
East Sparta Christian Church,PO Box 476,East Sparta,OH,44626
East Sparta United Methodist,PO Box 445,East Sparta,OH,44626
Gender Rd Christian Church,5336 Gender Rd,Canal Winchester,OH,43110
Grace Bible Church,424 Gender Rd,Canal Winchester,OH,43110
David Evangelical Lutheran Chr,300 Groveport Rd,Canal Winchester,OH,43110
New Life Community Church,18 E Columbus St,Canal Winchester,OH,43110
David's United Church-Christ,80 W Columbus St,Canal Winchester,OH,43110
Faith Assembly Of God,720 W Waterloo St,Canal Winchester,OH,43110
Greenford Christian Church,PO Box 53,Greenford,OH,44422
Greenford Lutheran Church,PO Box 104,Greenford,OH,44422
Hebron Christian Church,PO Box 736,Hebron,OH,43025
Hebron United Methodist Church,PO Box 459,Hebron,OH,43025
Hiram Christian Church,PO Box 937,Hiram,OH,44234
Indian Run Christian Church,7455 Hill Church St SE,East Canton,OH,44730
East Canton Church of God,201 Nassau St E,East Canton,OH,44730
Jamestown Church of Christ,PO Box 128,Jamestown,OH,45335
Grape Grove Church,6626 Grape Grove Rd,Jamestown,OH,45335
Jamestown United Methodist Chr,PO Box 37,Jamestown,OH,45335
Jamestown Church Of Christ,152 W Washington St,Jamestown,OH,45335
Lake Mt Church of Christ,6290 OH-7,New Waterford,OH,44445
East Fairfield United Meth Chr,45675 OH-558,New Waterford,OH,44445
New Waterford Untd Methodist,PO Box 158,New Waterford,OH,44445
Abundant Life Fellowship,46469 OH-46,New Waterford,OH,44445
Loveland Church of Christ,12070 N Lebanon Rd,Loveland-Madeira Corridor,OH,45140
Lyons Christian Church,PO Box 218,Lyons,OH,43533
Macedonia Christian Church,PO Box 147,Okeana,OH,45053
Miamitown Church of Christ,PO Box 304,Miamitown,OH,45041
New Life Church of Christ,W Durbin Ave,Bellville,OH,44813
Clearfork Valley Wesleyan Chr,PO Box 472,Bellville,OH,44813
Olmsted Christian Church,7140 Fitch Rd,Olmsted Falls,OH,44138
Rudolph Christian Church,13868 Mermill Rd,Rudolph,OH,43462
Russellville Church of Christ,144 S Columbus St,Russellville,OH,45168
Utica Church of Christ,PO Box 532,Utica,OH,43080
Utica United Methodist Church,626 North St,Utica,OH,43080
Walton Hill Church of Christ,7166 Dunham Rd,Walton Hills,OH,44146
Weston Church of Christ,PO Box 344,Weston,OH,43569
Pentecostal Church Of Christ,13975 Milton Rd,Weston,OH,43569
Shiloh Christian Union Church,2100 County Road 5,Delta,OH,43515
Assembly of God Church,405 W Main St,Delta,OH,43515
St John's United Ch of Christ,6074 OH-96,Tiro,OH,44887
Christ Church Episcopal,21 Aurora St,Hudson,OH,44236
Hope Community Church,3033 Middleton Rd,Hudson,OH,44236
Hudson United Methodist Church,2600 Hudson Aurora Rd,Hudson,OH,44236
Hudson Community Chapel,750 W Streetsboro St,Hudson,OH,44236
Hudson Presbyterian Church,PO Box 2222,Hudson,OH,44236
St Thomas Episcopal Chr,100 Miami Ave,Terrace Park,OH,45174
Macedonia United Methodist Chr,1280 E Aurora Rd,Macedonia,OH,44056
Twinsburg Church Of Christ,1717 E Aurora Rd,Macedonia,OH,44056
Macedonia Church Of Nazarene,9670 Valley View Rd,Macedonia,OH,44056
Cypress Wesleyan Church,PO Box 360,Galloway,OH,43119
Lds Missionarys,5544 Baconridge,Galloway,OH,43119
Grace Minestries,464 Rathmell Rd,Lockbourne,OH,43137
Pettisville Missionary Church,PO Box 53037,Pettisville,OH,43553
All Shepherds Lutheran Church,6580 Columbus Pike,Lewis Center,OH,43035
Lewis Center United Methodist,1081 Lewis Center Rd,Lewis Center,OH,43035
Korean Presbyterian Church,9480 S Old State Rd,Lewis Center,OH,43035
St Andrew's Anglican Church,7521 S Old State Rd,Lewis Center,OH,43035
Promise Church,7465 Crossing Pl,Lewis Center,OH,43035
Orange Road Evangelical Frnds,3467 E Orange Rd,Lewis Center,OH,43035
Centerpoint Church,7750 Green Meadows Dr,Lewis Center,OH,43035
Northpointe United Brethren,100 E Orange Rd,Lewis Center,OH,43035
Alum Creek Church Of Christ,6256 S Old State Rd,Lewis Center,OH,43035
Northpointe Baptist Church,2515 Parklawn Dr,Lewis Center,OH,43035
North Unitarian Universalist,1574 Franklin St,Lewis Center,OH,43035
Berlin Church,5175 S Old State Rd,Lewis Center,OH,43035
Terranova Community Church,5542 Columbus Pike,Lewis Center,OH,43035
Peachblow United Methodist Chr,3247 Peachblow Rd,Lewis Center,OH,43035
Bath United Church of Christ,PO Box 496,Bath,OH,44210
Salem Lutheran Church,20144 Bradner Rd,Pemberville,OH,43450
Foundations Stone Christian,4532 Woodville Rd,Northwood,OH,43619
Faith Tabernacle Church of God,6100 Wales Rd,Northwood,OH,43619
Community of Christ Lutheran,PO Box 2602,Whitehouse,OH,43571
Independence United Methodist,6615 Brecksville Rd,Independence,OH,44131
Independence Presbyterian Chr,6624 Public Square W,Independence,OH,44131
Hedges Chapel United Methodist,15495 Winchester Rd,Ashville,OH,43103
Village United Methodist Chr,30 Church St,Ashville,OH,43103
Mt Olivet United Church-Christ,410 W South Range Rd,North Lima,OH,44452
Cornerstone Assembly Of God,185 W South Range Rd,North Lima,OH,44452
Hosanna Lutheran Church-Lc-Ms,13485 W River Rd,Columbia Station,OH,44028
Columbia United Meth Church,25453 Royalton Rd,Columbia Station,OH,44028
Church Lighthouse Bible,24050 Royalton Rd,Columbia Station,OH,44028
Apostolic House Of Glory,11388 Root Rd,Columbia Station,OH,44028
Israel's Lutheran Church,376 Paris Ave SE,Paris,OH,44669
Jerusalem Evangelical Lutheran,9282 Acme Rd,Seville,OH,44273
Seville United Methodist Chr,PO Box 32,Seville,OH,44273
Our Savior's Rocky River Luth,20300 Hilliard Blvd,Rocky River,OH,44116
St Thomas Lutheran Church-Lcms,21211 Detroit Rd,Rocky River,OH,44116
Rockport United Methodist Chr,3301 Wooster Rd,Rocky River,OH,44116
Rocky River United Methodist,19414 Detroit Rd,Rocky River,OH,44116
Rocky River Presbyterian Chr,21750 Detroit Rd,Rocky River,OH,44116
Phillipsburg Emanuel Lutheran,PO Box 487,Phillipsburg,OH,45354
Sandyville Luthrn Coop Minstry,PO Box 464,Magnolia,OH,44643
Magnolia United Methodist Chr,PO Box 417,Magnolia,OH,44643
Sandy Valley Church of God,11281 Oh-800 NE,Magnolia,OH,44643
Sharon Center United Methodist,PO Box 239,Sharon Center,OH,44274
Churches Colerain Presbyterian,71762 Colerain Rd,Bridgeport,OH,43912
Bethel Church Of Brethren,4023 E Calla Rd,New Middletown,OH,44442
Amity United Methodist Church,53431 Steinersville Rd,Powhatan Point,OH,43942
Beach City United Methodist,PO Box 336,Beach City,OH,44608
Berlin Center Methodist,5888 Weaver Rd,Berlin Center,OH,44401
Berlin Center United Methodist,15611 W Akron Canfield Rd,Berlin Center,OH,44401
Bowersville United Methodist,PO Box 156,Bowersville,OH,45307
Brewster-Wilmot Methodist,457 Wabash Ave S,Brewster,OH,44613
Brice United Methodist Church,PO Box 79,Brice,OH,43109
Bristolville United Methodist,PO Box 234,Bristolville,OH,44402
Brookfield Methodist Church,PO Box 22,Brookfield,OH,44403
Cairo United Methodist Church,PO Box 252,Cairo,OH,45820
Calvary United Methodist Chr,PO Box 315,Beaver,OH,44452
Chapel of the Cross United Chr,14411 Orrville St NW,North Lawrence,OH,44666
New Zion United Methodist Chr,10991 Snyder Church Rd,Baltimore,OH,43105
Copley United Methodist Church,1518 S Cleveland Massillon Rd,Copley,OH,44321
Christ Reformed Church,2625 Copley Rd,Copley,OH,44321
Croton United Methodist Church,PO Box 127,Croton,OH,43013
Croton Church of Christ,PO Box 206,Croton,OH,43013
Damascus United Methodist Chr,PO Box 307,Damascus,OH,44619
Damascus Friends Church,PO Box 205,Damascus,OH,44619
Derby United Methodist Church,PO Box 8,Derby,OH,43117
Enon United Methodist Church,135 S Harrison St,Enon,OH,45323
Etna United Methodist Church,PO Box 70,Etna,OH,43018
Fletcher United Methodist Chr,PO Box 278,Fletcher,OH,45326
Flushing United Methodist Chr,PO Box 54,Flushing,OH,43977
Fohl Memorial United Methodist,121 Basin St NW,Navarre,OH,44662
Stanwood Community Church,14715 Stanwood St SW,Navarre,OH,44662
Richville United Church-Christ,6125 Richville Dr SW,Navarre,OH,44662
Greensburg United Methodist,PO Box 155,Green,OH,44232
Greentown United Methodist,PO Box 1,Greentown,OH,44630
Harlem Rd United Methodist Chr,5520 Harlem Rd,Galena,OH,43021
Rural Chapel United Methodist,5860 Cheshire Rd,Galena,OH,43021
Stalder James K,3580 S Old 3c Rd,Galena,OH,43021
Bradley Monty,8411 Hickory Ave,Galena,OH,43021
Hoytville United Methodist,PO Box 175,Hoytville,OH,43529
Immanuel United Methodist Chr,699 Sunnydale St,Elida,OH,45807
Kinsman United Methodist,PO Box 218,Kinsman,OH,44428
Rock of Grace,6745 OH-5,Kinsman,OH,44428
Kinsman Presbyterian Church,PO Box 304,Kinsman,OH,44428
Leroy United Methodist Church,PO Box 327,Westfield Center,OH,44251
Metamora United Methodist Chr,PO Box 175,Metamora,OH,43540
Millersport United Methodist,PO Box 296,Millersport,OH,43046
New Holland Methodist Church,PO Box 371,New Holland,OH,43145
New Matamoras United Methodist,PO Box 549,New Matamoras,OH,45767
Orangeville United Methodist,PO Box 67,Orangeville,OH,44453
Richmond United Methodist Chr,PO Box 332,Richmond,OH,43944
Shalom United Methodist Church,PO Box 439,Carroll,OH,43112
Victory Hill Church of God,4000 Coonpath Rd,Carroll,OH,43112
South Amherst First United,201 W Main St,South Amherst,OH,44001
South Charleston Methodist Chr,Po Box,Charleston,OH,44256
Spencerville United Chr-Christ,102 Wisher Dr,Spencerville,OH,45887
Agape Fellowship Ministries,320 S Broadway St,Spencerville,OH,45887
Twin Falls United Methodist,60 N River Rd,Munroe Falls,OH,44262
Fallscreek Community Church,149 Northmoreland Ave,Munroe Falls,OH,44262
United Church of Amsterdam,PO Box 65,Amsterdam,OH,43903
United Church Of Amsterdam,8253 Bear Rd SE,Amsterdam,OH,43903
All Saints Orthodox Rectory,2030 County Road 61,Amsterdam,OH,43903
Waterford-Salem-Watertown Meth,PO Box 64,Waterford,OH,45786
Waynesfield United Meth Church,PO Box 280,Waynesfield,OH,45896
Westview United Methodist Chr,105 Shawnee Rd,Cridersville,OH,45806
Churches,510 E Sugar St,Cridersville,OH,45806
Williamsport United Methodist,PO Box 179,Williamsport,OH,43164
Windham United Methodist,9051 N Main St,Windham,OH,44288
