Name,Address,City,State,Zip
Berea Sda,675 S Lafayette Dr,Sumter,SC,29150
Alice Drive Baptist Church,1305 Loring Mill Rd,Sumter,SC,29150
Bondovlove Baptist Church,2755 Carter Rd,Sumter,SC,29150
Crosswell Baptist Church,219 S Fish Trap Rd,Greenville,SC,29611
Enon Baptist Church,871 Enon Church Rd,Easley,SC,29640
First Baptist Church,PO Box 3420,Leesville,SC,29070
Grace Baptist Church,PO Box 569,Duncan,SC,29334
Graham Baptist Church,4140 S Us-521,Sumter,SC,29153
Hickory Road Baptist Church,1245 Cherryvale Dr,Sumter,SC,29154
Jehovah Missionary Baptist Chr,805 S Harvin St,Sumter,SC,29150
Mount Zion Baptist Church,1908 Wilkinson St,Cayce,SC,29033
Mulberry Baptist Church,RR 1,Sumter,SC,29153
New Calvary Baptist Church,PO Box 848,Sumter,SC,29151
New Salem Baptist Church,2500 W Oakland Ave,Sumter,SC,29154
Northside Memorial Baptist Chr,1004 N Main St,Sumter,SC,29153
Providence Baptist Church,294 Seven Farms Dr,Daniel Island,SC,29492
Shaw Heights Baptist Church,2030 Peach Orchard Rd,Sumter,SC,29154
Southside Baptist Church,307 Richbourg Ln,Florence,SC,29505
Sumter Baptist Temple,2295 Harper St,Sumter,SC,29153
Westside Baptist Church,PO Box 754,Simpsonville,SC,29681
Wise Drive Baptist Church,2751 S Wise Dr,Sumter,SC,29150
St Anne Catholic Church,216 E Liberty St,Sumter,SC,29150
St Jude's Catholic Church,PO Box 1589,Sumter,SC,29151
Plaza Church of Christ,PO Box 1385,Sumter,SC,29151
Church of the Holy Comforter,PO Box 338,Sumter,SC,29151
First Church of God,PO Box 4157,Columbia,SC,29240
First Church of the Nazarene,1201 Haywood Rd,Greenville,SC,29615
St James Lutheran Church,336 Brady Taylor Rd,Batesburg-Leesville,SC,29070
Aldersgate United Methodist,103 Northside Dr E,Greenwood,SC,29649
Bethel Methodist Church,5575 Lodebar Rd,Sumter,SC,29153
Emmanuel United Meth Church,PO Box 1203,Sumter,SC,29151
Lewis Chapel United Methodist,1510 Plowden Mill Rd,Sumter,SC,29153
Mechanicsville Um Church,184 Lake Ashwood Rd,Sumter,SC,29153
St James United Methodist Chr,512 Saint James Ave,Goose Creek,SC,29445
St Johns United Methodist Chr,136 Poinsett Dr,Sumter,SC,29150
St Marks United Methodist Chr,27 Broad St,Sumter,SC,29150
Trinity United Methodist Chr,PO Box 864,Blythewood,SC,29016
Bible Fellowship Church,227 Broad St,Sumter,SC,29150
Greater St Paul Church,PO Box 937,Sumter,SC,29151
Harmony Church,PO Box 1878,Sumter,SC,29151
Bethesda Church of God,1402 Camden Rd,Sumter,SC,29153
Church of God in Christ,873 Woodcrest St,Sumter,SC,29154
New Beginnings Assembly of God,5155 Patriot Pky,Sumter,SC,29154
First Presbyterian Church,PO Box 1306,Myrtle Beach,SC,29578
Westminster Presbyterian Chr,1157 Sam Rittenberg Blvd,Charleston,SC,29407
Rock Church Of Sumter,365 N Saint Pauls Church Rd,Sumter,SC,29154
First Church Of Nazarene,2024 Concord Dr,Camden,SC,29020
First Church Of God,422 King St,Georgetown,SC,29440
Bethesda Church Of God,2730 Broad St,Sumter,SC,29150
Plaza Church Of Christ,545 Oxford St,Sumter,SC,29150
Church Of God Of Prophecy,304 Calhoun St,Winnsboro,SC,29180
First Assembly Of God,331 Saint James St,Georgetown,SC,29440
Allen Chapel Ame,471 Lynam Rd,Sumter,SC,29154
Amis Donald,1070 State St,Sumter,SC,29153
Antioch United Methodist Chr,115 Antioch Rd,Easley,SC,29640
Guthrie Grove Church of God,403 Guthrie Grove Church Rd,Pelzer,SC,29669
Daventon Baptist Church,315 Daventon Rd,Pelzer,SC,29669
Fork Shoals Baptist Church,110 Fork Shoals Church Rd,Pelzer,SC,29669
New Hope Baptist Church,PO Box 100,Cross Anchor,SC,29331
Sandy Springs Baptist Church,371 Sandy Springs Rd,Pelzer,SC,29669
Tabernacle Baptist Church,3931 White Horse Rd,Greenville,SC,29611
Washington Baptist Church,3500 N Highway 14,Greer,SC,29651
Waycross Baptist Church,104 Waycross Church Rd,Pelzer,SC,29669
West Pelzer Baptist Church,29 Main St,Pelzer,SC,29669
White Plains Baptist Church,1435 Easley Hwy,Pelzer,SC,29669
Bethel Church Of God-abrahamic,420 Old Brick Yard Rd,Pelzer,SC,29669
Seventh-Day Adventist Church,1217 John B White Sr Blvd,Spartanburg,SC,29306
Calvary Baptist Church,915 Cherokee Rd,Florence,SC,29501
Fellowship Baptist Church,4238 Augusta Rd,Lexington,SC,29073
First Baptist Church-Lexington,415 Barr Rd,Lexington,SC,29072
Lake Murray Baptist Church,1001 Highway 378 W,Lexington,SC,29072
Lexington Baptist Church,308 E Main St,Lexington,SC,29072
Oakwood Baptist Church,304 Pearman Dairy Rd,Anderson,SC,29625
Red Bank Baptist Church,1357 S Lake Dr,Lexington,SC,29073
Round Hill Baptist Church,230 Persimmon Ln,Lexington,SC,29072
Willowridge Church,104 Sycamore Tree Rd,Lexington,SC,29073
Corpus Christi Catholic Church,2350 Augusta Hwy,Lexington,SC,29072
Nazareth Lutheran Church,1800 Nazareth Rd,Lexington,SC,29073
Pilgrim Lutheran Church,1430 N Lake Dr,Lexington,SC,29072
Pisgah Lutheran Church,1350 Pisgah Church Rd,Lexington,SC,29072
Providence Lutheran Church,840 Old Chapin Rd,Lexington,SC,29072
St Matthews Lutheran Church,1273 Calks Ferry Rd,Lexington,SC,29072
St Peter's Lutheran Church,1130 Saint Peters Rd,Lexington,SC,29072
St Stephens Lutheran Church,119 N Church St,Lexington,SC,29072
Zion Lutheran Church,226 Corley Mill Rd,Lexington,SC,29072
Boiling Springs Methodist Chr,2373 Calks Ferry Rd,Lexington,SC,29073
Lexington United Methodist Chr,309 E Main St,Lexington,SC,29072
Mt Horeb United Methodist Chr,1205 Old Cherokee Rd,Lexington,SC,29072
Red Bank United Methodist Chr,2909 Old Barnwell Rd,Lexington,SC,29073
Calvary Chapel of Lexington,1156 Barr Rd,Lexington,SC,29072
Harvest,4865 Sunset Blvd,Lexington,SC,29072
Riverbend Community Church,1015 Corley Mill Rd,Lexington,SC,29072
Lexington Presbyterian Church,246 Barr Rd,Lexington,SC,29072
Saxe Gotha Presbyterian Church,5503 Sunset Blvd,Lexington,SC,29072
Lexington Church Of God,1228 S Lake Dr,Lexington,SC,29073
Shepherd Church Of Nazarene,119 Ball Park Rd,Lexington,SC,29072
Beacon Baptist Church,338 Sease Hill Rd,Lexington,SC,29073
Life Springs Worship Center,5630 Platt Springs Rd,Lexington,SC,29073
Seventh Day Cafe,1223 S Lake Dr,Lexington,SC,29073
South Lexington Baptist Church,116 Brevard Pky,Lexington,SC,29073
New Beginning,2279 Two Notch Rd,Lexington,SC,29072
Cutting Edge Ministries,116 Torreyglen Dr,Lexington,SC,29072
Covenant Community Church,1302 Old Orangeburg Rd,Lexington,SC,29073
Platt Springs Rd Church Of God Parsonage,5235 Platt Springs Rd,Lexington,SC,29073
Spring Hill Ame Church,228 Windy Hollow Dr,Lexington,SC,29073
Calvary Chapel,1755 12th St,Cayce,SC,29033
Chapel Of Redemption,5181 Platt Springs Rd,Lexington,SC,29073
Victory Fellowship,217 Glassmaster Rd,Lexington,SC,29072
Rock Family Worship Center,5141 Platt Springs Rd,Lexington,SC,29073
Gethsemane Anabaptist Church,334 Andrew Corley Rd,Lexington,SC,29072
New Bethel Ame Church,500 S Lake Dr,Lexington,SC,29072
Iglesia Cristiana Jehova Reina,428 S Lake Dr,Lexington,SC,29072
Jehovah's Witnesses,4560 Highway 321,Gaston,SC,29053
Lexington Pentecostal Church,817 E Main St,Lexington,SC,29072
Bethany Lutheran Church,720 Bethany Church Rd,Lexington,SC,29073
Brenda Posey ,269 Cedarcrest Dr,Lexington,SC,29072
Calvery Springs Community Chr,6635 Platt Springs Rd,Lexington,SC,29073
Church Lexington Baptist,407 E Butler St,Lexington,SC,29072
Lexington Baptist Chr Cnslng,224 E Main St,Lexington,SC,29072
Pleasant Hill Bapt Church,300 Hermitage Rd,Lexington,SC,29072
Lighthouse Baptist Church,325 Church St,West Columbia,SC,29172
Midlands Christian Chr,1312 W Main St,Lexington,SC,29072
St Paul Bapt Church,606 W Main St,Lexington,SC,29072
New Testament Church In Lexington,5257 Augusta Rd,Lexington,SC,29072
Church Of Christ,101 Ball Park Rd,Lexington,SC,29072
Grace Bible Alliance Church,300 Alliance Rd,Lexington,SC,29073
Living Word Assembly Of God,2034 Augusta Hwy,Lexington,SC,29072
Grace Bible Alliance,304 Alliance Rd,Lexington,SC,29073
Church Of Jesus Christ Of Latter-day Saints,2224 Augusta Hwy,Lexington,SC,29072
Nazareth Pentecostal Holiness Church,472 Two Notch Rd,Lexington,SC,29073
St Alban's Episcopal Church,403 Park Rd,Lexington,SC,29072
Church On Rock,100 Old Cherokee Rd,Lexington,SC,29072
Lexington Baptist Association,5051 Sunset Blvd,Lexington,SC,29072
Harvest Preschool ,501 Whiteford Way,Lexington,SC,29072
Edmund First Baptist Church,6256 Edmund Hwy,Lexington,SC,29073
Northwood Baptist Church,888 Ansel School Rd,Greer,SC,29651
Right Connection Church,5175 Sunset Blvd,Lexington,SC,29072
Williams Ame,1323 N Lake Dr,Lexington,SC,29072
Faith United Methodist Church,5151 Sunset Blvd,Lexington,SC,29072
Bethel Independent Bible Chr,112 Jules Rd,Lexington,SC,29073
Bible Casebook LLC,100 Maritime Trl,Lexington,SC,29072
Prison Fellowship Ministries,137 Vanarsdale Dr,West Columbia,SC,29169
Covenant Free Presbyterain Church,179 Midway Rd,Lexington,SC,29072
St Barnabas Orthodox Church,1641 Jessamine Rd,Lexington,SC,29073
New Mt Zion Ame Church,103 Cromer Rd,Lexington,SC,29073
Presbyterian Foundation,554 Davega Dr,Lexington,SC,29073
St John's Lutheran Church,5 Clifford St,Charleston,SC,29401
Abner Baptist Church,562 Andre Ln,Spartanburg,SC,29301
Arkwright Baptist Church,PO Box 6758,Spartanburg,SC,29304
Beaumont Baptist Church,945 Beaumont Ave,Spartanburg,SC,29303
Bethany Baptist Church,PO Box 698,Gaffney,SC,29342
Canaan Baptist Church,701 Canaan Rd,Spartanburg,SC,29306
Cannon's Baptist Church,2990 Cannons Campground Rd,Spartanburg,SC,29307
Cedar Spring Baptist Church,PO Box 15008,Spartanburg,SC,29302
Cherokee Springs Baptist Chr,2699 Chesnee Hwy,Spartanburg,SC,29307
Christian Life Ctr,250 E Main St,Spartanburg,SC,29306
Clifton Second Baptist Church,5045 Clifton Glendale Rd,Spartanburg,SC,29307
Cornerstone Baptist Church,PO Box 2543,Summerville,SC,29484
Croft Baptist Church,4190 E Croft Cir,Spartanburg,SC,29302
Cudd Memorial Baptist Church,1301 Boiling Springs Rd,Spartanburg,SC,29303
Eastside Baptist Church,325 Mill St,Batesburg-Leesville,SC,29006
Fairview Baptist Church,527 Highway 14 W,Landrum,SC,29356
Fairview Free Will Baptist Chr,2058 Chesnee Hwy,Spartanburg,SC,29303
Fernwood Baptist Church,200 Fernwood Dr,Spartanburg,SC,29307
First Baptist Chr-Fairforest,200 Charity Dr,Spartanburg,SC,29301
First Baptist Chr-N Sprtnbrg,8740 Asheville Hwy,Spartanburg,SC,29316
First Baptist Chr-Valley Falls,8352 Valley Falls Rd,Spartanburg,SC,29316
First Contemporary Baptist Chr,184 Bryant Rd,Spartanburg,SC,29303
Friendship Baptist Church,830 Friendship Church Rd,Pauline,SC,29374
Hayne Baptist Church,7319 Valley Falls Rd,Spartanburg,SC,29303
Holden's Chapel Missionary Chr,PO Box 160418,Spartanburg,SC,29316
Macedonia Baptist Church,216 Macedonia Rd,Gaffney,SC,29341
Majority Baptist Church,PO Box 6032,Spartanburg,SC,29304
Morningside Baptist Church,897 S Pine St,Spartanburg,SC,29302
Mount Moriah Baptist Church,PO Box 1615,Anderson,SC,29622
Mount Pleasant Baptist Church,635 Mt Pleasant Rd,Spartanburg,SC,29307
Mountain View Baptist Church,111 Cagle St,Greenville,SC,29601
New Bedford Baptist Church,PO Box 160158,Spartanburg,SC,29316
Northview Baptist Church,1025 Howard St,Spartanburg,SC,29303
Oak Grove Baptist Church,533 Hayride Rd,Gilbert,SC,29054
Parkway Free Will Baptist Chr,3615 Parris Bridge Rd,Spartanburg,SC,29316
Peace Free Will Baptist Church,897 3rd Loop Rd,Florence,SC,29505
Peach Valley Baptist Church,105 Burns Rd,Spartanburg,SC,29307
Saxon Baptist Church,2 Front St,Spartanburg,SC,29301
Spartanburg Community Church,187 N Church St,Spartanburg,SC,29306
St Paul Baptist Church,645 Old Howard Gap Rd,Spartanburg,SC,29303
West Side Baptist Church,2100 Platt Springs Rd,West Columbia,SC,29169
Westgate Baptist Church,1990 Old Reidville Rd,Spartanburg,SC,29301
Catholic Church-Jesus Our Rsn,PO Box 17059,Spartanburg,SC,29301
St Paul's Catholic Church,161 N Dean St,Spartanburg,SC,29302
Central Church of Christ,2052 N Church St Pl,Spartanburg,SC,29303
Sigsbee Church of Christ,PO Box 8419,Spartanburg,SC,29305
Episcopal Church of the Advent,141 Advent St,Spartanburg,SC,29302
St Christopher's Episcopal Chr,400 Dupre Dr,Spartanburg,SC,29307
St Francis Parish-Anglican,601 Webber Rd,Spartanburg,SC,29307
St Margaret's Episcopal Church,PO Box 160024,Spartanburg,SC,29316
Holy Communion Lutheran Church,1430 John B White Sr Blvd,Spartanburg,SC,29306
Joy Lutheran Church,3211 Reidville Rd,Spartanburg,SC,29301
Arch Street Ame Zion Church,501 Arch St,Spartanburg,SC,29301
Beaumont United Methodist Chr,687 N Liberty St,Spartanburg,SC,29303
Ben Avon United Methodist Chr,2362 Avondale Dr,Spartanburg,SC,29302
Bethel United Methodist Church,27 PO Box,Pelion,SC,0
Bunton Institutional Cme Chr,500 Wofford St,Spartanburg,SC,29301
Cannons Campground United Meth,3450 Cannons Campground Rd,Spartanburg,SC,29307
Central United Methodist Chr,PO Box 87,Florence,SC,29503
Gravely Memorial United Meth,7400 Lone Oak Blvd,Spartanburg,SC,29303
New Beginnings United Meth,210 Rainbow Lake Rd,Spartanburg,SC,29316
Silver Hill Meml United Meth,778 John B White Sr Blvd,Spartanburg,SC,29306
Skylyn United Methodist Church,1415 Skylyn Dr,Spartanburg,SC,29307
St Luke United Methodist Chr,105 McKay Ave,Spartanburg,SC,29302
St Paul United Methodist Chr,600 Main St S,New Ellenton,SC,29809
United Methodist Chr-the Cvnnt,9020 Asheville Hwy,Spartanburg,SC,29316
Mt Zion Baptist Church,1883 S Pamplico Hwy,Pamplico,SC,29583
Promised Land Ministries,PO Box 170393,Spartanburg,SC,29301
St Nicholas Greek Orthodox Chr,PO Box 1107,Spartanburg,SC,29304
Bethel Assembly of God,PO Box 4085,Spartanburg,SC,29305
Church of God N Spartanburg,2069 Chesnee Hwy,Spartanburg,SC,29303
Community Bible Believers Chr,705 Farley Ave,Spartanburg,SC,29301
Evangel Cathedral,500 Evangel Rd,Spartanburg,SC,29301
United House-Prayer-All People,660 S Church St,Spartanburg,SC,29306
Second Presbyterian Church,342 Meeting St,Charleston,SC,29403
Bahai Assembly Of Spartanburg,331 Bryant Rd,Spartanburg,SC,29303
Sigsbee Church Of Christ,214 Parker Dr,Spartanburg,SC,29303
Bethel Assembly Of God,561 Upper Valley Falls Rd,Spartanburg,SC,29316
Fairforest Church Of God,2662 Fairforest Clevedale Rd,Spartanburg,SC,29301
Abundant Life Church Of God,115 Foster St,Varnville,SC,29944
"All Saints Church Spartanburg, Anglican, Amia",401 E Kennedy St,Spartanburg,SC,29302
Allen Chapel United Methodist Church,617 Highway 56,Spartanburg,SC,29302
Allen Chapel United Mthdst Chr,617 Cedar Springs Ave,Spartanburg,SC,29302
Shiloh Seventh-Day Adventist,PO Box 6235,North Charleston,SC,29405
Canaan Missionary Baptist Chr,1561 Mosstree Rd,North Charleston,SC,29405
Charity Baptist Church,1544 E Montague Ave,North Charleston,SC,29405
Deer Park Baptist Church,8875 University Blvd,North Charleston,SC,29406
Dorchester-Waylyn Baptist Chr,3914 Dorchester Rd,North Charleston,SC,29405
Ferndale Baptist Church,4870 Piedmont Ave,North Charleston,SC,29406
Hillcrest Baptist Church,1300 Anderson Dr,Williamston,SC,29697
Holmes Avenue Baptist Church,4602 Durant Ave,North Charleston,SC,29405
Lovely Mountain Baptist Church,6798 Ward Ave,North Charleston,SC,29406
Mt Moriah Baptist Church,PO Box 60225,North Charleston,SC,29419
Portside Baptist Church,1179 Remount Rd,North Charleston,SC,29406
Remount Baptist Day Care,1520 Remount Rd,North Charleston,SC,29406
Riverbluff Church,5421 River Bluff Pky,North Charleston,SC,29420
Royal Baptist Church,1807 Pearson St,North Charleston,SC,29405
St Matthew Baptist,2005 Reynolds Ave,North Charleston,SC,29405
Peace Lutheran Church,8315 Dorchester Rd,North Charleston,SC,29418
Midland Park United Methodist,2301 Midland Park Rd,North Charleston,SC,29406
North Charleston United Meth,1125 E Montague Ave,North Charleston,SC,29405
St Peters Ame Church,4650 Sanders Ave,North Charleston,SC,29405
Cathedral of Praise,3790 Ashley Phosphate Rd,North Charleston,SC,29418
Full Word Ministries,2730 Gordon St,North Charleston,SC,29405
Bethel Pentecostal Church,4914 Nesbit Ave,North Charleston,SC,29405
Life Christian Assembly,3001 Landing Pky,North Charleston,SC,29420
North Palm Ministry Ctr,PO Box 5261,North Charleston,SC,29405
World Harvest Ministries Inc,3441 W Montague Ave,North Charleston,SC,29418
God's House Of Worship,3818 Dorchester Rd,North Charleston,SC,29405
Christ Tabernacle Of Praise,8768 Salamander Rd,North Charleston,SC,29406
Three Wisemen Of Bethlehem,2150 Northwoods Blvd,North Charleston,SC,29406
Shekinah Glory Family Worship,5633 Dorchester Rd,North Charleston,SC,29418
God's House Of Compassion,4962 N Rhett Ave,North Charleston,SC,29405
Redeemed Church Of Christ,2124 Cosgrove Ave,North Charleston,SC,29405
New Beginnings Of Charlestown,112 Osburn Ave,North Charleston,SC,29420
Abyssinia Baptist Church,4656 Nesbit Ave,North Charleston,SC,29405
Advent Lutheran Church,3347 Rivers Ave,Charleston,SC,29405
Alpha ,2422 W Bryan St,Effingham,SC,29541
Anionted Temple Outreach,2024 Baker Dr,North Charleston,SC,29406
Apostolic Life Minsitry,4755 Rivers Ave,North Charleston,SC,29405
Arabian Temple,4132 Rivers Ave,North Charleston,SC,29405
Abner Creek Baptist Church,2210 Highway 101 S,Greer,SC,29651
Airport Baptist Church,1269 Boston Ave,West Columbia,SC,29170
Apalache Baptist Church,1915 Gap Creek Rd,Greer,SC,29651
Blue Ridge Baptist Church,3950 Pennington Rd,Greer,SC,29651
Burnview Baptist Church,9690 Reidville Rd,Greer,SC,29651
Community Baptist Church,642 S Suber Rd,Greer,SC,29650
Cross Roads Baptist Church,160 Cross Roads Church Rd,Easley,SC,29640
El Bethel Baptist Church,PO Box 2809,Greer,SC,29652
Enoree Fork Baptist Church,PO Box 171,Greer,SC,29652
Franklin Baptist Church,199 Hubert St,Greer,SC,29650
Maple Creek Baptist Church,609 S Main St,Greer,SC,29650
Mount Lebanon Baptist Church,572 Mt Lebanon Church Rd,Greer,SC,29651
New Jerusalem Baptist Church,PO Box 1343,Greer,SC,29652
People's Baptist Church,310 Victor Avenue Ext,Greer,SC,29651
Pleasant Grove Baptist Church,602 Pleasant Grove Rd,Forest,SC,29661
Pleasant Hill Baptist Church,3041 Six Mile Hwy,Central,SC,29630
Riverside Baptist Church,504 S Gossett St,Anderson,SC,29624
Second Baptist Church,655 Beech Island Ave,Beech Island,SC,29842
Suber Road Baptist Church,445 S Suber Rd,Greer,SC,29650
Victor Baptist Church,131 Maria Louisa Ln,Greenville,SC,29609
Blessed Trinity Catholic Chr,PO Box 1371,Greer,SC,29652
Heritage Bible Church,2005 Old Spartanburg Rd,Greer,SC,29650
Redeemer Lutheran Church,525 Saint Andrews Rd,Columbia,SC,29210
Covenant United Methodist Chr,1310 Old Spartanburg Rd,Greer,SC,29650
Liberty Hill United Methodist,301 Liberty Hill Rd,Greer,SC,29651
Memorial United Methodist Chr,201 N Main St,Greer,SC,29650
Victor United Methodist Church,1 Wilson Ave,Greer,SC,29651
Zoar United Methodist Church,PO Box 333,Greer,SC,29652
Living Way Community Church,3239 N Highway 101,Greer,SC,29651
United Christian Ministries,PO Box 1273,Greer,SC,29652
Church of God-Greer,500 Trade St,Greer,SC,29651
Praise Cathedral Church of God,PO Box 287,Greer,SC,29652
O'neal Church Of God,3794 Berry Mill Rd,Greer,SC,29651
Calvary Chapel Of Greer,104 New Woodruff Rd,Greer,SC,29651
Apostolic Lutheran Church,453 N Rutherford Rd,Greer,SC,29651
Adams Run Baptist Church,PO Box 25,Adams Run,SC,29426
Hopewell Baptist Church,511 Old Chester Rd,Blacksburg,SC,29702
Alverson Grove Baptist Church,3695 Peachtree Rd,Inman,SC,29349
Fingerville Baptist Church,PO Box 69,Fingerville,SC,29338
Anderson Mill Road Baptist Chr,4371 Anderson Mill Rd,Moore,SC,29369
Poplar Springs Baptist Church,PO Box 455,Simpsonville,SC,29681
River Hills Baptist Church,5762 Reidville Rd,Moore,SC,29369
Grace Bible Church,107 West Rd,Moore,SC,29369
Reidville Road United Meth Chr,5575 Reidville Rd,Moore,SC,29369
Nazareth Presbyterian Church,680 Nazareth Church Rd,Moore,SC,29369
Tyger River Presbyterian Chr,5961 Reidville Rd,Moore,SC,29369
Alman Jimmie,3841 Moore Duncan Hwy,Moore,SC,29369
Andersonville Baptist Church,6902 Dobbins Bridge Rd,Anderson,SC,29626
Boulevard Baptist Church,700 Boulevard,Anderson,SC,29621
Concord Baptist Church,1012 Concord Rd,Anderson,SC,29621
Covenant Baptist Church,3535 Delree St,West Columbia,SC,29170
Eureka Baptist Church,1600 Highway 29 N,Anderson,SC,29621
Flat Rock Church,908 Flat Rock Rd,Anderson,SC,29624
Forest Hill Baptist Church,909 Plantation Rd,Anderson,SC,29621
Garner Memorial Baptist Church,902 Glenn St,Anderson,SC,29625
Homeland Park Baptist Church,3010 Abbeville Hwy,Anderson,SC,29624
Lebanon Baptist Church,5150 Gentry Rd,Anderson,SC,29621
Long Branch Baptist Church,PO Box 8717,Greenville,SC,29604
Middleton Road Baptist Church,1705 Middleton Rd,Anderson,SC,29624
Mount Tabor Baptist Church,5900 Highway 187,Anderson,SC,29625
Mt Herman Baptist Church,1100 Travis Rd,Anderson,SC,29626
Neals Creek Baptist Church,3204 Amity Road Ext,Anderson,SC,29621
New Prospect Baptist Church,9321 Highway 9,Inman,SC,29349
New Spring Community Church,PO Box 1407,Anderson,SC,29622
North Anderson Baptist Church,2308 N Main St,Anderson,SC,29621
Northside Baptist Church,1303 Sunset Blvd,West Columbia,SC,29169
Pope Drive Baptist Church,2510 Pope Dr,Anderson,SC,29625
River Street Baptist Church,708 E River St,Anderson,SC,29624
Salem Baptist Church,4008 Salem Rd,Aynor,SC,29511
Salem Missionary Baptist Chr,PO Box 2246,Anderson,SC,29622
Temple Baptist Church,1508 Cherokee Ave,Gaffney,SC,29340
Varennes Heights Baptist Chr,411 Visage Dr,Anderson,SC,29626
West Whitner Baptist Church,2403 W Whitner St,Anderson,SC,29624
St Joseph Catholic Church,1695 Raoul Wallenberg Blvd,Charleston,SC,29407
St Mary's Catholic Church,89 Hasell St,Charleston,SC,29401
Grace Episcopal Church,98 Wentworth St,Charleston,SC,29401
Holy Trinity Lutheran Church,1002 Carolina Ave,North Augusta,SC,29841
Bethel Ame Church,PO Box 36,McClellanville,SC,29458
St John's Methodist Church,515 S McDuffie St,Anderson,SC,29624
New Beginnings Ministries,805 Southwood St,Anderson,SC,29624
Victory Life Christian Fllwshp,PO Box 890,Anderson,SC,29622
Church of God Mc Duffie Street,PO Box 594,Anderson,SC,29622
Church of God West Anderson,101 Rogers St,Anderson,SC,29625
First United Pentecostal Chr,1319 Highway 29 S,Anderson,SC,29626
High Praises Church of God,PO Box 1188,Anderson,SC,29622
Taylor Memorial Pentecostal,1100 Glenn St,Anderson,SC,29625
Central Presbyterian Church,1404 N Boulevard,Anderson,SC,29621
Christ Church Epc,3120 N Highway 81,Anderson,SC,29621
New Covenant Presbyterian Chr,526 Hitchcock Pky,Aiken,SC,29801
Young Memorial Ar Pres Church,508 Boulevard,Anderson,SC,29621
Cornerstone Assembly Of God,1090 Black Hwy,York,SC,29745
Refuge Church Of Christ,612 Lewis St,Anderson,SC,29624
Anderson Church Of Christ,1136 Brown Rd,Anderson,SC,29621
Welcome Temple Of Deliverance,4004 S Main Street Ext,Anderson,SC,29624
Belmont Church Of God,203 Belmont Dr,Anderson,SC,29624
Promiseland Praise ,427 Airline Rd,Anderson,SC,29624
Abiding Savior Lutheran Church,1905 E Greenville St,Anderson,SC,29621
Agape Christian Outreach Church Child Care,512 Martha Dr,Anderson,SC,29624
Agape Faith Church,1421 Concord Rd,Anderson,SC,29621
Anderson Christian Fellowship,1109 Mountain Springs Rd,Anderson,SC,29621
Anderson Dialysis Clinic,416 E Calhoun St,Anderson,SC,29621
Anderson Interfaith Ministry,1202 S Murray Ave,Anderson,SC,29624
Anderson Whitner Street Church,525 E Whitner St,Anderson,SC,29624
Angel Food Ministries,617 Hudson St,Winnsboro,SC,29180
Antioch Baptist Church,3015 Taxahaw Rd,Lancaster,SC,29720
Bayview Baptist Church,5300 Two Notch Rd,Columbia,SC,29204
Bethlehem Baptist Church,PO Box 761,Simpsonville,SC,29681
Capital City Baptist Church,PO Box 23464,Columbia,SC,29224
Capitol View Baptist Church,1540 Elm Tree Rd,Columbia,SC,29209
Central Baptist Church,PO Box 310,Cowpens,SC,29330
Crescent Hill Baptist Church,115 Crescent Hill Dr,Pickens,SC,29671
Denny Terrace Baptist Church,6324 Dorchester St,Columbia,SC,29203
Dentsville Baptist Church,6708 Two Notch Rd,Columbia,SC,29223
Earlewood Baptist Church,2930 River Dr,Columbia,SC,29201
East Columbia Baptist Church,9601 Caughman Rd,Columbia,SC,29209
Eastwood Baptist Church,2117 Clemson Rd,Columbia,SC,29229
Eau Claire Baptist Church,4427 N Main St,Columbia,SC,29203
First Baptist Church-Columbia,PO Box 1000,Columbia,SC,29202
First Nazareth Baptist Church,2351 Gervais St,Columbia,SC,29204
Forest Drive Baptist Church,4128 Forest Dr,Columbia,SC,29204
Gill Creek Baptist Church,2116 Cushman Dr,Columbia,SC,29204
Greater St Luke Baptist Church,PO Box 1606,Columbia,SC,29202
Greenlawn Baptist Church,6612 Garners Ferry Rd,Columbia,SC,29209
Harrison Road Baptist Church,2417 Marling Dr,Columbia,SC,29204
Haskell Heights First Baptist,PO Box 3004,Columbia,SC,29230
Kathwood Baptist Church,PO Box 6486,Columbia,SC,29260
Kilbourne Park Baptist Church,4205 Kilbourne Rd,Columbia,SC,29206
Killian Baptist Church,503 Killian Rd,Columbia,SC,29203
New Covenant Missionary Church,3501 Humphrey Dr,Columbia,SC,29223
New Ebenezer Baptist Church,307 S Ravenel St,Florence,SC,29506
New Heights Baptist Church,5501 Broad River Rd,Columbia,SC,29212
North Columbia Baptist Church,8140 Gray Fox Blvd,Columbia,SC,29223
North Trenholm Baptist Church,6515 N Trenholm Rd,Columbia,SC,29206
Park Street Baptist Church,2204 Park St,Columbia,SC,29201
Rehoboth Baptist Church,1620 Old Pelzer Rd,Piedmont,SC,29673
Riverland Hill Baptist Church,500 Saint Andrews Rd,Columbia,SC,29210
Rosewood Baptist Church,2901 Rosewood Dr,Columbia,SC,29205
Second Calvary Baptist Church,1516 Bull St,Columbia,SC,29201
Second Nazareth Baptist Church,PO Box 4307,Columbia,SC,29240
Shandon Baptist Church,5250 Forest Dr,Columbia,SC,29206
Spring Valley Baptist Church,91 Polo Rd,Columbia,SC,29223
St Andrews Baptist Church,230 Bush River Rd,Columbia,SC,29210
St John Baptist Church,3404 W Beltline Blvd,Columbia,SC,29203
Trinity Baptist Church,124 W Darlington St,Florence,SC,29501
Woodfield Park Baptist Church,1834 Morninglo Ln,Columbia,SC,29223
Zion Baptist Church,PO Box 2745,Columbia,SC,29202
Zion Canaan Baptist Church,7820 Farrow Rd,Columbia,SC,29203
Zion Mill Creek Baptist Church,97 Mill Creek Pky,Columbia,SC,29209
Our Lady of the Hills Catholic,2700 Ashland Rd,Columbia,SC,29210
St John Neumann Catholic Chr,PO Box 23689,Columbia,SC,29224
St Joseph's Church,3512 Devine St,Columbia,SC,29205
St Martin De Porres Church,2229 Hampton St,Columbia,SC,29204
St Peter's Catholic Church,PO Box 1896,Columbia,SC,29202
St Thomas More Catholic Chapel,1610 Greene St,Columbia,SC,29201
Church of Christ Park Street,2701 Park St,Columbia,SC,29201
Church of Christ-St Andrews Rd,425 Saint Andrews Rd,Columbia,SC,29210
Palmetto Church of Christ,7000 Nursery Rd,Columbia,SC,29212
Good Shepherd Episcopal Church,1512 Blanding St,Columbia,SC,29201
St David's Episcopal Church,605 Polo Rd,Columbia,SC,29223
St Johns Episcopal,2827 Wheat St,Columbia,SC,29205
St Luke's Episcopal Church,1300 Pine St,Columbia,SC,29204
St Martin's in the Fields,5220 Clemson Ave,Columbia,SC,29206
St Mary's Episcopal Church,170 Saint Andrews Rd,Columbia,SC,29210
St Michael's ,6408 Bridgewood Rd,Columbia,SC,29206
Trinity Episcopal Cathedral,1100 Sumter St,Columbia,SC,29201
Beth Shalom Synagogue,5827 N Trenholm Rd,Columbia,SC,29206
Tree of Life Congregation,6719 N Trenholm Rd,Columbia,SC,29206
Christ the King Lutheran Chr,PO Box 9161,Columbia,SC,29290
Christus Victor Lutheran Chr,400 Harbison Blvd,Columbia,SC,29212
Ebenezer Lutheran Church,1301 Richland St,Columbia,SC,29201
Living Springs Lutheran Church,4224 Hard Scrabble Rd,Columbia,SC,29223
Lutheran Church of Incarnation,3005 Devine St,Columbia,SC,29205
Lutheran Church-the Ascension,827 Wildwood Ave,Columbia,SC,29203
Reformation Lutheran Church,1118 Union St,Columbia,SC,29201
St Andrew's Lutheran Church,1416 Broad River Rd,Columbia,SC,29210
St Luke's Lutheran Church,206 Central Ave,Summerville,SC,29483
St Michael's Lutheran Church,2619 Augusta St,Greenville,SC,29605
St Paul's Lutheran Church,246 Saint Pauls Church Rd,Gilbert,SC,29054
Asbury Memorial United Meth,1005 Asbury Dr,Columbia,SC,29209
Bethel African Methodist Chr,PO Box 431,Columbia,SC,29202
Brown Chapel Ame,808 Barnes St,Columbia,SC,29201
College Place United Methodist,4801 Colonial Dr,Columbia,SC,29203
Fair Lawn United Methodist Chr,9203 Wilson Blvd,Columbia,SC,29203
Francis Burns United Methodist,5616 Farrow Rd,Columbia,SC,29203
Grace United Methodist Church,PO Box 996,Pickens,SC,29671
Greene Street United Methodist,1106 Greene St,Columbia,SC,29201
I Dequincey Newman United Meth,7801 Wilson Blvd,Columbia,SC,29203
Jones Memorial Ame Zion Chr,2400 Barhamville Rd,Columbia,SC,29204
Leisure Ministries Ctr,3407 Devine St,Columbia,SC,29205
Mill Creek United Methodist,1136 Universal Dr,Columbia,SC,29209
Mt Pleasant United Methodist,736 Camp Ground Rd,Columbia,SC,29203
Northeast United Methodist Chr,4000 Hard Scrabble Rd,Columbia,SC,29223
Pine Grove Ame Church,120 Steward Dr,Columbia,SC,29210
Rehoboth United Meth Church,6911 Two Notch Rd,Columbia,SC,29223
Sidney Park Cme Church,1114 Blanding St,Columbia,SC,29201
St Mark United Methodist Chr,413 Geddes Ave,Charleston,SC,29407
Suber-Marshall Memorial United,3900 Live Oak St,Columbia,SC,29205
Virginia Wingard Memorial Meth,1500 Broad River Rd,Columbia,SC,29210
Washington Street United Meth,1401 Washington St,Columbia,SC,29201
Wesley Memorial United Meth,2501 Heyward St,Columbia,SC,29205
Wesley United Methodist Church,446 Meeting St,Charleston,SC,29403
Whaley Street United Methodist,517 Whaley St,Columbia,SC,29201
Windsor United Methodist Chr,9500 Windsor Lake Blvd,Columbia,SC,29223
Family Outreach Word ,631 Sparkleberry Ln,Columbia,SC,29229
Fellowship Bible Church,6108 Bush River Rd,Columbia,SC,29212
Glory Church,PO Box 24685,Columbia,SC,29224
God's Church of Deliverance,PO Box 7373,Columbia,SC,29202
Grace ,6400 Bishop Ave,Columbia,SC,29203
Grace Church,PO Box 12597,Columbia,SC,29211
International Family Church,PO Box 210129,Columbia,SC,29221
New Covenant Church,3220 Platt Springs Rd,West Columbia,SC,29170
New Life World Ministries,"2500 Decker Blvd, #d4",Columbia,SC,29206
Potters Christian Life Ctr,3931 Broad River Rd,Columbia,SC,29210
Right Direction Christian Ctr,PO Box 21672,Columbia,SC,29221
Seacoast Christian Community,750 Long Point Rd,Mt Pleasant,SC,29464
St Andrews Evangelical Church,2609 Seminole Rd,Columbia,SC,29210
Stedfast Christian Ctr,PO Box 23593,Columbia,SC,29224
Holy Trinity Greek Orthodox,1931 Sumter St,Columbia,SC,29201
Bible Way Church of Atlas Road,PO Box 90309,Columbia,SC,29290
Christian Life Assembly,2700 Bush River Rd,Columbia,SC,29210
Church of God,3132 W Palmetto St,Florence,SC,29501
Family Ministry Ctr,3600 Colonial Dr,Columbia,SC,29203
Family Worship Ctr Church-God,9558 Two Notch Rd,Columbia,SC,29223
Full Gospel Word ,PO Box 2169,Columbia,SC,29202
Progressive Church of Our Lord,2222 Barhamville Rd,Columbia,SC,29204
Refuge Temple Church,4450 Argent Ct,Columbia,SC,29203
Centennial Associate Reformed,1413 Laurel St,Columbia,SC,29201
Cornerstone Presbyterian Chr,5637 Bush River Rd,Columbia,SC,29212
Eastminster Presbyterian Chr,2240 Woodruff Rd,Simpsonville,SC,29681
Forest Lake Presbyterian Chr,6500 N Trenholm Rd,Columbia,SC,29206
Mc Gregor Presbyterian Church,6505 Saint Andrews Rd,Columbia,SC,29212
Northeast Presbyterian Church,601 Polo Rd,Columbia,SC,29223
Northminster Presbyterian Chr,6717 David St,Columbia,SC,29203
Seven Oaks Presbyterian Church,530 Saint Andrews Rd,Columbia,SC,29210
Sherwood Forest Assoc Church,4325 Wilmot Ave,Columbia,SC,29205
Spring Valley Presbyterian Chr,125 Sparkleberry Ln,Columbia,SC,29229
Trinity Presbyterian Church,PO Box 14758,Surfside Beach,SC,29587
Gospel Temple Of Deliverance,425 N Brickyard Rd,Columbia,SC,29223
Grace Church Of Columbia,2710 Harrison Rd,Columbia,SC,29204
United House Of Prayer,220 Us Highway 321 Byp S,Winnsboro,SC,29180
God Church Of Deliverance,141 S Shandon St,Columbia,SC,29205
Central Assembly Of God,721 Arrowwood Rd,Columbia,SC,29210
Holy Temple Of God,6306 Fairfield Rd,Columbia,SC,29203
Apostolic Church Of Christ,1041 Prescott Rd,Columbia,SC,29203
God's Church Of Deliverance,3950 Clement Rd,Columbia,SC,29203
Evangel Assembly Of God,2768 Decker Blvd,Columbia,SC,29206
Christ Church Of Carolinas,1812 Barnwell St,Columbia,SC,29201
Joy Praise ,5820 Shakespeare Rd,Columbia,SC,29223
Our Lady Of Hills Catholic,120 Marydale Ln,Columbia,SC,29210
Agape Worship Center Church Of God,440 Lee Rd,Columbia,SC,29229
Soaring Eagles Of Faith International,3740 Covenant Rd,Columbia,SC,29204
Hindu Temple ,5704 Bush River Rd,Columbia,SC,29212
Pleasant Spring Ame Church,675 Coldstream Dr,Columbia,SC,29212
Grace Covenant Church,227 Lincreek Dr,Columbia,SC,29212
Scholl Ministries International,455 Saint Andrews Rd,Columbia,SC,29210
Woodland Hills Cmnty Church,2626 Ashland Rd,Columbia,SC,29210
Ashland United Methodist Church,2600 Ashland Rd,Columbia,SC,29210
Columbia Crossroads Church,2723 Ashland Rd,Columbia,SC,29210
Gillsboro Publishing Mnstrs,712 Cornhill Rd,Columbia,SC,29210
Presbyterian Communities Of South Carolina Management,2817 Ashland Rd,Columbia,SC,29210
New Life Baptist Church,111 Old Moncks Corner Rd,Goose Creek,SC,29445
Friendship Ame Church,1449 Bush River Rd,Columbia,SC,29210
First Baptist Church Of Irmo,7068 Nursery Rd,Columbia,SC,29212
Perception Ministries,736 Saint Andrews Rd,Columbia,SC,29210
St Andrews Presbyterian Church,PO Box 788,Irmo,SC,29063
Columbia Zen Buddhist Priory,426 Arrowwood Rd,Columbia,SC,29210
7Th Episcopal District-ame Church,110 Pisgah Church Rd,Columbia,SC,29203
Abundant Life Fellowship,PO Box 2244,Florence,SC,29503
Abundant Life Outreach Mnstry,1034 Briargate Cir,Columbia,SC,29210
Adams Northeast Ame Church,409 Longtown Rd,Columbia,SC,29229
African Christian Fellowship,3133 Travis Ct,Columbia,SC,29204
Agape Christian Church Doc,627 Dixie Ave,Columbia,SC,29203
Agape Church Of God In Christ,201 Plumbers Rd,Columbia,SC,29203
Agape Senior,4520 Trenholm Rd,Columbia,SC,29206
Agape Worship Center Chr Of God,424 Lee Rd,Columbia,SC,29229
Alpine Baptist- Old Country,4930 Alpine Rd,Columbia,SC,29223
Amundson Melvin E Rev,1003 Richland St,Columbia,SC,29201
Andrew Johnson Rev,5010 Barony Dr,Columbia,SC,29203
Anglican Church- Epiphany,2512 N Beltline Blvd,Columbia,SC,29204
Apostle Fbh Church,412 Taylor St,Columbia,SC,29201
Apostle Jf Clay,6801 Two Notch Rd,Columbia,SC,29223
Broad River Baptist Church,2315 Legion Rd,Smyrna,SC,29743
Cherokee Falls Baptist Church,1121 S Charleston St,Blacksburg,SC,29702
Nazareth Baptist Church,1156 Ninety-Nine Island Rd,Blacksburg,SC,29702
A R Presbyterian Church,159 Main St,Chester,SC,29706
Cedar Grove Baptist Church,5025 Highway 378,Conway,SC,29527
Cedar Shoals Baptist Church,1045 Cooley Bridge Rd,Belton,SC,29627
Science Hill Baptist Church,PO Box 62,Edgefield,SC,29824
Edgefield Methodist Church,PO Box 25,Edgefield,SC,29824
Augusta Heights Baptist Church,3018 Augusta St,Greenville,SC,29605
Augusta Road Baptist Church,1823 Augusta St,Greenville,SC,29605
Berea First Baptist Church,529 Farrs Bridge Rd,Greenville,SC,29611
Berea Heights Baptist Church,6914 White Horse Rd,Greenville,SC,29611
Bethuel Baptist Church,21 Dolphin St,Greenville,SC,29605
Brandon Baptist Church,16 Calder St,Greenville,SC,29611
Brookwood Community Church,3161 S Highway 14,Greenville,SC,29615
Buncombe Road Baptist Church,111 Courtney Cir,Greenville,SC,29617
Calvary First Baptist Church,11 Tampa St,Greenville,SC,29609
Cedar Lane Baptist Church,PO Box 531,Greenville,SC,29602
Choice Hills Baptist Church,5910 Old Buncombe Rd,Greenville,SC,29609
City View First Baptist Church,2300 W Blue Ridge Dr,Greenville,SC,29611
Dunean Baptist Church,21 Allen St,Greenville,SC,29605
Earle Street Baptist Church,225 W Earle St,Greenville,SC,29609
East North Street Baptist Chr,4108 E North St,Greenville,SC,29615
East Park Baptist Church,12 Ebaugh Ave,Greenville,SC,29607
Eastlan Baptist Church,625 S Pleasantburg Dr,Greenville,SC,29607
Edgewood Baptist Church,107 Meadow Wood Dr,Greenville,SC,29615
Edwards Road Baptist-Weekday,1050 Edwards Rd,Greenville,SC,29615
Forestville Baptist Church,2 Old McElhaney Rd,Greenville,SC,29617
Freedom Baptist Church,PO Box 14067,Greenville,SC,29610
Grove Road Baptist Church,1223 Grove Rd,Greenville,SC,29605
Hampton Heights Baptist Church,2511 Wade Hampton Blvd,Greenville,SC,29615
Hampton Park Baptist Church,875 State Park Rd,Greenville,SC,29609
Hilltop Ave Baptist Church,111 Hilltop Ave,Greenville,SC,29609
Laurel Baptist Church,2250 Pine St,West Columbia,SC,29170
Leawood Baptist Church,401 State Park Rd,Greenville,SC,29609
Lowndes Hill Baptist Church,1516 Lowndes Hill Rd,Greenville,SC,29607
Monaghan Baptist Church,1500 W Parker Rd,Greenville,SC,29617
Morgan Memorial Baptist,2300 Old Buncombe Rd,Greenville,SC,29609
Mountain Creek Baptist Church,255 W Mountain Creek Church Rd,Greenville,SC,29609
Mt Sinai Baptist Church,PO Box 4312,Greenville,SC,29608
Northgate Baptist Church,1217 N Ebenezer Rd,Florence,SC,29501
Oak Crest Baptist Church,1 Alabama Ave,Greenville,SC,29611
Overbrook Bapt Chr Child Care,1705 E North St,Greenville,SC,29607
Park Place Baptist Church,PO Box 4191,Greenville,SC,29608
Parkwood Baptist Church,2140 State Park Rd,Greenville,SC,29609
Pelham Road Baptist Church,PO Box 25818,Greenville,SC,29616
Pendleton Street Baptist Chr,601 S Pendleton St,Easley,SC,29640
Piedmont Park Baptist Church,801 Piedmont Park Rd,Greenville,SC,29609
Queen Street Baptist Church,6 Baywood Ave,Greenville,SC,29607
Reedy Fork Baptist Church,3115 Fork Shoals Rd,Simpsonville,SC,29680
Reedy River Baptist Church,PO Box 676,Mauldin,SC,29662
Rocky Creek Baptist Church,PO Box 635,Simpsonville,SC,29681
Roper Mountain Baptist Church,300 Roper Mountain Rd Ext,Greenville,SC,29615
Sans Souci Baptist Church,3100 Old Buncombe Rd,Greenville,SC,29609
Shadyoak Baptist Church,PO Box 8085,Greenville,SC,29604
Tanglewood Baptist Church,2801 Old Easley Bridge Rd,Greenville,SC,29611
Truth Missionary Baptist Chr,PO Box 14999,Greenville,SC,29610
Unity Baptist Church,105 Unity Church Rd,Starr,SC,29684
Valley Brook Outreach Bapt Chr,PO Box 26916,Greenville,SC,29616
Washington Avenue Baptist Chr,200 N Washington Ave,Greenville,SC,29611
Welcome Baptist Church,4800 Highway 76,Pendleton,SC,29670
West Greenville Baptist Church,551 Perry Ave,Greenville,SC,29611
White Oak Baptist Church,1805 Wade Hampton Blvd,Greenville,SC,29609
Woodside Baptist Church,301 Woodside Ave,Greenville,SC,29611
Wrenn Memorial Baptist Church,19 Sidney St,Greenville,SC,29609
Our Lady of the Rosary,PO Box 8396,Greenville,SC,29604
Woodruff Road Christian Church,20 Bell Rd,Greenville,SC,29607
Church of Christ I-85,111 Tuskegee Ave,Greenville,SC,29607
Christ Episcopal Church,PO Box 279,Mt Pleasant,SC,29465
Church of the Redeemer,PO Box 9398,Greenville,SC,29604
St James Episcopal Church,1872 Camp Rd,Charleston,SC,29412
Salvation Army,PO Box 1237,Greenville,SC,29602
Faith Cathedral,PO Box 8277,Greenville,SC,29604
Beth Israel Synagogue,425 Summit Dr,Greenville,SC,29609
Temple of Israel,400 Spring Forest Rd,Greenville,SC,29615
Lutheran Church of Our Saviour,2600 Wade Hampton Blvd,Greenville,SC,29615
Trinity Lutheran Church,421 N Main St,Greenville,SC,29601
Allen Temple Ame Church,109 Green Ave,Greenville,SC,29601
Berea Friendship United Meth,8001 White Horse Rd,Greenville,SC,29617
Buncombe Street United,PO Box 1988,Greenville,SC,29602
Disciples United Methodist Chr,185 Riley Smith Dr,Greenville,SC,29615
Francis Asbury United Meth Chr,1800 E North St,Greenville,SC,29607
Israel Metropolitan Cme Church,305 N Calhoun St,Greenville,SC,29601
John Wesley United Methodist,626 Savannah Hwy,Charleston,SC,29407
Monaghan Methodist Church,2 McBeth St,Greenville,SC,29611
Northside United Methodist Chr,435 Summit Dr,Greenville,SC,29609
Salem United Methodist Church,PO Box 237,Ballentine,SC,29002
St Matthew United Methodist,701 Cleveland St,Greenville,SC,29601
Young Laymen Cme Church,15 Sumlar Dr,Greenville,SC,29607
Centro Internacional Cristiano,PO Box 26563,Greenville,SC,29616
Evangelistic Temple Church,PO Box 4199,Greenville,SC,29608
Mt Zion Christian Fellowship,725 Garlington Rd,Greenville,SC,29615
New Life Child Development Ctr,212 Roper Mountain Rd Ext,Greenville,SC,29615
Southside Fellowship,PO Box 26569,Greenville,SC,29616
St George Greek Orthodox Chr,15 Decamp St,Greenville,SC,29601
Church of God Park Place,221 Orders St,Greenville,SC,29609
Cornerstone Christian Fllwshp,2701 Wade Hampton Blvd,Greenville,SC,29615
First Assembly of God,2957 Savannah Hwy,Charleston,SC,29414
Greenville Agnew Church of God,200 Agnew Rd,Greenville,SC,29617
Life Restoration Ctr,523 Old Easley Hwy,Greenville,SC,29611
Tremont Avenue Church of God,218 Tremont Ave,Greenville,SC,29605
Faith Free Presbyterian Church,1207 Haywood Rd,Greenville,SC,29615
Fourth Presbyterian Church,703 E Washington St,Greenville,SC,29601
Greenville Associate Church,741 Cleveland St,Greenville,SC,29601
John Knox Presbyterian Church,35 Shannon Dr,Greenville,SC,29615
Mitchell Road Presbyterian Chr,207 Mitchell Rd,Greenville,SC,29615
Providence Presbyterian Church,1112 Hummingbird Dr,West Columbia,SC,29169
Russell Memorial Presbyterian,31 Calhoun Ave,Greenville,SC,29617
Shannon Forest Presbyterian,830 Garlington Rd,Greenville,SC,29615
St Giles Presbyterian Church,1021 Hudson Rd,Greenville,SC,29615
Tremont Church Of God,2854 New Easley Hwy,Greenville,SC,29611
Woodside Church Of God,1410 W Parker Rd,Greenville,SC,29617
Donaldson Church Of God,1330 Fork Shoals Rd,Greenville,SC,29605
I-85 Church Of Christ,10 Lone Tree Ct,Greenville,SC,29605
Christian Assembly Of God,2416 Wade Hampton Blvd,Greenville,SC,29615
Crach Church Of Greenville,37 Pinckney St,Greenville,SC,29601
Greenville Church Of Christ,400 High Valley Blvd,Greenville,SC,29605
Vineyard Church Of Greenville,208 Blacks Dr,Greenville,SC,29615
Bethel Church Of God,504 Oscar St,Greenville,SC,29601
Rock Church Of Greenville,1127 White Horse Rd,Greenville,SC,29605
Abundant Life Church,1945 Bees Ferry Rd,Charleston,SC,29414
Adams James B Senior Pastor,1010 Hampton Ave,Greenville,SC,29601
Agnew Road Baptist Church,400 Rainbow Dr,Greenville,SC,29617
All Sts Church,8 Bennett St,Greenville,SC,29601
Allen Temple Comm Dev Center,404 Vardry St,Greenville,SC,29601
Allen Temple Community Dev Center,103 Landwood Ave,Greenville,SC,29607
American Grocery Restaurant,732 S Main St,Greenville,SC,29601
American Leprosy Mission,120 Broadus Ave,Greenville,SC,29601
Anchorage,125 Broadus Ave,Greenville,SC,29601
Anderson Ray Rev,306 N Franklin Rd,Greenville,SC,29609
Antioch Missionary Baptist Chu,12 Pack St,Greenville,SC,29611
Apostolic Temple,124 Judson Rd,Greenville,SC,29611
Arcadia First Baptist Church,PO Box 25,Arcadia,SC,29320
West Gate Free Will Bapt Chr,PO Box 219,Arcadia,SC,29320
Arrowood Baptist Church,1410 Highway 11 W,Chesnee,SC,29323
Buck Creek Baptist Church,506 Buck Creek Rd,Chesnee,SC,29323
Casey Creek Baptist Church,1199 Casey Creek Rd,Chesnee,SC,29323
Chesnee First Baptist Church,211 S Kentucky Ave,Chesnee,SC,29323
Austin Road Baptist Church,1619 Austin Rd,Honea Path,SC,29654
Barkers Creek Baptist Church,3207 Highway 252,Honea Path,SC,29654
Chiquola Baptist Church,405 E Greer St,Honea Path,SC,29654
Keowee Baptist Church,4640 Keowee Rd,Honea Path,SC,29654
Little River Baptist Church,2847 Keowee Rd,Honea Path,SC,29654
Baptist Collegiate Ministry,PO Box 350,Clemson,SC,29633
East Clemson Baptist Church,130 Frontage Rd,Clemson,SC,29631
University Baptist Church,PO Box 1643,Clemson,SC,29633
St Andrews Catholic Church,503 37th Ave N,Myrtle Beach,SC,29577
Holy Trinity Episcopal Church,95 Folly Rd Blvd,Charleston,SC,29407
Lutheran Campus Ministry,PO Box 1337,Clemson,SC,29633
Clemson United Methodist,195 Old Greenville Hwy,Clemson,SC,29631
Lawrence Chapel United Meth Ch,PO Box 1912,Clemson,SC,29633
Downtown Community Fellowship,PO Box 808,Clemson,SC,29633
Clemson Presbyterian Church,346 Old Greenville Hwy,Clemson,SC,29631
Fort Hill Presbyterian Church,399 College Ave,Clemson,SC,29631
Uu Fellowship Of Clemson,226 Pendleton Rd,Clemson,SC,29631
Clemson Church Of Christ,167 Old Greenville Hwy,Clemson,SC,29631
Abel Baptist Church,150 Abel Rd,Clemson,SC,29631
Bath First Baptist Church,PO Box 240,Bath,SC,29816
Bath Pentecostal Holiness Chr,PO Box H,Bath,SC,29816
Beaver Hills Baptist Church,3700 S Church St Ext,Roebuck,SC,29376
Roebuck Baptist Church,PO Box 490,Roebuck,SC,29376
Walnut Grove United Methodist,1335 Walnut Grove Rd,Roebuck,SC,29376
Harvest House Ministries,PO Box 1437,Roebuck,SC,29376
Mt Calvary Presbyterian Church,1399 Walnut Grove Rd,Roebuck,SC,29376
Roebuck Church Of God,1080 Canaan Rd,Roebuck,SC,29376
Bellview Baptist Church,901 Bellview Rd,Woodruff,SC,29388
Lower Shady Grove Baptist Chr,1552 Switzer Green Pond Rd,Woodruff,SC,29388
Selma Baptist Church,850 Lawson Rd,Woodruff,SC,29388
Westend Baptist Church,PO Box 205,Woodruff,SC,29388
Emma Gray Meml United Meth Chr,PO Box 271,Woodruff,SC,29388
Trinity African Methodist Chr,PO Box 412,Woodruff,SC,29388
Switzer Church Of God,1464 Old Switzer Rd,Woodruff,SC,29388
Allen View United Methodist,110 Cunningham Cir,Woodruff,SC,29388
Antioch Presbyterian Church,3600 Highway 417,Woodruff,SC,29388
Bel-Ridge Baptist Church,108 Monterey Ave,Belvedere,SC,29841
Berkeley Baptist Church,2045 Highway 52,Moncks Corner,SC,29461
Cordesville First Baptist Chr,1913 Highway 402,Moncks Corner,SC,29461
St John's Bethel Baptist Chr,136 Saint Johns Bethel St,Moncks Corner,SC,29461
Wassamassaw Baptist Church,PO Box 926,Moncks Corner,SC,29461
St Philip Benizi Catholic,1404 Old Highway 52,Moncks Corner,SC,29461
Canaan Christian Church,1232 Queenie Rd,Moncks Corner,SC,29461
Moncks Corner Ame Church,306 W Main St,Moncks Corner,SC,29461
Moncks Corner United Meth Chr,200 N Live Oak Dr,Moncks Corner,SC,29461
Moncks Corner United Methodist,PO Box 925,Moncks Corner,SC,29461
Oakley Road Ministries,PO Box 595,Moncks Corner,SC,29461
Berkeley Church Of Christ,1483 Highway 52,Moncks Corner,SC,29461
Abiding Word Family Ministries,227 Abiding Way,Moncks Corner,SC,29461
Anderson Baptist Church,984 PO Box,Moncks Corner,SC,29461
Berlin Baptist Church,203 Berlin Rd,Salley,SC,29137
Rocky Grove Baptist Church,PO Box 508,Salley,SC,29137
Eastview Baptist Church,1430 Gordon Rd,Rock Hill,SC,29732
Shady Grove Baptist Church,PO Box 806,Belton,SC,29627
Triangle Church,1340 Blue Ridge Ave,Belton,SC,29627
Welfare Baptist Church,2106 Bolt Dr,Belton,SC,29627
Whitefield Baptist Church,207 Mitchell Rd,Belton,SC,29627
Latimer United Memorial Meth,PO Box 357,Belton,SC,29627
Belton Church of God,PO Box 642,Belton,SC,29627
Belton Pentecostal Holiness,PO Box 661,Belton,SC,29627
Belton Church Of God,313 N Main St,Belton,SC,29627
Bethel Baptist Church,PO Box 2168,Aiken,SC,29802
Cherokee Avenue Baptist Chr,805 Cherokee Ave,Gaffney,SC,29340
Cherokee Creek Baptist Church,502 Buck Shoals Rd,Gaffney,SC,29341
Corinth Baptist Church,PO Box 464,New Ellenton,SC,29809
Draytonville Baptist Church,179 Draytonville Church Rd,Gaffney,SC,29340
East Gaffney Baptist Church,2308 Cherokee Ave,Gaffney,SC,29340
Goucher Baptist Church,415 Goucher Creek Rd,Gaffney,SC,29340
Grassy Pond Baptist Church,254 Grassy Pond Rd,Gaffney,SC,29341
High Point Baptist Church,504 High Point Rd,Gaffney,SC,29341
Kirby Memorial Baptist Church,417 Chandler Dr,Gaffney,SC,29340
Limestone Baptist Church,PO Box 754,Gaffney,SC,29342
Midway Baptist Church,506 Saint James Ave,Goose Creek,SC,29445
New Pleasant Baptist Church,242 New Pleasant Rd,Gaffney,SC,29341
State Line Baptist Church,1328 State Line Rd,Gaffney,SC,29341
Suck Creek Baptist Church,144 Suck Creek Church Rd,Gaffney,SC,29341
West End Baptist Church,PO Box 36038,Rock Hill,SC,29732
Sacred Heart Catholic Church,407 Grace St,Gaffney,SC,29340
Buford Street United Methodist,120 E Buford St,Gaffney,SC,29340
Limestone Street Methodist Chr,910 N Limestone St,Gaffney,SC,29340
Shalom Christian Fellowship,1012 Beech St,Gaffney,SC,29340
New Harvest Church of God,120 Boiling Springs Hwy,Gaffney,SC,29341
Limestone Presbyterian Church,101 E Jefferies St,Gaffney,SC,29340
Abingdon Creek Baptist Church,188 Abingdon Rd,Gaffney,SC,29340
Bethany Free Will Baptist Chr,4071 Creek Rd,Timmonsville,SC,29161
Lake Swamp Baptist Church,6558 Oates Hwy,Timmonsville,SC,29161
Mount Carmel Baptist Church,805 Mt Carmel Rd,Timmonsville,SC,29161
Peniel Baptist Church,4186 Twin Church Rd,Timmonsville,SC,29161
Sardis Baptist Church,1144 Saint Matthews Rd,Swansea,SC,29160
Sparrow Swamp Baptist Church,3234 S Hill Rd,Timmonsville,SC,29161
Timmonsville Church Of Christ,1672 Darlington St,Timmonsville,SC,29161
Bethcar Baptist Church,312 Hallman Wagon Rd,Batesburg-Leesville,SC,29070
Saron Baptist Church,PO Box 623,Wagener,SC,29164
Antioch Bible Way Church,614 Seivern Rd,Wagener,SC,29164
All Saints Catholic Mission,530 Highway 274,Clover,SC,29710
Episcopal Church-Good Shepherd,PO Box 437,York,SC,29745
Kings Mountain Chapel Meth Chr,2040 SC-161,York,SC,29745
Beth Shiloh Presbyterian Chr,1184 N Shiloh Rd,York,SC,29745
Bethesda Presbyterian Church,4858 McConnells Hwy,York,SC,29745
Filbert Presbyterian Church,2066 Filbert Hwy,York,SC,29745
Tirzah Associate Reformed Chr,6161 Mount Gallant Rd,York,SC,29745
Abiding Presence Lutheran Chr,323 N Congress St,York,SC,29745
Agape International Ministries,135 S Oakland Ave,Rock Hill,SC,29730
Allison Creek Presbyterian Chr,5780 Allison Creek Rd,York,SC,29745
Cedar Creek Church,3001 Banks Mill Rd,Aiken,SC,29803
Couchton Baptist Church,3171 Wagener Rd,Aiken,SC,29801
Levels Baptist Church,2456 Levels Church Rd,Aiken,SC,29801
Memorial Baptist Church,PO Box 566,St George,SC,29477
Mount Anna Baptist Church,2612 Banks Mill Rd,Aiken,SC,29803
Redds Branch Baptist Church,390 Redds Branch Rd,Aiken,SC,29801
Rocky Springs Baptist Church,718 Sundy Ave NE,Aiken,SC,29801
Second Baptist Church Ofc,425 Hampton Ave NW,Aiken,SC,29801
Shiloh Baptist Church,646 Dacusville Rd,Marietta,SC,29661
Solid Rock Baptist Church,PO Box 5239,Aiken,SC,29804
South Aiken Baptist School,980 Dougherty Rd,Aiken,SC,29803
Town Creek Baptist Church,250 Town Creek Rd,Aiken,SC,29803
St Mary Help of Christians,PO Box 438,Aiken,SC,29802
St Thaddeus Episcopal Church,125 Pendleton St SW,Aiken,SC,29801
St John's United Methodist,PO Box 149,Rock Hill,SC,29731
New Covenant Praise Church,265 Wire Rd,Aiken,SC,29801
River of Life,1411 Columbia Hwy N,Aiken,SC,29801
South Aiken Church of God,2700 Whiskey Rd,Aiken,SC,29803
S Aiken Presbyterian Chr Schl,1711 Whiskey Rd,Aiken,SC,29803
Aiken Church Of Christ,134 Rinehart Way,Aiken,SC,29803
Adelphi Christian School,142 Talatha Church Rd,Aiken,SC,29803
Aiken Seventh-day Adventist,217 Gregg Ave,Aiken,SC,29801
Aiken Congregational Holiness,1611 Park Ave SE,Aiken,SC,29801
Aiken Unitarian Universalist Church,115 Gregg Ave,Aiken,SC,29801
All Saints Anglican Church,110 Fairfield St NE,Aiken,SC,29801
Almond Branch Baptist,334 Church St,Aiken,SC,29801
Apostolic Faith Church,135 Orangeburg St SE,Aiken,SC,29801
Bethlehem Mb Church,PO Box 1340,Conway,SC,29528
First Baptist Church of Conway,PO Box 415,Conway,SC,29528
Good Hope Baptist Church,PO Box 645,St George,SC,29477
Hickory Grove Baptist Church,2710 Highway 905,Conway,SC,29526
Homewood Baptist Church,3290 S Carolina 319,Conway,SC,29526
Jamestown Baptist Church,2501 9th Ave,Conway,SC,29527
Juniper Bay Baptist Church,5265 Juniper Bay Rd,Conway,SC,29527
Langston Baptist Church,PO Box 1247,Conway,SC,29528
Maple Baptist Church,4500 Highway 65,Conway,SC,29526
North Conway Baptist Day Schl,1608 Sessions St,Conway,SC,29526
Prayer Center,1672 Highway 905,Conway,SC,29526
Sweetwater Branch Baptist Ch,1436 Highway 544,Conway,SC,29526
Tilly Swamp Baptist Church,4619 Highway 90,Conway,SC,29526
St James Catholic Church,1071 Academy Dr,Conway,SC,29526
St Paul's Episcopal Church,111 Waring St,Summerville,SC,29483
Christ the Servant Lutheran,2105 E Highway 501,Conway,SC,29526
First United Methodist Church,PO Box 807,Isle of Palms,SC,29451
Christ Community Church,700 Harrison Bridge Rd,Simpsonville,SC,29680
Mason Temple Church of God,PO Box 24,Conway,SC,29528
Kingston Presbyterian Church,800 3rd Ave,Conway,SC,29526
Waccamaw House Of Worship,7839 Highway 701 S,Conway,SC,29527
Spiritual Assembly Of Baha'is,2601 4th Ave,Conway,SC,29527
Conway Church Of God,3111 Cultra Rd,Conway,SC,29526
Conway Church Of Christ,4107 Highway 378,Conway,SC,29527
Byzantine Eparchy Of Passa,3059 Highway 90,Conway,SC,29526
Conway Church Of Nazarene,210 Highway 90,Conway,SC,29526
Anointed Word Of God Ministry,2300 9th Ave,Conway,SC,29527
Church Of God River Of Life,706 Highway 544,Conway,SC,29526
Korean Church Of Myrtle Beach,715 Drawbridge Dr,Conway,SC,29526
Abundant Harvest,4258 W Highway 501,Conway,SC,29526
Abundant Harvest Family Fellowship,689 Rose Moss Rd,Conway,SC,29527
Altman Eddie T,721 French Collins Rd,Conway,SC,29526
Altman William P,2685 Oak St,Conway,SC,29526
Amazing Grace Lutheran Church,152 Waccamaw Medical Park Ct,Conway,SC,29526
Hulon Baptist Church,133 Hulon Church Rd,Batesburg,SC,29006
Mount Ebal Baptist Church,5 Lion Loop,Batesburg,SC,29006
Amick Grove Pentecostal Church,2090 Batesburg Hwy,Batesburg,SC,29006
Bible Baptist Church,PO Box 266,Fort Mill,SC,29716
Cedar Grove Missionary Baptist,PO Box 837,Simpsonville,SC,29681
Clear Springs Baptist Church,301 Bethany Rd,Simpsonville,SC,29681
Faith Baptist Church,500 W Lee Rd,Taylors,SC,29687
Five Forks Baptist Church,112 Batesville Rd,Simpsonville,SC,29681
Holly Ridge Baptist Church,260 Adams Mill Rd,Simpsonville,SC,29681
Old Pilgrim Baptist Church,3540 Woodruff Rd,Simpsonville,SC,29681
Standing Springs Baptist Chr,1111 W Georgia Rd,Simpsonville,SC,29680
St Mary Magdalene Catholic Chr,2252 Woodruff Rd,Simpsonville,SC,29681
Holy Cross Episcopal Church,PO Box 187,Simpsonville,SC,29681
Advent United Methodist Church,2258 Woodruff Rd,Simpsonville,SC,29681
Hopewell United Methodist Chr,PO Box 80367,Simpsonville,SC,29680
Simpsonville United Methodist,PO Box 1357,Simpsonville,SC,29681
Calvary Chapel of Greenville,1636 Bethel Rd,Simpsonville,SC,29681
Crossroads Community Church,505 Gahagan Rd,Summerville,SC,29485
Abundant Life Church of God,1108 NE Main St,Simpsonville,SC,29681
Word of Life Ministries,PO Box 753,Simpsonville,SC,29681
Woodruff Road Presbyterian Chr,2519 Woodruff Rd,Simpsonville,SC,29681
Mauldin Church Of Christ,4 Gillin Dr,Simpsonville,SC,29680
Abiding Peace Lutheran Church,401 Batesville Rd,Simpsonville,SC,29681
Ambassador Fellowship International,606 Oak Valley Dr,Simpsonville,SC,29681
Beulah Baptist Church,9487 Garners Ferry Rd,Hopkins,SC,29061
Crestview Baptist Church,PO Box 358,Fountain Inn,SC,29644
Fairview Street Baptist Church,609 Fairview St,Fountain Inn,SC,29644
Hillside Baptist Church,501 Hillside Church Rd,Fountain Inn,SC,29644
Fountain Inn Presbyterian,PO Box 337,Fountain Inn,SC,29644
New Light Beulah Baptist Chr,1330 Congaree Rd,Hopkins,SC,29061
Progressive Church Of Our Lord,6844 Lower Richland Blvd,Hopkins,SC,29061
Apostolic Doctrine Evnglstc,1431 Dry Branch Rd,Hopkins,SC,29061
Flint Hill Baptist Church,PO Box 3041,Rock Hill,SC,29732
Indianland Baptist Church,7583 Charlotte Hwy,Fort Mill,SC,29707
Pleasant Valley Baptist Church,211 Marvin Rd,Fort Mill,SC,29707
Sisk Memorial Baptist Church,115 Massey St,Fort Mill,SC,29715
Tega Cay Baptist Church,PO Box 3340,Fort Mill,SC,29708
St Phillip Neri Catholic Chr,Munn Rd E,Fort Mill,SC,29715
Church of Christ at Gold Hill,PO Box 3496,Fort Mill,SC,29708
Church of the Nazarene,109 Harris St,Fort Mill,SC,29715
Lake Wylie Lutheran Preschool,2906 Highway 160 W,Fort Mill,SC,29708
Belair United Methodist,8095 Shelley Mullis Rd,Fort Mill,SC,29707
Philadelphia United Methodist,1691 Highway 160 W,Fort Mill,SC,29708
Pleasant Hill United Meth Chr,238 Fort Mill Hwy,Fort Mill,SC,29707
St John's United Methodist Chr,PO Box 2220,Batesburg-Leesville,SC,29070
Higher Ground Church,8365 Possum Hollow Rd,Fort Mill,SC,29707
Faith Bible Church,3585 Center Cir,Fort Mill,SC,29715
Doby Bridge Presbyterian,PO Box 1028,Fort Mill,SC,29716
Grace Presbyterian Church,PO Box 3454,Fort Mill,SC,29708
Unity Presbyterian Church,PO Box 1267,Fort Mill,SC,29716
New Covenant Christian Worship,4329 Cole Creek Dr,Fort Mill,SC,0
All Nations Christian Academy ,360 Hammond Rd,Fort Mill,SC,29715
Big Creek Baptist Church,PO Box 187,Williamston,SC,29697
Mt Pleasant Baptist Church,310 Gator Rd,Gaston,SC,29053
Crossroads Assembly Of God,111 Highway 77,Williamston,SC,0
Big Stevens Creek Baptist Chr,1850 Martintown Rd,North Augusta,SC,29860
Carpentersville Baptist Church,415 Carpentersville Rd,North Augusta,SC,29841
First Providence Baptist Chr,315 Barton Rd,North Augusta,SC,29841
Immanuel Baptist Church,306 Cherokee Rd,Florence,SC,29501
Mount Transfiguration Baptist,350 Blanchard Rd,North Augusta,SC,29841
Old Storm Branch Baptist Ch,1500 Aiken Ave,North Augusta,SC,29841
Second Providence Baptist Chr,1202 Old Edgefield Rd,North Augusta,SC,29841
Sweet Water Baptist Church,198 Sweetwater Rd,North Augusta,SC,29860
Victory Baptist Church ,620 W Martintown Rd,North Augusta,SC,29841
Woodridge Baptist Church,401 Birch St,North Augusta,SC,29841
St Bartholomew's Episcopal Chr,471 W Martintown Rd,North Augusta,SC,29841
Belvedere United Methodist Chr,202 Rhomboid Pl,North Augusta,SC,29841
Grace Fellowship,111 Spring Lake Ct,North Augusta,SC,29860
Sweetwater Church of God,1444 Edgefield Rd,North Augusta,SC,29860
Fairview Presbyterian Church,1101 Carolina Ave,North Augusta,SC,29841
Riverside Church Of Christ,401 Murrah Rd,North Augusta,SC,29860
Belvedere Church Of Christ,535 Belvedere Clearwater Rd,North Augusta,SC,29841
Blue Ridge View Baptist Church,745 Wolf Creek Rd,Pickens,SC,29671
Cedar Rock Baptist Church,425 Ambler School Rd,Pickens,SC,29671
East Pickens Baptist Church,2244 Gentry Memorial Hwy,Pickens,SC,29671
Griffin Baptist Church,1629 Pumpkintown Hwy,Pickens,SC,29671
Holly Springs Baptist Church,251 Hannon Rd,Inman,SC,29349
Lakeview Baptist Church,107 Mauldin Lake Rd,Pickens,SC,29671
Oolenoy Baptist Church,211 Miracle Hill Rd,Pickens,SC,29661
Prater's Creek Baptist Church,621 Praters Creek Rd,Pickens,SC,29671
Red Hill Baptist Church,722 Congaree Church Rd,Gadsden,SC,29052
Secona Baptist Church,234 Secona Rd,Pickens,SC,29671
Holy Cross Catholic Church,PO Box 855,Pickens,SC,29671
Pickens View Wesleyan Church,PO Box 130,Pickens,SC,29671
Pickens Church of God,PO Box 810,Pickens,SC,29671
Pickens Presbyterian Church,PO Box 834,Pickens,SC,29671
Pickens Church Of God,127 McDaniel Ave,Pickens,SC,29671
Bethany Church Of God,428 Hagood Mill Rd,Pickens,SC,29671
Boiling Springs First Bapt Chr,3600 Boiling Springs Rd,Boiling Springs,SC,29316
Northbrook Baptist Church,1881 Boiling Springs Rd,Boiling Springs,SC,29316
Boiling Springs Chr of Christ,870 Double Bridge Rd,Boiling Springs,SC,29316
Boyd Hill Baptist Church,PO Box 10662,Rock Hill,SC,29731
Catawba Baptist Church,2639 Catawba Church Rd,Rock Hill,SC,29730
Emmanuel Baptist Church,PO Box 12727,Charleston,SC,29422
First Calvary Baptist Church,2320 Cedar Grove Rd,Batesburg-Leesville,SC,29070
Lakewood Baptist Church,3520 Mount Gallant Rd,Rock Hill,SC,29732
New Zion Baptist Church,4790 Williamson Rd,Rock Hill,SC,29730
North Rock Hill Church,PO Box 2477,Rock Hill,SC,29732
Oakdale Baptist Church,231 Oak Dale Rd,Cowpens,SC,29330
Park Baptist Church,717 E Main St,Rock Hill,SC,29730
Park Ridge Baptist Church,PO Box 4048,Rock Hill,SC,29732
Rawlinson Road Baptist Church,1024 Rawlinson Rd,Rock Hill,SC,29732
Sylvia Circle Baptist Church,1041 Sylvia Cir,Rock Hill,SC,29730
Weeping Mary Baptist Church,PO Box 11438,Rock Hill,SC,29731
Woodhaven Baptist Church,2060 Marett Blvd,Rock Hill,SC,29732
Oratory,PO Box 11586,Rock Hill,SC,29731
St Anne's Catholic Church,1694 Bird St,Rock Hill,SC,29730
St Marys Catholic Church,PO Box 11982,Rock Hill,SC,29731
Episcopal Church-Our Saviour,144 Caldwell St,Rock Hill,SC,29730
West Main Church of Nazarene,208 Lancaster Ave,Rock Hill,SC,29730
Epiphany Lutheran Church,PO Box 4763,Rock Hill,SC,29732
Grace Lutheran Church,401 Main St,Gilbert,SC,29054
Adnah United Methodist Church,1 Adnah Dr,Rock Hill,SC,29732
Cornerstone United Methodist,2697 Heckle Blvd,Rock Hill,SC,29732
Epworth United Methodist Chr,1540 Camp Rd,Charleston,SC,29412
Foundation Ame Zion Chr,PO Box 10927,Rock Hill,SC,29731
Friendship United Methodist,1200 Neely Store Rd,Rock Hill,SC,29730
India Hook United Methodist,3300 Mount Gallant Rd,Rock Hill,SC,29732
Mt Holly United Methodist Chr,1996 Mount Holly Dr,Rock Hill,SC,29730
Pineville Ame Zion Church,4200 York Hwy,Rock Hill,SC,29732
Woodland Methodist Church,801 Cherry Rd,Rock Hill,SC,29732
Church of Christ,413 Old Trolley Rd,Summerville,SC,29485
Freedom Temple Ministries,PO Box 12522,Rock Hill,SC,29731
Shekinah Pentecostal Church,641 Annafrel St,Rock Hill,SC,29730
Trinity Bible Church,914 Cherry Rd,Rock Hill,SC,29732
Garden Sanctuary Church of God,858 Cedar St,Rock Hill,SC,29730
Mount Gallant Church of God,1107 Mount Gallant Rd,Rock Hill,SC,29732
United Pentecostal Church,1428 Quiet Acres Cir,Rock Hill,SC,29732
Covenant Presbyterian Church,4500 Highway 86,Easley,SC,29642
Ebenezer Presbyterian Church,PO Box 36081,Rock Hill,SC,29732
First Associate Reformed Prsby,201 E White St,Rock Hill,SC,29730
Neely's Creek Arp Church,974 Neelys Creek Rd,Rock Hill,SC,29730
Oakland Avenue Presbyterian,421 Oakland Ave,Rock Hill,SC,29730
Rogers Memorial Arp Chr,1820 Eden Ter,Rock Hill,SC,29730
Churches United Fellowship,924 Woodway Ln,Rock Hill,SC,29732
Friendship Church Of God,1834 Baskins Rd,Rock Hill,SC,29730
Trinity Church Of Nazarene,546 S Cherry Rd,Rock Hill,SC,29732
Grace Church Of Nazarene,1031 Mount Gallant Rd,Rock Hill,SC,29732
Faith Assembly Of God,337 Farmington Rd,Summerville,SC,29483
Emmanuel Church Of Nazarene,998 Dunlap Roddey Rd,Rock Hill,SC,29730
Adams Chapel A.M.E. Church,588 PO Box,Rock Hill,SC,0
Adams Chapel Ame Church,950 W Main St,Rock Hill,SC,29730
Adnah United Methodist Church Family Life,1615 Adnah Church Rd,Rock Hill,SC,29732
All Nations Are Family,508 S Cherry Rd,Rock Hill,SC,29732
Antioch United Methodist Church,930 W Rambo Rd,Rock Hill,SC,29730
Breezy Hill Baptist Church,PO Box 235,Graniteville,SC,29829
Graniteville Baptist Church,PO Box 119,Graniteville,SC,29829
Hillview Baptist Church,1974 Jefferson Davis Hwy,Graniteville,SC,29829
St John United Methodist Chr,PO Box 38,Graniteville,SC,29829
Christian Heritage Church,PO Box 237,Graniteville,SC,29829
Miracle Temple Of Deliverance,342 Jefferson Davis Hwy,Graniteville,SC,0
Langley Church Of God,2444 Jefferson Davis Hwy,Graniteville,SC,29829
Abraham James Rev,271 Bethlehem Cir,Graniteville,SC,29829
Apostolic Assembly All,155 Bettis Academy Rd,Graniteville,SC,29829
Broadacres Baptist Church,2350 Taylor Rd,Cayce,SC,29033
First Baptist Church of Cayce,600 Holland Ave,Cayce,SC,29033
Gantt Street Baptist Church,2121 Gantt St,Cayce,SC,29033
Holland Avenue Baptist Church,801 12th St,Cayce,SC,29033
State Street Baptist Church,1420 State St,Cayce,SC,29033
All Saints Episcopal Church,511 Jackson Ave E,Hampton,SC,29924
Cayce United Methodist Church,1600 12th St,Cayce,SC,29033
Biblical House Of God,1511 Lafayette Ave,Cayce,SC,29033
Cayce Church Of Nazarene,2201 Taylor Rd,Cayce,SC,29033
Gateway Christian Fellowship,1800 Airport Blvd,Cayce,SC,29033
Taylor St Baptist Church,1000 Hafley Ct,Cayce,SC,29033
True Pentecostal,2215 Taylor Rd,Cayce,SC,29033
Abundant Life Outreach Min,1619 Middleton St,Cayce,SC,29033
Mission Of Hope Ministries,1819 Middleton St,Cayce,SC,29033
Calvary Holiness Church Of God,1635 Middle St,Cayce,SC,29033
House Of God-keith Dominion,1801 Wilkinson St,Cayce,SC,29033
Rogers John M Reverend,1600 Summerland Dr,Cayce,SC,29033
Congaree Presbyterian Church,1221 Lafayette Ave,Cayce,SC,29033
Daily Living Ministries,1215 Knox Abbott Dr,Cayce,SC,29033
Transfiguration Lutheran Church,1301 12th St,Cayce,SC,29033
Temple Of God Ame Zion Church,2226 Julius Felder St,Cayce,SC,29033
Brookland Baptist Church,1066 Sunset Blvd,West Columbia,SC,29169
Congaree Baptist Church,101 Pine Ridge Dr,West Columbia,SC,29172
First Baptist Church West,400 State St,West Columbia,SC,29169
Green Hill Baptist Church,1734 Augusta Rd,West Columbia,SC,29169
Pineview Baptist Church,381 Shore Rd,Gilbert,SC,29054
Saluda River Baptist Church,3459 Sunset Blvd,West Columbia,SC,29169
Springdale Baptist Church,357 Wattling Rd,West Columbia,SC,29170
Sunset Boulevard Baptist Chr,2500 Sunset Blvd,West Columbia,SC,29169
Central Church of the Nazarene,100 S Woodside Pky,West Columbia,SC,29170
Emmanuel Lutheran Church,2491 Emanuel Church Rd,West Columbia,SC,29170
Faith Lutheran Church,PO Box 2267,Batesburg-Leesville,SC,29070
Holy Trinity Ind Lutheran,2920 Pella Ave,West Columbia,SC,29170
Lutheran Church,PO Box 2461,West Columbia,SC,29171
Mt Hermon Lutheran Church,926 Church St,West Columbia,SC,29172
Mt Tabor Lutheran Church,1000 B Ave,West Columbia,SC,29169
Our Saviour's Lutheran Church,1500 Sunset Blvd,West Columbia,SC,29169
Saint Davids Lutheran Church,132 Saint Davids Church Rd,West Columbia,SC,29170
Brookland United Methodist Chr,541 Meeting St,West Columbia,SC,29169
Platt Springs United Methodist,3215 Platt Springs Rd,West Columbia,SC,29170
Grace Chapel Church,663 Dixiana Rd,West Columbia,SC,29172
Christian Outreach Ctr,1049 Harbor Dr,West Columbia,SC,29169
Church of God West Columbia,1403 D Ave,West Columbia,SC,29169
Ebenezer Pentecostal Holiness,501 Church St,West Columbia,SC,29172
House of Praise ,3833 Leaphart Rd,West Columbia,SC,29169
West Columbia Pentecostal Chr,2312 Platt Springs Rd,West Columbia,SC,29169
Lion Of Juda Worship Center,1801 Augusta Rd,West Columbia,SC,29169
Prayer Ministries Of America,822 Center St,West Columbia,SC,29169
Airport Assembly Of God,650 Ermine Rd,West Columbia,SC,29170
Airport Church Of Christ,4013 Edmund Hwy,West Columbia,SC,29170
White Knoll Baptist Church,742 Kitti Wake Dr,West Columbia,SC,29170
Joel Baptist Church,1165 Old Barnwell Rd,West Columbia,SC,29170
Christ Center United Pntcstl,4615 Platt Springs Rd,West Columbia,SC,29170
Kitti Wake Baptist Church,420 Kitti Wake Dr,West Columbia,SC,29170
First Church Of Living God,2818 Windham Dr,West Columbia,SC,29170
Crossroads World Outreach Center,2606 Emanuel Church Rd,West Columbia,SC,29170
Pelion Baptist Church,841 Main St,West Columbia,SC,29170
Dunn's Chapel Church,281 Chapel Rd,West Columbia,SC,29172
South Congaree Assembly Of God,1008 Church St,West Columbia,SC,29172
Platt Springs Baptist Church,1351 Pine St,West Columbia,SC,29172
Westside First Church Of God,3508 Delree St,West Columbia,SC,29170
Mower John Rev,710 Frieden St,West Columbia,SC,29172
West Columbia Seventh Day Adv,3408 Delree St,West Columbia,SC,29170
West Columbia First Church,350 Wattling Rd,West Columbia,SC,29170
Safe Harbor Worship Center ,611 Pine Ridge Dr,West Columbia,SC,29172
Mt Hebron United Methodist Chr,3050 Leaphart Rd,West Columbia,SC,29169
Calvary Community Church,2226 Airport Blvd,West Columbia,SC,29170
Heritage Presbyterian Church,2547 Rainbow Dr,West Columbia,SC,29170
His Will Ministries,2809 Leaphart Rd,West Columbia,SC,29169
River Of Life Christian,2501 Leaphart Rd,West Columbia,SC,29169
South Carolina District Assemblies,101 Medical Cir,West Columbia,SC,29169
Saint James Baptist Church Of West Columbia,117 Saint James Ave,West Columbia,SC,29172
Lakewood Ministries,2118 Steele Dr,West Columbia,SC,29169
Living Faith Victory Church,2217 Fish Hatchery Ln,West Columbia,SC,29172
Chinese Christian Church,2367 Klapman Rd,West Columbia,SC,29169
S C District Church-nazarene,150 McSwain Dr,West Columbia,SC,29169
Oasis Christian Fellowship,1325 Whippoorwill Dr,West Columbia,SC,29169
Church Of Jesus Christ Of Lds,1620 Malden Dr,Florence,SC,29505
Christ Mission Church,439 Gardners Terrace Rd,West Columbia,SC,29172
Suburban Baptist Church,1700 Holland St,West Columbia,SC,29169
Christian Harvest Ministry,1626 Augusta Rd,West Columbia,SC,29169
Shiloh United Methodist Church,1000 Spring Hill Rd,Gilbert,SC,29054
West Columbia Church Of Christ,1701 Augusta Rd,West Columbia,SC,29169
Dixiana Baptist Church,3516 Charleston Hwy,West Columbia,SC,29172
Converted Life Worship Center,528 12th St,West Columbia,SC,29169
Mt Pisgah Ame Church,129 Dixiana Rd,West Columbia,SC,29172
Greater St Thomas Apostolic,519 12th St,West Columbia,SC,29169
Turner Memorial Ame Church,1122 Monticello St,West Columbia,SC,29169
Refreshing Springs Church,1110 Meeting St,West Columbia,SC,29169
House Of Prayer,311 Lexington St,West Columbia,SC,29169
Brookland Christian Counseling,1064 Sunset Blvd,West Columbia,SC,29169
Community Services Ministry,1060 Sunset Blvd,West Columbia,SC,29169
East Columbia Pentecostal Holiness Church,444 Ravenscroft Rd,West Columbia,SC,29172
Latter Rain Dec,405 N Line St,West Columbia,SC,29169
Brookland Baptist Book Corner,1062 Sunset Blvd,West Columbia,SC,29169
Mt Tabor Lutheran Youth House,940 B Ave,West Columbia,SC,29169
Brushy Creek Baptist Church,4999 Old Spartanburg Rd,Taylors,SC,29687
Calvary Hill Baptist Church,501 Rampey St,Easley,SC,29640
Corinth No 1 Baptist Church,511 E Church Rd,Easley,SC,29642
Easley Union Baptist Church,109 Runion St,Easley,SC,29640
Geer Memorial Baptist Church,911 S 5th St,Easley,SC,29640
Georges Creek Baptist,1991 Saluda Dam Rd,Easley,SC,29640
Jones Avenue Baptist Church,PO Box 1688,Easley,SC,29641
Mt Airy Baptist Church,210 Mt Airy Church Rd,Easley,SC,29642
Mt Carmel Baptist Church,1623 Hester Store Rd,Easley,SC,29640
Mt Pisgah Baptist Church,101 Pisgah Rd,Easley,SC,29642
Mt Tabor Baptist Church,4174 Dacusville Hwy,Easley,SC,29640
Nine Forks Baptist Church,3207 Earls Bridge Rd,Easley,SC,29640
Peters Creek Baptist Church,972 Shoals Creek Church Rd,Easley,SC,29640
Powdersville First Baptist Chr,4700 Earle E Morris Jr Memorial Hwy,Easley,SC,29642
Rock Springs Baptist Church,212 Dayton School Rd,Easley,SC,29642
Siloam Baptist Church,229 Siloam Rd,Easley,SC,29642
Summit Heights Baptist Church,PO Box 682,Easley,SC,29641
Westwood Baptist Church,3821 Saluda Dam Rd,Easley,SC,29640
St Luke's Catholic Church,4408 Highway 86,Easley,SC,29642
Glenwood Wesleyan Church,PO Box 2297,Easley,SC,29641
Community Bible Church,8005 Highway 81 N,Easley,SC,29642
St Matthias Lutheran Church,PO Box 815,Easley,SC,29641
Bethesda United Methodist Chr,PO Box 843,Lake City,SC,29560
Fairview United Methodist Chr,3003 Pelzer Hwy,Easley,SC,29642
St Andrew United Methodist Chr,309 Pelzer Hwy,Easley,SC,29642
Set Free Christian Fellowship,4701 Earle E Morris Jr Memorial Hwy,Easley,SC,29642
Easley Church of God,PO Box 443,Easley,SC,29641
New Image Outreach,PO Box 1844,Easley,SC,29641
Easley Presbyterian Church,200 S 1st St,Easley,SC,29640
Easley Church Of God,511 W Main St,Easley,SC,29640
Double Springs Baptist Chr,3800 Locust Hill Rd,Taylors,SC,29687
First Baptist Church-Taylors,PO Box 6,Taylors,SC,29687
Grace Baptist Church-Taylors,5020 Old Spartanburg Rd,Taylors,SC,29687
Jubilee Baptist Church,PO Box 1145,Taylors,SC,29687
Lee Road Baptist Daycare,1503 E Lee Rd,Taylors,SC,29687
Pebble Creek Baptist Church,1300 Reid School Rd,Taylors,SC,29687
Springwell Church,PO Box 689,Taylors,SC,29687
Prince of Peace Cathloic Chr,1209 Brushy Creek Rd,Taylors,SC,29687
Northeast Church of Christ,3506 Edwards Rd,Taylors,SC,29687
Lee Road United Methodist Chr,1377 E Lee Rd,Taylors,SC,29687
Faith Temple,5080 Sandy Flat Rd,Taylors,SC,29687
Grace Christian Church,PO Box 190,Taylors,SC,29687
Living Praise Worship Ctr,1720 Reid School Rd,Taylors,SC,29687
New Beginnings Christian Ctr,PO Box 598,Taylors,SC,29687
North Hills Community Church,4952 Edwards Rd,Taylors,SC,29687
O'Neal Church of God,21 Gerru Ct,Taylors,SC,29687
Unity Church Of Greenville,207 E Belvue Rd,Taylors,SC,29687
Aiken Chapel Baptist Church,101 Aiken Chapel Rd,Taylors,SC,29687
Calumet Baptist Church,400 S Peachtree St,Liberty,SC,29657
Flat Rock Baptist Church,250 N Flat Rock Rd,Piedmont,SC,29673
Golden Creek Baptist Church,233 Jule Merck Rd,Norris,SC,29667
Rice's Creek Baptist Church,PO Box 597,Liberty,SC,29657
Liberty Chuch Of God,3 Jefferson St,Liberty,SC,29657
Lake City First Baptist Church,PO Box 820,Lake City,SC,29560
Greater St James Ame Church,339 Moore St,Lake City,SC,29560
Lake City United Methodist Chr,PO Box 818,Lake City,SC,29560
Great Commission Ministries,3503 W Turbeville Hwy,Lake City,SC,29560
Lake City Presbyterian Church,PO Box 477,Lake City,SC,29560
Christ St Pauls Episcopal,PO Box 426,Hollywood,SC,29449
Wesley Memorial Umc,PO Box 118,Hollywood,SC,29449
Lyman United Methodist Church,PO Box 190,Lyman,SC,29365
College Park Baptist Church,1501 3rd Loop Rd,Florence,SC,29505
Crossway Church,3215 S Cashua Dr,Florence,SC,29501
First Free Will Baptist Church,90 Blackstock Rd,Inman,SC,29349
Florence Baptist Temple,PO Box 12809,Florence,SC,29504
Greenwood Baptist Church,2401 Claussen Rd,Florence,SC,29505
Hoffmeyer Road Baptist Chr,PO Box 3905,Florence,SC,29502
Maxwell Baptist Church,PO Box 289,Florence,SC,29503
Ridgecrest Baptist Church,1011 S Parker Dr,Florence,SC,29501
Wayside Chapel Baptist Church,1815 N Cashua Dr,Florence,SC,29501
West Florence Baptist Church,PO Box 4930,Florence,SC,29502
St Anthony Church,PO Box 5327,Florence,SC,29502
St John's Episcopal Church,PO Box 125,Johns Island,SC,29457
Mt Sinai Holiness Church,PO Box 1930,Florence,SC,29503
St Luke Lutheran Church,1201 Cherokee Rd,Florence,SC,29501
Cumberland United Methodist,163 S Coit St,Florence,SC,29501
Highland Park Methodist Church,1300 2nd Loop Rd,Florence,SC,29505
Pisgah United Methodist Church,621 N Ebenezer Rd,Florence,SC,29501
Faith Covenant Church,PO Box 4367,Florence,SC,29502
Lamb Chapel,3514 Southborough Rd,Florence,SC,29501
True Faith Fellowship Church,PO Box 1157,Florence,SC,29503
Greek Orthodox Church,2990 S Cashua Dr,Florence,SC,29501
Bethel Apostolic Church,PO Box 13676,Florence,SC,29504
Christian Assembly Church,401 Pamplico Hwy,Florence,SC,29505
Greater Zion Tabernacle,265 S Church St,Florence,SC,29506
John Calvin Presbyterian Chr,2000 Marsh Ave,Florence,SC,29505
Glorious Church Of Jesus,2328 Pocket Rd,Florence,SC,29506
House Hold Of Faith,121 N Marigold St,Florence,SC,29506
Progressive Church Of Jesus,421 Oakland Ave,Florence,SC,29506
Faith Chapel Of Florence,3609 Hoffmeyer Rd,Florence,SC,29501
Reformation Church Of God,810 S Cashua Dr,Florence,SC,29501
Highway Church Of Christ,356 W N B Baroody St,Florence,SC,29501
Divine Church Of Deliverance,550 Lawson St,Florence,SC,29501
Abundant Life Church Youth Center,3030 S Irby St,Florence,SC,29505
Angel's All Around Ministries,1922 N Irby St,Florence,SC,29501
Anglican Church Of Our Savior,2307 Cascade Ave,Florence,SC,29505
Antioch Fellowship Church,1405 E Howe Springs Rd,Florence,SC,29505
Apostolic Faith Tabernacle,500 W Marion St,Florence,SC,29501
Campobello First Baptist Chr,PO Box 205,Campobello,SC,29322
Motlow Creek Baptist Church,2300 Motlow Creek Rd,Campobello,SC,29322
Walnut Hill Baptist Church,675 Walnut Hill Church Rd,Campobello,SC,29322
Madrys Temple Bibleway,PO Box 455,Campobello,SC,29322
Cane Branch Baptist Church,760 Cane Branch Rd,Loris,SC,29569
Dogwood Hills Baptist Church,1040 Mt Zion Rd,Loris,SC,29569
Gurley Baptist Church,425 Highway 67 W,Loris,SC,29569
Pleasant Meadow Baptist Chr,937 Green Sea Rd S,Loris,SC,29569
Loris United Methodist Church,3507 Broad St,Loris,SC,29569
Deliverance Church Of Christ,1612 Highway 701 N,Loris,SC,29569
Cannon Memorial Baptist,PO Box 758,Central,SC,29630
First Wesleyan Church,PO Box 1020,Central,SC,29630
Trinity Wesleyan Church,700 Issaqueena Trl,Central,SC,29630
Carolina Forest Community Chr,PO Box 50037,Myrtle Beach,SC,29579
Forestbrook Baptist Church,2051 Forestbrook Rd,Myrtle Beach,SC,29588
Glenns Bay Baptist Church,1835 Glenns Bay Rd,Myrtle Beach,SC,29575
Grand Strand Baptist Church,2280 Glory Blvd,Myrtle Beach,SC,29579
Ocean View Baptist Church,7300 N Kings Hwy,Myrtle Beach,SC,29572
Socastee Baptist Church,3690 Socastee Blvd,Myrtle Beach,SC,29588
Timberlake Baptist Church,9850 Highway 707,Myrtle Beach,SC,29588
Trinity Episcopal Church,3000 N Kings Hwy,Myrtle Beach,SC,29577
Chabad Lubavitch Jewish Ctr,2803 N Oak St,Myrtle Beach,SC,29577
Lutheran Church-Risen Christ,10595 N Kings Hwy,Myrtle Beach,SC,29572
St Philips Lutheran Church,6200 N Kings Hwy,Myrtle Beach,SC,29572
Socastee United Methodist Chr,5575 Dick Pond Rd,Myrtle Beach,SC,29588
Christian Church,1226 Burcale Rd,Myrtle Beach,SC,29579
Christian Missions,4563 Highway 17 Byp S,Myrtle Beach,SC,29577
Living Faith Church,PO Box 1189,Myrtle Beach,SC,29578
St John Greek Orthodox Church,3301 33rd Avenue Ext N,Myrtle Beach,SC,29577
Seacoast Vineyard,PO Box 7047,Myrtle Beach,SC,29572
Miracle Tabernacle Of Prayer,4703 Highway 17 Byp S,Myrtle Beach,SC,29577
Agape Christian Fellowship,829 N Kings Hwy,Myrtle Beach,SC,29577
All Souls Waccamaw Uu Church,7185 Highway 707,Myrtle Beach,SC,29588
Alliance Bible Fellowship,211 Forestbrook Rd,Myrtle Beach,SC,29579
Amazaing Grace Lutheran Church,4761 Highway 501,Myrtle Beach,SC,29579
Anglican Church-good Shepherd,700 35th Ave N,Myrtle Beach,SC,29577
Center Baptist Church,PO Box 732,Darlington,SC,29540
Darlington Church Of God,701 N Governor Williams Hwy,Darlington,SC,29532
Glorius Church Of Jesus,2328 Pocket Rd,Darlington,SC,29532
Charleston Baptist Church,13 San Miguel Rd,Charleston,SC,29407
Citadel Square Baptist Church,328 Meeting St,Charleston,SC,29403
Costal Shores Baptist Church,8310 Dorchester Rd,Charleston,SC,29420
First Deliverance Baptist Chr,105 Fishburne St,Charleston,SC,29403
Fort Johnson Baptist Church,1473 Camp Rd,Charleston,SC,29412
James Island Baptist Church,2023 Wappoo Dr,Charleston,SC,29412
Midland Park Ministry Ctr,2427 Midland Park Rd,Charleston,SC,29406
Morris Street Baptist Church,25 Morris St,Charleston,SC,29403
New Beginnings Community Chr,849 Fort Johnson Rd,Charleston,SC,29412
Pierpont Baptist Church,2508 Ashley River Rd,Charleston,SC,29414
Pinecrest Baptist Church,1285 Ashley Hall Rd,Charleston,SC,29407
Rutledge Memorial Baptist Chr,2014 Bees Ferry Rd,Charleston,SC,29414
Wando Woods Baptist Church,4123 Dorsey Ave,Charleston,SC,29405
Blessed Sacrament Church,5 Saint Teresa Dr,Charleston,SC,29407
Cathedral-St John the Baptist,120 Broad St,Charleston,SC,29401
Church of the Nativity,1061 Folly Rd,Charleston,SC,29412
St Patrick's Catholic Church,PO Box 20726,Charleston,SC,29413
First Christian Church,1293 Orange Grove Rd,Charleston,SC,29407
Church of Christ Azalea Drive,PO Box 70519,Charleston,SC,29415
Essex Village Church of Christ,736 Savage Rd,Charleston,SC,29414
Calvary Episcopal Church,106 Line St,Charleston,SC,29403
Cathedral of St Luke ,PO Box 31916,Charleston,SC,29417
Church of the Holy Communion,218 Ashley Ave,Charleston,SC,29403
Legacy Cathedral,1401 Sam Rittenberg Blvd,Charleston,SC,29407
New Israel Reformed Episcopal,69 Simons St,Charleston,SC,29403
Old St Andrews Episcopal Chr,2604 Ashley River Rd,Charleston,SC,29414
St Michael's Episcopal Church,14 Saint Michaels Aly,Charleston,SC,29401
St Peter's Episcopal Church,1393 Miles Dr,Charleston,SC,29407
St Phillip's Episcopal Church,142 Church St,Charleston,SC,29401
Brith Sholom Beth Israel,182 Rutledge Ave,Charleston,SC,29403
Congregation Beth Elohim,90 Hasell St,Charleston,SC,29401
Synagogue Emanuel-Conservative,5 Windsor Dr,Charleston,SC,29407
Calvary Lutheran Church,1400 Manor Blvd,Charleston,SC,29407
Holy Comforter Lutheran Church,PO Box 80096,Charleston,SC,29416
Lutheran Church-the Redeemer,714 Riverdale Dr,Charleston,SC,29407
Martin Luther Lutheran Church,1605 Harbor View Rd,Charleston,SC,29412
St Barnabas Lutheran Church,45 Moultrie St,Charleston,SC,29403
St Johannes Lutheran Church,48 Hasell St,Charleston,SC,29401
St Matthew's Lutheran Church,405 King St,Charleston,SC,29403
Asbury St James United Meth,754 Rutledge Ave,Charleston,SC,29403
Bethany United Methodist Chr,118 W 3rd South St,Summerville,SC,29483
Calvary Ame Church,PO Box 71484,Charleston,SC,29415
Cherokee Place United Meth,PO Box 70396,Charleston,SC,29415
Cokesbury United Methodist Chr,4898 Dorchester Rd,Charleston,SC,29405
Ebenezer Ame Church,PO Box 20895,Charleston,SC,29413
Emanuel Ame Church,110 Calhoun St,Charleston,SC,29401
Francis Brown Ame Church,9 Ashe St,Charleston,SC,29403
Macedonia Ame Church,341 E Bay St,Charleston,SC,29401
Morris Brown Ame Church,13 Morris St,Charleston,SC,29403
Mt Carmel United Methodist Chr,PO Box 22146,Charleston,SC,29413
New Francis Brown Methodist,PO Box 6069,Charleston,SC,29405
Nichols Chapel Ame Church,57 Kennedy St,Charleston,SC,29403
Old Bethel United Methodist Ch,222 Calhoun St,Charleston,SC,29401
Payne Rmue Church,1560 Camp Rd,Charleston,SC,29412
St Andrews United Methodist,3225 Ashley River Rd,Charleston,SC,29414
Trinity Ame Church,677 Meeting St,Charleston,SC,29403
West Ashley Southern Methodist,1405 Miles Dr,Charleston,SC,29407
Lord of the Harvest Christian,PO Box 41102,Charleston,SC,29423
World Overcomers,PO Box 62049,Charleston,SC,29419
Evening of Prayer Cogic,PO Box 70924,Charleston,SC,29415
Greater Refuge Temple Church,230 Huger St,Charleston,SC,29403
James Island Christian Church,12 Sawgrass Rd,Charleston,SC,29412
Life Changers Covenant Mnstrs,1156 King St,Charleston,SC,29403
West Ashley Church of God,1560 Ashley River Rd,Charleston,SC,29407
Circular Congregational Church,PO Box 776,Charleston,SC,29402
First Scots Presbyterian Chr,53 Meeting St,Charleston,SC,29401
French Protestant Church,PO Box 917,Charleston,SC,29402
Harbor View Presbyterian Day,900 Harbor View Rd,Charleston,SC,29412
St James Presbyterian Church,1314 Secessionville Rd,Charleston,SC,29412
Zion-Olivet Presbyterian Chr,134 Cannon St,Charleston,SC,29403
Calvary Temple Of Praise,2520 Atlantic Palms Ln,Charleston,SC,29406
Healing Waters Of Charleston,3501 Rockville Ct,Charleston,SC,29414
Kingdom Hall Of Jehovah's,4391 Highway 23,Batesburg-Leesville,SC,0
Hope Assembly Of God,633 King St,Charleston,SC,29403
Agape Innercity Christian,701 E Bay St,Charleston,SC,29403
Agape Ministries,727 E Bay St,Charleston,SC,29403
Mt Olive Baptist Church,250 Mt Olive Rd,Cowpens,SC,29330
Mt View Baptist Church,650 Battleground Rd,Cowpens,SC,29330
Orchard Street Baptist Church,1821 Double Branch Rd,Cowpens,SC,29330
Cowpens Church Of God,138 Catawba St,Cowpens,SC,29330
Allen Temple C M E Church,105 Poplar St,Cowpens,SC,29330
Chapin Baptist Church,PO Box 640,Chapin,SC,29036
Our Lady - the Lake Catholic,PO Box 549,Chapin,SC,29036
Saint Francis-Assisi Church,PO Box 265,Chapin,SC,29036
Mt Horeb Lutheran Church,PO Box 8,Chapin,SC,29036
Mt Olivet Lutheran Church,11733 Broad River Rd,Chapin,SC,29036
St Jacob's Ev Luth Chr,844 Columbia Ave,Chapin,SC,29036
St Peter Lutheran Church,900 Dreher Island Rd,Chapin,SC,29036
St Thomas Lutheran Church,215 Saint Thomas Church Rd,Chapin,SC,29036
Chapin United Methodist Chr,PO Box 237,Chapin,SC,29036
Chapin Presbyterian Church,"107 Virginia St, #1",Chapin,SC,29036
Lake Murray Presbyterian,2721 Dutch Fork Rd,Chapin,SC,29036
Clearview Baptist Church,PO Box 974,Travelers Rest,SC,29690
Cross Plains Baptist Church,800 Trammell Rd,Travelers Rest,SC,29690
Ebenezer Baptist Church,30 Ebenezer Church Rd,Travelers Rest,SC,29690
Enoree Baptist Church,PO Box 428,Travelers Rest,SC,29690
Locust Hill Baptist Church,5534 Locust Hill Rd,Travelers Rest,SC,29690
Mt Ararat Baptist Church,PO Box 332,Travelers Rest,SC,29690
Renfrew Baptist Church,951 Geer Hwy,Travelers Rest,SC,29690
Travelers Rest United Mthdst,19 S Main St,Travelers Rest,SC,29690
Clearwater First Baptist Chr,PO Box 610,Clearwater,SC,29822
Lakeside Baptist Church,PO Box 237,North Myrtle Beach,SC,29597
Old Storm Branch Baptist Chr,PO Box 1306,Clearwater,SC,29822
Midland Valley First Church,PO Box 645,Clearwater,SC,29822
Cleveland First Baptist,PO Box 305,Cleveland,SC,29635
Cleveland Church Of God,9 Church of God Cir,Cleveland,SC,29635
Converse Baptist Church,PO Box 159,Converse,SC,29329
Foreman Memorial Baptist Chr,207 Smith Ave,New Ellenton,SC,29809
Emanuel Baptist Church,106 Boone St,Summerville,SC,29483
Fellowship of Oakbrook,1400 Old Trolley Rd,Summerville,SC,29485
First Baptist Church-Jedburg,121 Brewer Rd,Summerville,SC,29483
First Missionary Baptist Chr,PO Box 338,Summerville,SC,29484
Lydia Baptist Church,506 E Owens Dr,Summerville,SC,29485
Miles Road Children Lrng Ctr,816 Miles Rd,Summerville,SC,29485
Old Fort Baptist Church,10505 Dorchester Rd,Summerville,SC,29485
Palmetto Land Baptist Church,114 Tomaka Dr,Summerville,SC,29483
Ridge Baptist Church,2168 Ridge Church Rd,Summerville,SC,29483
Summerville Baptist Church,417 Central Ave,Summerville,SC,29483
St John's Beloved Catholic Chr,28 Sumter Ave,Summerville,SC,29483
Church of God Brownsville,920 W 1st North St,Summerville,SC,29483
Summerville Church-Nazarene,PO Box 3200,Summerville,SC,29484
Boone Hill United Methodist,801 Boone Hill Rd,Summerville,SC,29483
Knightsville United Methodist,1505 Central Ave,Summerville,SC,29483
New Hope Methodist Church,1253 Jedburg Rd,Summerville,SC,29483
Stallsville United Methodist,255 Stallsville Rd,Summerville,SC,29485
Word Ministries Christian Ctr,PO Box 50878,Summerville,SC,29485
Deliverance Tabernacle,3190 W 5th North St,Summerville,SC,29483
Faith Assembly of God,PO Box 387,Summerville,SC,29484
Dorchester Presbyterian Church,10290 Dorchester Rd,Summerville,SC,29485
Summerville Presbyterian,407 S Laurel St,Summerville,SC,29483
Christ Temple Of Summerville,419 E 5th North St,Summerville,SC,29483
Church House Of Ministries,1737 N Main St,Summerville,SC,29483
All Nations Church International,908 Bacons Bridge Rd,Summerville,SC,29485
Antioch Christian Fellowship,1250 Central Ave,Summerville,SC,29483
Dalzell Baptist Church,PO Box 68,Dalzell,SC,29040
High Hills Ame Church,PO Box 163,Dalzell,SC,29040
Double Springs Baptist Church,535 Double Springs Rd,Townville,SC,29689
Oak Dale Baptist Church,6724 Highway 24,Townville,SC,29689
Townville Baptist Church,PO Box 125,Townville,SC,29689
Dutch Fork Baptist Church,PO Box 345,Ballentine,SC,29002
Eason Memorial Baptist Church,PO Box 564,Eastover,SC,29044
Church of God ,11443 Garners Ferry Rd,Eastover,SC,29044
Antioch African Meth Epis Zion,1136 Antioch Amez Church Rd,Eastover,SC,29044
Lebanon United Methodist Chr,10220 Garners Ferry Rd,Eastover,SC,29044
East Cooper Baptist Church,361 Egypt Rd,Mt Pleasant,SC,29464
Lighthouse Church Worship Ctr,PO Box 2611,Mt Pleasant,SC,29465
Christ Our King Catholic Chr,PO Box 724,Mt Pleasant,SC,29465
St Andrew's Episcopal Church,440 Whilden St,Mt Pleasant,SC,29464
All Saints Lutheran Church,2107 N Highway 17,Mt Pleasant,SC,29466
Greater Goodwill Ame Church,PO Box 841,Mt Pleasant,SC,29465
Hibben United Methodist Church,690 Coleman Blvd,Mt Pleasant,SC,29464
Olive Branch Ame Church,PO Box 266,Mt Pleasant,SC,29465
Eastbridge Presbyterian Church,3058 N Highway 17,Mt Pleasant,SC,29466
Mt Pleasant Presbyterian Chr,302 Hibben St,Mt Pleasant,SC,29464
Life Church Of Charleston,2191 N Highway 17,Mt Pleasant,SC,29466
St Mark Baptist Church,PO Box 3841,Batesburg-Leesville,SC,29070
Steadman Baptist Church,1011 N Edisto Rd,Batesburg-Leesville,SC,29070
Cedar Grove Lutheran Church,1220 Cedar Grove Rd,Batesburg-Leesville,SC,29070
Mount Hebron Lutheran Church,2347 Summerland Hwy,Batesburg-Leesville,SC,29070
Union Lutheran Church,4077 Highway 378,Batesburg-Leesville,SC,29070
Wittenberg Lutheran Church,PO Box 3447,Batesburg-Leesville,SC,29070
Leesville United Methodist Chr,510 E Columbia Ave,Batesburg-Leesville,SC,29070
Bethlehem Lutheran Church,10000 Broad River Rd,Irmo,SC,29063
Ebenezer Welcome Church,4005 Highway 414,Landrum,SC,29356
First Baptist Church Landrum,300 E Rutherford St,Landrum,SC,29356
Gowensville Baptist Church,5650 N Highway 14,Landrum,SC,29356
Landrum United Methodist Chr,227 N Howard Ave,Landrum,SC,29356
Elim Baptist Church,1303 Olanta Hwy,Effingham,SC,29541
Evergreen Baptist Church,6316 Pamplico Hwy,Effingham,SC,29541
Savannah Grove Baptist Church,2620 Alligator Rd,Effingham,SC,29541
Effingham Church Of God,149 McLaughlin Rd,Effingham,SC,29541
Fairforest Baptist Church,PO Box 338,Fairforest,SC,29336
Fairforest Church of God,PO Box 465,Fairforest,SC,29336
Mount Sinai Baptist Church,PO Box 509,Pendleton,SC,29670
Mount Springs Baptist Church,PO Box 97,Pendleton,SC,29670
Refuge Baptist Church,PO Box 301,Pendleton,SC,29670
Six ,3701 Six and Twenty Rd,Pendleton,SC,29670
Pendleton United Methodist Chr,PO Box 646,Pendleton,SC,29670
Pendleton Presbyterian Church,PO Box 573,Pendleton,SC,29670
Sandy Springs Family Worship,6114 Highway 76,Pendleton,SC,29670
Afc Ministries,415 Church St,Pendleton,SC,29670
Pine Grove Baptist Church,5415 Highway 557,Clover,SC,29710
Arp Church,127 Kings Mountain St,Clover,SC,29710
Bethel Presbyterian Church,2445 Highway 557,Clover,SC,29710
Clover Presbyterian Church,202 Kings Mountain St,Clover,SC,29710
Clover Church Of Nazarene,102 Hagans St,Clover,SC,29710
Apostle ,1526 Lawrence Rd,Clover,SC,29710
Heights Baptist Church,1601 Williston Rd,Beech Island,SC,29842
New Beginning Ministires,338 Pine Log Rd,Beech Island,SC,29842
Amazing Grace Baptist Church,363 Pine Log Rd,Beech Island,SC,29842
Our Lady Star of Sea Church,1100 8th Ave N,North Myrtle Beach,SC,29582
St Stephen's Episcopal Church,801 11th Ave N,North Myrtle Beach,SC,29582
King of Glory Lutheran Church,805 11th Ave N,North Myrtle Beach,SC,29582
Coastal Christian Ctr,PO Box 1097,North Myrtle Beach,SC,29598
Ocean Drive Presbyterian Chr,PO Box 277,North Myrtle Beach,SC,29597
Surfside Presbyterian Church,PO Box 14733,Surfside Beach,SC,29587
Episcopal Church Of Resurr,8961 Us-17-Byp S,Surfside Beach,SC,29575
Macedonia Christian Church,1165 Betsy Hole Rd,Bonneau,SC,29431
Christian Fellowship Church,3073 Highway 308,Galivants Ferry,SC,29544
Bonneau Pentecostal Holiness,PO Box 519,Bonneau,SC,29431
Answer Place Ministries,1253 Long Acre Dr,Bonneau,SC,29431
Holy Spirit Catholic Church,PO Box 719,Johns Island,SC,29457
Church of Our Saviour,4416 Betsy Kerrison Pky,Johns Island,SC,29455
Hebron Zion Presby Chr,2915 Bohicket Rd,Johns Island,SC,29455
Johns Island Presbyterian Chr,2550 Bohicket Rd,Johns Island,SC,29455
Abundant Life Church Of God In Christ,4062 Betsy Kerrison Pky,Johns Island,SC,29455
Piedmont Heights Baptist Chr,PO Box 36,Piedmont,SC,29673
Trinity Baptist Tabernacle,824 Piedmont Hwy,Piedmont,SC,29673
Piedmont United Methodist Chr,PO Box 147,Piedmont,SC,29673
Powdersville Community Church,200 Assembly Dr,Piedmont,SC,29673
Fountain Of Life Worship Center,217 S Piedmont Hwy,Piedmont,SC,29673
Calvary Assembly Of God,2607 River Rd,Piedmont,SC,29673
A Shepherd's Heart Ministries,1859 Piedmont Hwy,Piedmont,SC,29673
Adon Olam Messianic Cngrgtn,259 Pine Dr,Piedmont,SC,29673
Agape' Baptist Church,198 New Cut Rd,Piedmont,SC,29673
Martin Richard R Reverend,3139 Spann Rd,Leesville,SC,0
Nazareth United Methodist Chr,3159 Spann Rd,Leesville,SC,0
Still Waters Baptist Church,374 Delmar Rd,Leesville,SC,0
Bethel Pentecostal Holiness,284 Old Duncan Rd,Leesville,SC,0
St John C M E Church,3202 PO Box,Leesville,SC,0
First Baptist Church of Gaston,PO Box 309,Gaston,SC,29053
Hayward Ame Church,983 Old State Rd,Gaston,SC,29053
Hidden Valley Baptist Church,121 Casa Dell Rd,Gaston,SC,29053
Fish Hatchery Church,3249 Fish Hatchery Rd,Gaston,SC,29053
God's People In Service Ministry,4512 Fish Hatchery Rd,Gaston,SC,29053
Piney Grove Ame Church,2443 Glenn Rd,Gaston,SC,29053
Harmony Baptist Church,1959 Woodtrail Dr,Gaston,SC,29053
Christian Fellowship Bptst Chr,4625 Highway 321,Gaston,SC,29053
First Baptist Church-sandy Run,442 Livingston Rd,Gaston,SC,29053
Beulah United Methodist Church,120 Beulah Church Rd,Gilbert,SC,29054
State Full Gospel Church,200 State Pond Rd,Gaston,SC,29053
First Baptist Church Of Gaston,121 Oakey Springs Dr,Gaston,SC,29053
Praise Fellowship Church-god,155 Meadowfield Rd,Gaston,SC,29053
Amazing Love Outreach Center,1621 Highway 6,Gaston,SC,29053
First Baptist Church of Irmo,PO Box 3027,Irmo,SC,29063
Gateway Baptist Church,7820 Broad River Rd,Irmo,SC,29063
Three Rivers Baptist Church,7452 Broad River Rd,Irmo,SC,29063
St Simon ,1110 Kinley Rd,Irmo,SC,29063
Mount Olive Lutheran Church,PO Box 7,Irmo,SC,29063
Saint Paul Ame Church,835 Kennerly Rd,Irmo,SC,29063
Shady Grove United Methodist,PO Box 693,St George,SC,29477
Union United Methodist Church,PO Box 705,Irmo,SC,29063
Christ Church of the Carolinas,25 Blue Bird Trl,Irmo,SC,29063
East Lake Community Church,PO Box 1105,Irmo,SC,29063
Irmo Church Of God,10215 Broad River Rd,Irmo,SC,29063
Agape Health Service LLC,7232 Broad River Rd,Irmo,SC,29063
Ambassador Christian Center,401 Western Ln,Irmo,SC,29063
First Baptist Church of Iva,PO Box 475,Iva,SC,29655
Union Baptist Church,1101 W Highway 378 Hannah,Pamplico,SC,29583
First Baptist Church-Conestee,PO Box 157,Conestee,SC,29636
First Baptist Church-Gilbert,441 Lewie St,Gilbert,SC,29054
Pond Branch United Methodist,1913 Pond Branch Rd,Gilbert,SC,29054
Gilbert Church Of God,4184 Augusta Hwy,Gilbert,SC,29054
Hilltop Community Fellowship,3125 Augusta Hwy,Gilbert,SC,29054
Florence Baptist Church,1709 Windy Wood Rd,Pelion,SC,29123
Pond Branch United Methodist Church,1908 Pond Branch Rd,Gilbert,SC,29054
Crossroads Baptist Church,525 Main St,Gilbert,SC,29054
Church Of God Ministry Of Jesus Christ International,2929 Priceville Rd,Gilbert,SC,29054
First Baptist Church-Glvrvll,PO Box 157,Gloverville,SC,29828
Our Lady-the Valley Catholic,PO Box 419,Gloverville,SC,29828
Hope Ministries Of Valley,2331 Augusta Rd,Gloverville,SC,29828
Our Lady Of Valley,2443 Augusta Rd,Gloverville,SC,29828
First Baptist Church-Harlyevl,PO Box 297,Harleyville,SC,29448
First Baptist Church-Mauldin,150 S Main St,Mauldin,SC,29662
St Elizabeth Ann Seton Church,PO Box 672,Mauldin,SC,29662
Messiah Lutheran Church,1106 Yeamans Hall Rd,Hanahan,SC,29410
Mauldin United Methodist Chr,PO Box 481,Mauldin,SC,29662
Cathedral,PO Box 738,Mauldin,SC,29662
Grace Covenant Presbyterian,PO Box 828,Mauldin,SC,29662
Mauldin Church Of God,411 E Butler Rd,Mauldin,SC,29662
Adoration ,106 Bon Air St,Mauldin,SC,29662
First Baptist Church-Ravenel,PO Box 129,Ravenel,SC,29470
Sauldam Baptist Church,5945 County Line Rd,Ravenel,SC,29470
First Baptist Church-Vaucluse,PO Box 26,Vaucluse,SC,29850
Green Point Baptist Church,1391 Rainbow Lake Rd,Inman,SC,29349
Harvest Baptist Church,9301 Asheville Hwy,Inman,SC,29349
Holston Creek Baptist Church,311 Holston Creek Church Rd,Inman,SC,29349
Inman First Baptist Church,14 N Howard St,Inman,SC,29349
Inman Mills Baptist Church,22 B St,Inman,SC,29349
Lake Bowen Baptist Church,404 Sugar Ridge Rd,Inman,SC,29349
Inman United Methodist Church,PO Box 726,Inman,SC,29349
Aldergate United Methodist Church,120 Pineview Dr,Inman,SC,29349
Dolorosa Worship Center,365 Old Charleston Rd,Pelion,SC,29123
Pelion Church Of Nazarene Parsonage,454 Pine St,Pelion,SC,29123
Sharon United Methodist Church,PO Box 418,Reidville,SC,29375
Pelion United Methodist Church,832 Magnolia St,Pelion,SC,29123
Folly Beach Baptist Church,PO Box 50,Folly Beach,SC,29439
Our Lady of Good Counsel,PO Box 1257,Folly Beach,SC,29439
Friendly Chapel Baptist Church,2591 Ballenger Rd,Wellford,SC,29385
Jackson Baptist Church,2662 John Dodd Rd,Wellford,SC,29385
Wellford Baptist Church,235 Syphrit Rd,Wellford,SC,29385
Philadelphia Baptist Church,PO Box 220,Pauline,SC,29374
Gap Hill Baptist Church,127 Gap Hill Rd,Six Mile,SC,29682
Six Mile Baptist Church,PO Box 134,Six Mile,SC,29682
Gap Hill Church of God,3540 Walhalla Hwy,Six Mile,SC,29682
Generostee Baptist Church,806 Generostee Church Rd,Starr,SC,29684
Starr Baptist Church,PO Box 137,Starr,SC,29684
Gilead Freewill Baptist Church,PO Box 208,Scranton,SC,29591
Glendale Baptist Church,PO Box 268,Glendale,SC,29346
Norris First Baptist Church,PO Box E,Norris,SC,29667
Old St George Baptist Church,509 Old Saint George Rd,St George,SC,29477
St Matthews Baptist Church,2593 Wire Rd,St George,SC,29477
Reevesville Church Charge,130 Infinger Rd,St George,SC,29477
Mayfield Chapel,PO Box 567,Duncan,SC,29334
Hanahan Baptist Church,1262 Belvedere Dr,Hanahan,SC,29410
Highland Park Baptist Church,6211 Murray Dr,Hanahan,SC,29410
Divine Redeemer Catholic Chr,1106 Fort Dr,Hanahan,SC,29410
Yeamans Park Presbyterian Chr,5931 Murray Dr,Hanahan,SC,29410
Howlandville Baptist Church,316 Howlandville Rd,Warrenville,SC,29851
Warrenville First Baptist Chr,PO Box 338,Warrenville,SC,29851
Warrenville Church Of God,130 Simonds St,Warrenville,SC,29851
Warrenville Church Of Christ,4 Harrison Rd,Warrenville,SC,29851
Johnston First Baptist Church,700 Church St,Johnston,SC,29832
Mt Calvary Lutheran Church,1186 Mt Calvary Rd,Johnston,SC,29129
Johnston Church Of God,109 Slide Hill Rd,Johnston,SC,29832
United Church Of God,77 Edisto St,Johnston,SC,29832
Langley First Baptist Church,PO Box 321,Langley,SC,29834
Mid-Valley Baptist Church,PO Box 1323,Langley,SC,29834
Pine Forest Baptist Church,PO Box 97,Langley,SC,29834
Langley Church of God,PO Box 797,Langley,SC,29834
Little Zion Baptist Church,8229 Winnsboro Rd,Blythewood,SC,29016
Sandy Level Baptist Church,PO Box 518,Blythewood,SC,29016
Transfiguration Catholic Chr,9720 Wilson Blvd,Blythewood,SC,29016
A More Excellent Way Ministry,245 Adams Rd,Blythewood,SC,29016
Living Water Baptist Church,1569 Highway 9 E,Longs,SC,29568
Marietta First Baptist Church,PO Box 337,Marietta,SC,29661
Matlock Baptist Church,PO Box 496,Jackson,SC,29831
Mayo First Baptist Church,PO Box 37,Mayo,SC,29368
Trident Baptist Church,PO Box 1059,Goose Creek,SC,29445
Immaculate Conception Church,510 Saint James Ave,Goose Creek,SC,29445
St Timothy Lutheran Church,PO Box 807,Goose Creek,SC,29445
Goose Creek United Methodist,PO Box 96,Goose Creek,SC,29445
Greater Mt Zion Ame Church,PO Box 2102,Goose Creek,SC,29445
New Life Christian Fellowship,402 Liberty Hall Rd,Goose Creek,SC,29445
Calvary Church-God in Christ,PO Box 1147,Goose Creek,SC,29445
Metro North Church,109 Central Ave,Goose Creek,SC,29445
Calvary Church Of Nazarene,541 Red Bank Rd,Goose Creek,SC,29445
All Nations House Of Prayer,129 Westminister Cir,Goose Creek,SC,29445
Mount Beulah Baptist Church,857 Mt Beulah Rd,Windsor,SC,29856
Mt Canaan Baptist,2451 Edgefield Rd,Trenton,SC,29847
Bethlehem United Methodist Chr,3630 Bay Rd,Pamplico,SC,29583
Pamplico Church Of God,976 S Pamplico Hwy,Pamplico,SC,29583
Aimwell Baptist Church,367 Bass Rd,Pamplico,SC,29583
Mush Creek Baptist Church,940 Mush Creek Rd,Tigerville,SC,29690
New Holy Light Baptist Church,PO Box 626,Sandy Springs,SC,29677
Piney Grove Baptist Church,PO Box 734,Sandy Springs,SC,29677
Olanta Baptist Church,PO Box 188,Olanta,SC,29114
Pacolet Mills Baptist Church,PO Box 660,Pacolet Mills,SC,29373
Montgomery Memorial United Chr,PO Box 427,Pacolet Mills,SC,29373
Pinewood Baptist Church,PO Box 176,Pinewood,SC,29125
Antioch Ame Church,205 Lovers Lane Rd,Union,SC,29379
Antioch Rmue Church,11096 Gov Richardson Rd,Pinewood,SC,0
Agape Ministries-lower Rchlnd,136 Gadsden Community Center Rd,Gadsden,SC,29052
Reevesville Baptist Church,PO Box 86,Reevesville,SC,29471
Aynor Church Of God,430 Jordanville Rd,Aynor,SC,29511
Swansea Baptist Church,PO Box 550,Swansea,SC,29160
Sharon Baptist Church,PO Box 6,Sharon,SC,29742
Woodlawn Presbyterian Church,PO Box 189,Sharon,SC,29742
Tucapau Baptist Church,PO Box 250,Startex,SC,29377
Startex United Methodist Chr,PO Box 130,Startex,SC,29377
Walnut Grove Baptist Church,PO Box 545,Slater-Marietta,SC,29661
West Springs Baptist Church,4811 Buffalo-West Springs Hwy,Glenn Springs,SC,29374
Stella Maris Catholic Church,PO Box 280,SULLIVANS IS,SC,29482
Church of the Holy Cross,PO Box 506,SULLIVANS IS,SC,29482
Bible Way Comm New Life Dlvrnc,PO Box 1020,Una,SC,29378
Bethel Lutheran Church,PO Box 367,White Rock,SC,29177
Faith Presbyterian Church,PO Box 460,White Rock,SC,29177
Gramling United Methodist Chr,PO Box 58,Gramling,SC,29348
Greater Zion Ame Church,4174 N Highway 17,Awendaw,SC,29429
Johnsonville United Methodist,PO Box 449,Johnsonville,SC,29555
Pentecostal Holiness Church,PO Box 303,Johnsonville,SC,29555
Little River United Methodist,PO Box 160,Little River,SC,29566
St Paul Ame Church,PO Box 1257,Little River,SC,29566
Anchor Baptist Church,3300 Highway 50,Little River,SC,29566
Mt Vernon United Methodist Chr,PO Box 158,Hickory Grove,SC,29717
Pacolet United Methodist Chr,PO Box 427,Pacolet,SC,29372
Pinopolis United Methodist Chr,PO Box 521,Pinopolis,SC,29469
Unionville Ame,1330 Swimming Pen Rd,Mayesville,SC,29104
Willow Grove Ame Church,PO Box 173,Horatio,SC,29062
Market Assembly,9659 Jamison Rd,Ladson,SC,29456
New Covenant Church of God,PO Box 859,Ladson,SC,29456
River Hills Community Church,104 Hamilton Ferry Rd,Lake Wylie,SC,29710
Lake Wylie Christian Assembly,5766 Charlotte Hwy,Lake Wylie,SC,29710
Scherer Memorial Presbyterian,4800 Charlotte Hwy,Lake Wylie,SC,29710
Alice Temple Church,PO Box 308,St Stephen,SC,29479
Triumphant Church Of Christ,1212 Forty-One Rd,St Stephen,SC,29479
Beulah Tabernacle Of Prayer,547 Beulah Tabernacle Dr,St Stephen,SC,29479
Allen Ame Church,280 Hood St,St Stephen,SC,29479
Greater Gethsemane Apostolic,PO Box 15434,Quinby,SC,29506
Olivet Presbyterian Church,PO Box 74,McConnells,SC,29726
Sunrise Presbyterian Church,PO Box 517,Sullivan's Island,SC,29482
True Word Of Faith Worship Center,2049 N Williamsburg County Hwy,Cades,SC,29518
Rock A Of G,290 Critter Rd,Westminster,SC,29693
Calvary Church Of God,10102 Long Creek Hwy,Westminster,SC,29693
Madison Church Of God,107 Nebo Valley Dr,Westminster,SC,29693
Chester Church Of Christ,135 Saluda St,Chester,SC,29706
United Assembly Of God,11075 Watson Dr,Seneca,SC,29672
Seneca Church Of Christ,10833 Clemson Blvd,Seneca,SC,29678
Ann Hope United Methodist Chr,702 Goddard Ave,Seneca,SC,29678
Elizabeth Church Of Christ,5710 Ritter Rd,Walterboro,SC,29488
Walterboro Church Of Christ,1420 Wichman St,Walterboro,SC,29488
Walterboro Church Of God,4582 Jefferies Hwy,Walterboro,SC,29488
Abc Hispanic Ministries,97 Great Swamp Rd,Walterboro,SC,29488
Academy Road Baptist Church,304 Academy Rd,Walterboro,SC,29488
Marion Church Of God,1401 N Main St,Marion,SC,29571
Catholic Church Of Infant,4534 N Highway 501,Marion,SC,29571
Advent Church,307 S Main St,Marion,SC,29571
Apostolic Truth Tabernacle,1853 W Highway 76,Marion,SC,29571
Hartsville Church Of Christ,901 W Bobo Newsom Hwy,Hartsville,SC,29550
Middendorf Church Of God,16839 Hartsville Ruby Rd,Hartsville,SC,0
Clyde Church Of God,1736 Catawba Springs Dr,Hartsville,SC,29550
Amerson Luther Buddy Rev,5106 Middendorf Rd,Hartsville,SC,29550
Hamer Church Of God,2410 Highway 301 N,Dillon,SC,29536
Dillon Church Of God,701 Highway 301 S,Dillon,SC,29536
Pentecostal Church Of God,4219 Allendale-Fairfax Hwy,Allendale,SC,29810
Allendale Assembly Of God,1208 Main St S,Allendale,SC,29810
Allendale Presbyterian Church,230 Flat St W,Allendale,SC,29810
Pontiac Church Of Christ,120 Pontiac Business Center Dr,Elgin,SC,29045
Elgin Church Of Good,1150 Sessions Rd,Elgin,SC,29045
Berean Church Of Christ,818 Allentown Dr,Latta,SC,29565
Latta Church Of God,319 E Academy St,Latta,SC,29565
Antioch Missionary Baptist Chr,807 Highway 34 W,Latta,SC,29565
Calvary Chapel Of Greenwood,2024 Woodlawn Rd,Greenwood,SC,29649
New Life Family Worship,1424 Bypass 72 NE,Greenwood,SC,29649
Refuge Church Of Greenwood,2508 Highway 25 S,Greenwood,SC,29646
Community Church Of Nazare,2022 Cokesbury Rd,Greenwood,SC,29649
Abney Memorial Baptist Church,208 Panola Ave,Greenwood,SC,29646
Pageland Church Of God,32249 Highway 9,Pageland,SC,0
Pageland Church Of Christ,202 N Oak St,Pageland,SC,29728
2Nd Presbyterian Church,415 N Elm St,Pageland,SC,29728
Orangeburg Church Of Christ,2855 Columbia Rd,Orangeburg,SC,29118
True Church Of God,1662 Irvin St,Orangeburg,SC,29115
Memorial Church Of Nazarene,569 Berry St,Orangeburg,SC,29115
Amazing Grace,163 Citadel Rd,Orangeburg,SC,29118
Andrew Chapel Baptist Church,3670 Five Chop Rd,Orangeburg,SC,29115
Zion Tabernacle Of Faith,206 N Main St,Abbeville,SC,29620
Westside Church Of Christ,308 Haigler St,Abbeville,SC,29620
Abbeville Church Of God,300 Whitehall St,Abbeville,SC,29620
Abbeville Pentecostal Holiness,18 Pinehurst St,Abbeville,SC,29620
Abbeville Pentecostal Holiness Church,109 Barnett St,Abbeville,SC,29620
Abbeville Presbyterian Church,301 N Main St,Abbeville,SC,29620
Abbeville Pure Holiness Church,325 Highway 71,Abbeville,SC,29620
Allen Chapel Ame Church,40 Amelia Dr,Georgetown,SC,29440
Abundant Life,804 Laurens St,Camden,SC,29020
Coneross Church Of God,1577 Hefner Rd,Walhalla,SC,29691
Williston Church Of God,315 Marcia St,Williston,SC,29853
Jefferson Church Of God,211 W Elizabeth St,Jefferson,SC,29718
Church Of God Of Emanuel,717 Miller Rd,Jefferson,SC,29718
Almetta Baptist Church,313 E Miller St,Jefferson,SC,29718
Almetta Baptist Parsonage,313 Miller Street,Jefferson,SC,29718
Angelus Chapel Ame Zion Church,5102 Sandy Run Creek Rd,Jefferson,SC,29718
Holy Church Of Christ,1314 Highway 9 Byp W,Lancaster,SC,29720
Harvesttime Assembly Of God,729 Monroe Hwy,Lancaster,SC,29720
Deliverance Word Of Faith,500 Palmetto St,Lancaster,SC,29720
Acfi,303 N Main St,Lancaster,SC,29720
Anointed Word Church,1268 Old Charlotte Rd,Lancaster,SC,29720
Refuge Temple Of Varnville,65 PO Box,Varnville,SC,0
Miley Church Of God,20660 Old Salkehatchie Hwy,Hampton,SC,29924
Antioch Christian Church,3425 Mill Pond Rd,Varnville,SC,29944
Monarch Assembly Of God,112 Railroad St,Union,SC,29379
Gospel Tabernacle Of Ruby,549 Deaton St,Ruby,SC,29741
Lamar Church Of God,106 N Darlington Ave,Lamar,SC,29069
Baptist Church Of Beaufort,600 Charles St,Beaufort,SC,29902
Beaufort Church Of Christ,170 Robert Smalls Pky,Beaufort,SC,29906
Beaufort Church Of God,641 Parris Island Gtwy,Beaufort,SC,29906
2Nd Grays Hill Baptist Church,56 Ihly Rd,Beaufort,SC,29906
Agape Ministry Of Georgetown,1917 Church St,Georgetown,SC,29440
Dunbar Church Of Christ,2674 Dunbar Rd,Georgetown,SC,29440
Georgetown Church Of God,2119 Highmarket St,Georgetown,SC,29440
Tabernacle House Of Prayer,100 Seaboard St,Georgetown,SC,29440
Coward Church Of God,149 Factory St,Coward,SC,29530
Hampton Church Of God,1102 1st St W,Hampton,SC,29924
Grace Tabernacle Of Praise,305 1st St W,Hampton,SC,29924
Donalds Church Of God,351 W Main St,Donalds,SC,29638
Bethel Church Of Christ,1950 Apostolic Rd,Wedgefield,SC,29168
1St Pentacostal Holiness,201 10th St,Winnsboro,SC,29180
Adamson James Rev,520 White Oak Church Rd,Winnsboro,SC,29180
Ame Zion Church,325 Fairfield St,Winnsboro,SC,29180
Faith Assembly Of Disciples,12404 Highway 707,Murrells Inlet,SC,29576
Lugoff Church Of God,1042 Highway 1 S,Lugoff,SC,29078
Faith Church Of Nazarene,1033 Ridgeway Rd,Lugoff,SC,29078
Progressive Church Of Christ,2549 Screaming Eagle Rd,Lugoff,SC,29078
Barnwell Church Of Christ,60 Bomway St N,Barnwell,SC,29812
Epsiscopal Church Of Holy,228 Hagood Ave,Barnwell,SC,29812
Allen Street Church Of God,1017 Allen St,Barnwell,SC,29812
Precious Blood Of Christ,1633 Waverly Rd,Pawleys Island,SC,29585
3 Dimension Ministries,3560 Kings River Rd,Pawleys Island,SC,29585
Access Pawleys,14323 Ocean Hwy,Pawleys Island,SC,29585
Allston Tabernacle,162 Elliott Dr,Pawleys Island,SC,29585
Angelican Mission In America,297 Willbrook Blvd,Pawleys Island,SC,29585
Bethune Church Of God,213 Hampton St E,Bethune,SC,29009
