Name,Address,City,State,Zip
Blvd Seventh-Day Adventist Chr,261 E Old Hickory Blvd,Madison,TN,37115
Madison Campus Church,PO Box 6296,Madison,TN,37116
Alta Loma Baptist Church,1602 Gallatin Pike N,Madison,TN,37115
Charity Missionary Baptist Chr,PO Box 93,Madison,TN,37116
First Baptist Church,PO Box 82,Fall Branch,TN,37656
Madison Heights Baptist Church,815 E Old Hickory Blvd,Madison,TN,37115
Mcferrin Ave Mssnry Baptist Ch,431 W Old Hickory Blvd,Madison,TN,37115
Neely's Bend Baptist Church,1345 Neelys Bend Rd,Madison,TN,37115
First Christian Church,PO Box 312,Rogersville,TN,37857
Kemper Heights Ch of Christ,1040 Tuckahoe Dr,Madison,TN,37115
Madison Church of Christ,PO Box 419,Madison,TN,37116
City Road Chapel United Meth,701 Gallatin Pike S,Madison,TN,37115
Evangel Temple,PO Box 245,Madison,TN,37116
Cornerstone Church,120 Cornerstone Dr,Johnson City,TN,37615
Miracle Temple Pentecostal Chr,1335 Plum St,Madison,TN,37115
Bethel House Of God,1022 E Old Hickory Blvd,Madison,TN,37115
Accelerated Christian Ministries,610 W Due West Ave,Madison,TN,37115
College Hill Seventh Day,1837 Brandau St,Knoxville,TN,37921
Seventh-Day Adventist Church,9209 Amos Rd,Ooltewah,TN,37363
Alice Bell Baptist Church,3305 Alice Bell Rd,Knoxville,TN,37917
Arlington Baptist Church,1928 Fairmont Blvd,Knoxville,TN,37917
Atkins Baptist Church,6115 Tazewell Pike,Knoxville,TN,37918
Ball Camp Baptist Church,2412 Ball Camp Byington Rd,Knoxville,TN,37931
Ball Road Baptist Church,6323 Ball Rd,Knoxville,TN,37931
Beaver Dam Baptist Church,4328 E Emory Rd,Knoxville,TN,37938
Belmont Heights Baptist Church,2510 Belmont Heights Ave,Knoxville,TN,37921
Black Oak Heights Baptist Chr,405 Black Oak Dr,Knoxville,TN,37912
Black Oak Ridge Baptist Church,PO Box 70487,Knoxville,TN,37938
Branville Baptist Church,7716 Millertown Pike,Knoxville,TN,37924
Bridgewater Baptist Church,205 Bridgewater Rd,Knoxville,TN,37923
Broadway Baptist Child Develop,815 N Broadway St,Knoxville,TN,37917
Buffat Heights Baptist Church,2101 Ault Rd,Knoxville,TN,37914
Callahan Road Baptist Church,1336 Callahan Dr,Knoxville,TN,37912
Calvary Baptist Church,163 N Jefferson Cir,Oak Ridge,TN,37830
Canaan Baptist Church,1117 Beaman Lake Rd,Knoxville,TN,37914
Central Baptist Church,130 Providence Rd,Oak Ridge,TN,37830
Chilhowee Hills Baptist Church,PO Box 6010,Knoxville,TN,37914
Church at Sterchi Hills,904 Dry Gap Pike,Knoxville,TN,37918
Cornerstone Baptist Church,2500 Mynatt Rd,Knoxville,TN,37918
Cornerstone Baptist Fellowship,6702 Central Avenue Pike,Knoxville,TN,37912
Cumberland Baptist Church,5600 Western Ave,Knoxville,TN,37921
Dutch Valley Baptist Church,909 Dutch Valley Dr NE,Knoxville,TN,37918
Ebenezer Baptist Church,6028 Ebenezer Rd,Greenbrier,TN,37073
Faith Promise Church,10740 Faith Promise Ln,Knoxville,TN,37931
Fifth Ave Baptist Ch Day Care,2500 E 5th Ave,Knoxville,TN,37914
First Baptist Church-Bluegrass,1907 Ebenezer Rd,Knoxville,TN,37922
First Baptist Church-Knoxville,510 W Main St,Knoxville,TN,37902
First Calvary Baptist Church,1750 Delaware Ave,Knoxville,TN,37921
Forest Grove Free Will Baptist,7201 Hodges Ferry Rd,Knoxville,TN,37920
Fort Hill Baptist Church,PO Box 20211,Knoxville,TN,37940
Fort Sanders Baptist Church,1642 Highland Ave,Knoxville,TN,37916
Foster Chapel Baptist Church,4012 Oakland Dr,Knoxville,TN,37918
Glen Oak Missionary Baptist,510 E Oklahoma Ave,Knoxville,TN,37917
Grace Baptist Church,PO Box 747,Springfield,TN,37172
Grassy Valley Baptist Church,10637 Kingston Pike,Knoxville,TN,37922
Greater Ebenezer Baptist Chr,2903 Linden Ave,Knoxville,TN,37914
Greenway Baptist Church,2807 Addison Dr,Knoxville,TN,37918
Hoitt Avenue Baptist Church,2121 Hoitt Ave,Knoxville,TN,37917
Immanuel Baptist Church,205 Hunter Ave,Elizabethton,TN,37643
Inskip Baptist Church,4810 Rowan Rd,Knoxville,TN,37912
Island Home Baptist Church,2323 Island Home Ave,Knoxville,TN,37920
John Sevier Baptist Church,1401 Paramount Rd,Knoxville,TN,37924
Knoxville Baptist Tabernacle,2439 E Magnolia Ave,Knoxville,TN,37917
Lincoln Park Baptist Church,830 Chickamauga Ave,Knoxville,TN,37917
Linden Baptist Church,2341 Jefferson Ave,Knoxville,TN,37917
Loveland Baptist Church,1340 Spring Hill Rd,Knoxville,TN,37914
Marble City Baptist Church,2740 Sutherland Ave,Knoxville,TN,37919
Marbledale Baptist Church,6101 Thorngrove Pike,Knoxville,TN,37914
Meadow View Baptist Church,4300 Island Home Ave,Knoxville,TN,37920
Meridian Baptist Church,161 Harts Bridge Rd,Jackson,TN,38301
Miracle Baptist Church,7835 Rosemary Cir,Chattanooga,TN,37416
Mount Calvary Baptist Church,1807 Dandridge Ave,Knoxville,TN,37915
Mount Olive Baptist Church,608 Main St,Clarksville,TN,37040
Mount Olive Baptist Church S,2500 Maryville Pike,Knoxville,TN,37920
Mount Zion Baptist Church,RR 7 Box 325a,Rogersville,TN,37857
Mountain View Baptist Church,4005 Bristol Hwy,Johnson City,TN,37601
Mt Harmony Baptist Church,6500 Strawberry Plains Pike,Knoxville,TN,37914
New Covenant Baptist Church,209 Canton Hollow Rd,Knoxville,TN,37934
New Fellowship Baptist Church,4624 Nora Rd,Knoxville,TN,37918
New Hope Baptist Church,6010 S New Hope Rd,Hermitage,TN,37076
New Hopewell Baptist Church,943 Kimberlin Heights Rd,Knoxville,TN,37920
New Mount Calvary Baptist Chr,PO Box 27283,Knoxville,TN,37927
North Acres Baptist Church,5803 Millertown Pike,Knoxville,TN,37924
North Knoxville Baptist Church,217 W Oldham Ave,Knoxville,TN,37917
Northwest Baptist Church,2614 Merchant Dr,Knoxville,TN,37912
Norwood Baptist Church,1725 Wilson Rd,Knoxville,TN,37912
Oakwood Baptist Church,4501 Bonny Oaks Dr,Chattanooga,TN,37416
Park Lane Baptist Church,1723 Washington Ave,Knoxville,TN,37917
Parkway Baptist Church,505 Cunniff Pky,Goodlettsville,TN,37072
Payne Avenue Mssnry Bapt Chr,2714 Martin Luther King Jr Ave,Knoxville,TN,37914
Piney Grove Baptist Church,536 Blockhouse Rd,Maryville,TN,37803
Ridgedale Baptist Church,1831 Hickory Valley Rd,Chattanooga,TN,37421
Ridgeview Baptist Church,234 Hurd Rd,Church Hill,TN,37642
Riverdale Baptist Church,7124 Thorngrove Pike,Knoxville,TN,37914
Riverview Baptist Church,410 Old Blacksferry Ln,Clinton,TN,37716
Rocky Hill Baptist Church,7409 S Northshore Dr,Knoxville,TN,37919
Rogers Memorial Baptist Church,520 College St,Knoxville,TN,37921
Salem Baptist Church,206 Sullivan St,Jackson,TN,38301
Second Baptist Church,406 W 3rd Ave,Lenoir City,TN,37771
Seven Island Baptist Church,8111 Seven Islands Rd,Knoxville,TN,37920
Sevier Heights Baptist Church,3232 Alcoa Hwy,Knoxville,TN,37920
Sharon Baptist Church,7916 Pedigo Rd,Knoxville,TN,37938
Smithwood Baptist Church,4914 Jacksboro Pike,Knoxville,TN,37918
South Knoxville Baptist Chr,522 Sevier Ave,Knoxville,TN,37920
Southside Baptist Church,1928 Wheeler St,Johnson City,TN,37604
Stock Creek Baptist Church,8106 Martin Mill Pike,Knoxville,TN,37920
Tabernacle Baptist Church,1444 Bloomingdale Rd,Kingsport,TN,37660
Tennessee Avenue Baptist Chr,1324 Tennessee Ave,Knoxville,TN,37921
Third Creek Baptist Church,4917 Western Ave,Knoxville,TN,37921
Timothy Street Baptist Church,206 Timothy Ave,Knoxville,TN,37914
Union Baptist Church,1411 Highway 321,Hampton,TN,37658
Valley Grove Baptist Church,9000 Sevierville Pike,Knoxville,TN,37920
Wallace Memorial Child Care,701 Merchant Dr,Knoxville,TN,37912
West Haven Baptist Church,5651 Matlock Dr,Knoxville,TN,37921
West Hills Baptist Church,1769 Highway 11 W,Bristol,TN,37620
West Lonsdale Bapt Chr Day Car,2720 Dayton St,Knoxville,TN,37921
West Park Baptist Church,8833 Middlebrook Pike,Knoxville,TN,37923
West Side Baptist Church,1524 Vermont Ave,Knoxville,TN,37921
Westlake Church,PO Box 23894,Knoxville,TN,37933
Wilder Baptist Church,1531 Wilder Pl,Knoxville,TN,37915
All Saints Catholic Church,620 N Cedar Bluff Rd,Knoxville,TN,37923
Holy Ghost Catholic Church,PO Box 3936,Knoxville,TN,37927
Immaculate Conception Catholic,414 W Vine Ave,Knoxville,TN,37902
John Xxiii Catholic Ctr,1710 Melrose Pl,Knoxville,TN,37916
Sacred Heart Cathedral,711 S Northshore Dr,Knoxville,TN,37919
West Towne Christian Church,9300 Middlebrook Pike,Knoxville,TN,37931
Woodlawn Christian Church,4339 Woodlawn Pike,Knoxville,TN,37920
Karns Church of Christ,6612 Beaver Ridge Rd,Knoxville,TN,37931
Laurel Church of Christ,PO Box 10248,Knoxville,TN,37939
Norwood Church of Christ,6001 Central Avenue Pike,Knoxville,TN,37912
West End Church of Christ,W End Ave,Nashville,TN,37203
Church of Ascension-Episcopal,819 Agnes Rd,Knoxville,TN,37919
Church of the Ascension,800 S Northshore Dr,Knoxville,TN,37919
Church of the Good Samaritan,425 N Cedar Bluff Rd,Knoxville,TN,37923
Church of the Good Shepherd,PO Box 145,Lookout Mountain,TN,37350
St James Episcopal Church,1101 N Broadway St,Knoxville,TN,37917
St John's Cathedral,PO Box 153,Knoxville,TN,37901
First Church of the Nazarene,150 Richview Rd,Clarksville,TN,37043
Berean Bible Church,2329 Prosser Rd,Knoxville,TN,37914
Heska Amuna Synagogue,PO Box 10162,Knoxville,TN,37939
Temple Beth El-Office,PO Box 10325,Knoxville,TN,37939
Christus Victor Lutheran Chrch,PO Box 12132,Knoxville,TN,37912
Faith Lutheran Church,1300 Oak Ridge Tpke,Oak Ridge,TN,37830
First Lutheran Church,113 8th Ave S,Nashville,TN,37203
Gloria Dei Lutheran Church,6632 Chapman Hwy,Knoxville,TN,37920
Grace Lutheran Church,2041 Madison St,Clarksville,TN,37043
Messiah Lutheran Church,6900 Kingston Pike,Knoxville,TN,37919
Peace Lutheran Church,621 N Cedar Bluff Rd,Knoxville,TN,37923
St John's Lutheran Church,3259 McGavock Pike,Nashville,TN,37214
Asbury United Methodist Church,2822 Asbury Rd,Knoxville,TN,37914
Bearden United Methodist Chr,PO Box 11065,Knoxville,TN,37939
Beaver Ridge United Methodist,PO Box 7007,Knoxville,TN,37921
Bethel Ame Church,2011 E Alcy Rd,Memphis,TN,38114
Bookwalter United Methodist,4218 Central Avenue Pike,Knoxville,TN,37912
Burlington United Methodist Ch,4429 Larigo Dr,Knoxville,TN,37914
Central United Methodist Chr,301 Hickory Creek Rd,Lenoir City,TN,37771
Christ United Methodist Church,508 Franklin Rd,Franklin,TN,37069
Church St United Methodist,PO Box 1303,Knoxville,TN,37901
Cokesbury United Methodist Chr,9908 Kingston Pike,Knoxville,TN,37922
Colonial Heights United Meth,PO Box 6027,Kingsport,TN,37663
Concord United Methodist Chr,11020 Roane Dr,Knoxville,TN,37934
Ebenezer United Methodist Chr,1001 Ebenezer Rd,Knoxville,TN,37923
Emerald Ave United Methodist,1620 N Central St,Knoxville,TN,37917
Fairview United Methodist Chr,2508 Old Niles Ferry Rd,Maryville,TN,37803
First Ame Zion Church,1900 McCalla Ave,Knoxville,TN,37915
First United Methodist Preschl,3316 Kingston Pike,Knoxville,TN,37919
Fountain City United Meth Chr,212 Hotel Rd,Knoxville,TN,37918
Hillcrest United Methodist Chr,1615 Price Ave,Knoxville,TN,37920
Inskip United Methodist Chr,714 Cedar Ln,Knoxville,TN,37912
Lennon Seney United Methodist,PO Box 14665,Knoxville,TN,37914
Macedonia United Methodist Chr,4630 Holston Dr,Knoxville,TN,37914
Magnolia Avenue United Meth,PO Box 6714,Knoxville,TN,37914
Middlebrook Pike United Meth,7234 Middlebrook Pike,Knoxville,TN,37909
New Salem United Methodist Ch,2417 Tipton Station Rd,Knoxville,TN,37920
Norwood United Methodist Chr,2110 Merchants Dr,Knoxville,TN,37912
Oakwood United Methodist Chr,334 E Burwell Ave,Knoxville,TN,37917
Sand Branch United Methodist,2301 Thorngrove Pike,Knoxville,TN,37914
Second United Methodist Church,1524 Western Ave,Knoxville,TN,37921
St Andrews United Methodist,1918 Union Ave,Chattanooga,TN,37404
St Luke's United Methodist,3839 Buffat Mill Rd,Knoxville,TN,37914
St Marks United Methodist Chr,1267 N Rutherford Blvd,Murfreesboro,TN,37130
St Paul United Methodist,4014 Garden Dr,Knoxville,TN,37918
Trinity United Methodist Chr,320 Robertsville Rd,Oak Ridge,TN,37830
Vestal United Methodist Church,700 Barclay Dr,Knoxville,TN,37920
Washington Pike United Meth,2241 Washington Pike,Knoxville,TN,37917
Calvary Chapel of Knoxville,2864 Alcoa Hwy,Knoxville,TN,37920
Cornerstone Church-Knoxville,PO Box 11848,Knoxville,TN,37939
Eternal Life Harvest Ctr,PO Box 3098,Knoxville,TN,37927
Fellowship Evangelical Free,8000 Middlebrook Pike,Knoxville,TN,37909
Freedom Fellowship Christian,4310 Papermill Dr,Knoxville,TN,37909
New Covenant Fellowship Church,6828 Central Avenue Pike,Knoxville,TN,37918
Providence Church,1432 Lovell Rd,Knoxville,TN,37932
St Joseph's House of Prayer,1300 University Ave,Knoxville,TN,37921
Trinity Chapel,5830 Haynes Sterchi Rd,Knoxville,TN,37912
Two Rivers Church,11543 Kingston Pike,Knoxville,TN,37934
St George Orthodox Church,4070 Kingston Pike,Knoxville,TN,37919
Bethel Apostolic Temple,PO Box 50155,Knoxville,TN,37950
Central Church of God,4721 Papermill Dr,Knoxville,TN,37909
Cherry Street Church of God,729 S Cherry St,Knoxville,TN,37914
Dutch Valley Church of God,1416 Breda Dr,Knoxville,TN,37918
First Apostolic Church,1723 William Blount Dr,Maryville,TN,37801
Knoxville Christian Ctr,PO Box 50490,Knoxville,TN,37950
Living By Faith Ministries,PO Box 23174,Knoxville,TN,37933
New Vision Fellowship,3335 Dewine Rd,Knoxville,TN,37921
Northwest Church of God,5320 Pleasant Ridge Rd,Knoxville,TN,37912
South Knoxville Church of God,5623 Magazine Rd,Knoxville,TN,37920
Beaver Creek Presbyterian Chr,7225 Old Clinton Pike,Knoxville,TN,37921
Cedar Springs Presbyterian Chr,9132 Kingston Pike,Knoxville,TN,37923
Christ Covenant Presbyterian,"11819 Kingston Pike, #b",Knoxville,TN,37934
Community Evangelistic Church,2650 Boyds Bridge Pike,Knoxville,TN,37914
Eastminster Presbyterian Chr,4904 Asheville Hwy,Knoxville,TN,37914
Erin Presbyterian Church,200 Lockett Rd,Knoxville,TN,37919
First Cumberland Presbyterian,1730 Highway 45 Byp,Jackson,TN,38305
First Presbyterian Church,12940 S Main St,Somerville,TN,38068
Fountain City Presbyterian,500 Hotel Rd,Knoxville,TN,37918
Graystone Presbyterian Church,139 Woodlawn Pike,Knoxville,TN,37920
Lake Forest Presbyterian Chr,714 Lake Forest Dr,Knoxville,TN,37920
Lake Hills Presbyterian Church,3805 Maloney Rd,Knoxville,TN,37920
New Covenant Presbyterian Chr,5520 Ball Camp Pike,Knoxville,TN,37921
New Hope Presbyterian Church,1705 Merchant Dr,Knoxville,TN,37912
Second Presbyterian Church,4055 Poplar Ave,Memphis,TN,38111
Sequoyah Hills Presbyterian,3700 Keowee Ave,Knoxville,TN,37919
Union Cumberland Presbyterian,400 Everett Rd,Knoxville,TN,37934
West Hills Presbyterian Church,7600 Bennington Dr,Knoxville,TN,37909
Westminster Presbyterian Chr,PO Box 5487,Johnson City,TN,37602
Beulah's Church Of God,1510 University Ave,Knoxville,TN,37921
Burnside House Of Prayer,2812 Burnside St,Knoxville,TN,37921
Cornerstone Church Of Knoxville,1268 Rocky Hill Rd,Knoxville,TN,37919
Church Of God Of Knoxville,5912 Thorngrove Pike,Knoxville,TN,37914
Concord Church Of Christ,317 Sugarwood Dr,Knoxville,TN,37934
Christian Church Of Fountain,2619 Holbrook Dr,Knoxville,TN,37918
Eastmore Church Of God,7107 Asheville Hwy,Knoxville,TN,37924
Emmanuel Assembly Of God,2216 Prosser Rd,Knoxville,TN,37914
Knoxville House Of Faith,416 Lovenia Ave,Knoxville,TN,37917
A-minit With God Church,1833 Wonderland Ln,Knoxville,TN,37914
Abiding Glory Ministries,1610 Midpark Rd,Knoxville,TN,37921
Adams Gordon E Rev,8901 Strafford Cir,Knoxville,TN,37923
Advent House,1918 Terrace Ave,Knoxville,TN,37916
Aldersgate United Methodist Ch,3938 E Emory Rd,Knoxville,TN,37938
All Souls Church,4 Market Sq,Knoxville,TN,37902
Angelic Ministries,1218 N Central St,Knoxville,TN,37917
Antioch Baptist Church,8432 E US Highway 79,Bells,TN,0
Antiochfire Baptized Holiness,2316 Linden Ave,Knoxville,TN,37917
Apostles Anglican Church,1540 Robinson Rd,Knoxville,TN,37923
Arlington Church Of Christ,5999 Polk St,Arlington,TN,38002
Hamilton Community Church,7997 Shallowford Rd,Chattanooga,TN,37421
New Life Sda Church,2099 E Main St,Chattanooga,TN,37404
Alpine Baptist Church,4720 Stagg Rd,Chattanooga,TN,37415
Antioch Missionary Baptist Chr,901 Fowler St,Clinton,TN,37716
Brainerd Baptist Church,PO Box 8159,Chattanooga,TN,37414
Brainerd Hills Baptist Church,6611 E Brainerd Rd,Chattanooga,TN,37421
Chamberlain Memorial Baptist,4239 Benton Dr,Chattanooga,TN,37406
Clifton Hill Baptist Church,3616 Rossville Blvd,Chattanooga,TN,37407
Concord Baptist Church,7025 E Brainerd Rd,Chattanooga,TN,37421
Duncan Park Baptist Church,1617 Glowmont Dr,Chattanooga,TN,37412
East Brainerd Baptist Church,1047 Graysville Rd,Chattanooga,TN,37421
East Ridge Baptist Church,4201 Ringgold Rd,Chattanooga,TN,37412
Frawley Road Baptist Church,510 Frawley Rd,Chattanooga,TN,37412
Friendship Baptist Church,1998 Friendship Rd,Lenoir City,TN,37772
Greater New Home Baptist Chr,1001 McCallie Ave,Chattanooga,TN,37403
Harmony Baptist Church,1177 Harmony Rd,Jonesborough,TN,37659
Hickory Valley Baptist Church,2320 Hickory Valley Rd,Chattanooga,TN,37421
Highland Park Baptist Church,4333 Highway 11 E,Lenoir City,TN,37772
Kingwood Baptist Church,3522 Ringgold Rd,Chattanooga,TN,37412
Lookout Valley Baptist Church,23 Lilac Ave,Chattanooga,TN,37419
Lupton Drive Baptist Church,859 Lupton Dr,Chattanooga,TN,37415
Miracle Missionary Baptist Chr,2009 Ruby St,Chattanooga,TN,37406
Morris Hill Baptist Church,1804 Morris Hill Rd,Chattanooga,TN,37421
Mountain Creek Baptist Church,1001 Mountain Creek Rd,Chattanooga,TN,37405
New Emanuel Baptist Church,PO Box 1092,Chattanooga,TN,37401
New Emmanuel Baptist Church,PO Box 80184,Chattanooga,TN,37414
New Haven Baptist Church,PO Box 21721,Chattanooga,TN,37424
New Monumental Baptist Church,901 Woodmore Ln,Chattanooga,TN,37411
Oak Grove Baptist Church,311 Cypress St,Mt Carmel,TN,37645
Olivet Baptist Church,3084 Southern Ave,Memphis,TN,38111
Orchard Knob Baptist Church,PO Box 3664,Chattanooga,TN,37404
Philadelphia Baptist Church,3515 Jenkins Dr,Rossville,TN,38066
Red Bank Baptist Church,4000 Dayton Blvd,Chattanooga,TN,37415
Resurrected Baptist Church,PO Box 80566,Chattanooga,TN,37414
Ridgecrest Baptist Church,343 Sweetland Dr,Chattanooga,TN,37415
Riverside Baptist Church,3335 Boydston Rd,Chattanooga,TN,37419
Second Missionary Baptist Chr,1000 Halcyon Ave,Nashville,TN,37204
Silverdale Baptist Church,7236 Bonny Oaks Dr,Chattanooga,TN,37421
Spring Creek Road Baptist Chr,1312 Spring Creek Rd,Chattanooga,TN,37412
Stuart Heights Baptist Church,3208 Hixson Pike,Chattanooga,TN,37415
Temple Baptist Church,110 Park Cir,Old Hickory,TN,37138
Tremont Baptist Church,214 Tremont St,Chattanooga,TN,37405
Tucker Baptist Church,1115 N Moore Rd,Chattanooga,TN,37411
White Oak Baptist Church,310 Memorial Dr,Chattanooga,TN,37415
Woodland Heights Baptist Chr,953 Beason Dr,Chattanooga,TN,37405
Woodland Park Baptist Church,PO Box 7039,Oak Ridge,TN,37831
Our Lady of Perpetual Help,8151 Poplar Ave,Germantown,TN,38138
St Jude Catholic Church,930 Ashland Ter,Chattanooga,TN,37415
St Stephen Catholic Church,7111 Lee Hwy,Chattanooga,TN,37421
Sts Peter ,214 E 8th St,Chattanooga,TN,37402
Hickory Valley Christian Chr,6605 Shallowford Rd,Chattanooga,TN,37421
Brainerd Church of Christ,4203 Brainerd Rd,Chattanooga,TN,37411
East Brainerd Church of Christ,7745 E Brainerd Rd,Chattanooga,TN,37421
East Ridge Church of Christ,McBrien Rd,Chattanooga,TN,37411
Mountain Creek Church-Christ,985 Runyan Dr,Chattanooga,TN,37405
New United Church,2629 Tunnel Blvd,Chattanooga,TN,37406
Red Bank Church of Christ,3600 Dayton Blvd,Chattanooga,TN,37415
Grace Episcopal Church,20 Belvoir Ave,Chattanooga,TN,37411
St Martin's Episcopal Church,PO Box 21275,Chattanooga,TN,37424
St Paul's Episcopal Church,510 W Main St,Franklin,TN,37064
St Peter's Episcopal Church,848 Ashland Ter,Chattanooga,TN,37415
St Thaddaeus Episcopal Church,PO Box 16305,Chattanooga,TN,37416
Scott Memorial Church of God,1620 Waterhouse St,Chattanooga,TN,37412
B'Nai Zion Congregation,PO Box 8736,Chattanooga,TN,37414
Mizpah Congregation-Reform,923 McCallie Ave,Chattanooga,TN,37403
Cross of Christ Lutheran Chr,3204 Hixson Pike,Chattanooga,TN,37415
First Lutheran Church Missouri,2800 McCallie Ave,Chattanooga,TN,37404
Good Shepherd Lutheran Church,822 Belvoir Ave,Chattanooga,TN,37412
Brainerd United Methodist Chr,4315 Brainerd Rd,Chattanooga,TN,37411
East Lake United Methodist Chr,PO Box 73023,Chattanooga,TN,37407
First-Centenary United Meth,PO Box 208,Chattanooga,TN,37401
Forrest Avenue United Methdst,PO Box 4002,Chattanooga,TN,37405
Jones Memorial United Meth,4131 Ringgold Rd,Chattanooga,TN,37412
Red Bank United Methodist Chr,3800 Dayton Blvd,Chattanooga,TN,37415
St Elmo United Methodist Chr,PO Box 2225,Chattanooga,TN,37409
St John United Methodist Schl,3921 Murray Hills Dr,Chattanooga,TN,37416
St Luke United Methodist Chr,2600 E Center St,Kingsport,TN,37664
St Paul Ame Church,2514 Williams St,Chattanooga,TN,37408
Stanley United Methodist Chr,501 Dodson Ave,Chattanooga,TN,37404
Tyner United Methodist Church,6805 Standifer Gap Rd,Chattanooga,TN,37421
Warren Chapel Ame Church,PO Box 4959,Chattanooga,TN,37405
Wauhatchie United Methodist,8 Myrtle Ave,Chattanooga,TN,37419
Wesley Memorial United Meth,6314 E Brainerd Rd,Chattanooga,TN,37421
White Oak United Methodist Chr,PO Box 15788,Chattanooga,TN,37415
Wiley Memorial United Meth,500 Lookout St,Chattanooga,TN,37403
Church of the First Born,3418 Saint Elmo Ave,Chattanooga,TN,37409
Greater Friendship Missionary,914 Park Ave,Chattanooga,TN,37403
New Covenant Christian Academy,1326 N Moore Rd,Chattanooga,TN,37411
Calvary Assembly of God,PO Box 9516,Chattanooga,TN,37412
City Church,110 Gallatin Ave,Nashville,TN,37206
East Chattanooga Church of God,4924 Highway 58,Chattanooga,TN,37416
East Ridge Church of God,1512 McBrien Rd,Chattanooga,TN,37412
Holy Temple Church of God,PO Box 5157,Chattanooga,TN,37406
Joyful Sound Church of God,PO Box 3322,Chattanooga,TN,37404
Living Word Church of God,2080 12th Ave S,Nashville,TN,37204
Brainerd Presbyterian Church,1624 Jenkins Rd,Chattanooga,TN,37421
Covenant Presbyterian Church,190 Manhattan Ave,Oak Ridge,TN,37830
New City Fellowship,2424 E 3rd St,Chattanooga,TN,37404
Northside Presbyterian Church,923 Mississippi Ave,Chattanooga,TN,37405
Pilgrim Congregational Church,400 Glenwood Dr,Chattanooga,TN,37404
Presbyterian Campus Ministry,841 Oak St,Chattanooga,TN,37403
Red Bank Cumberland Presby Chr,115 Morrison Springs Rd,Chattanooga,TN,37415
Red Bank Presbyterian Church,4320 Dayton Blvd,Chattanooga,TN,37415
Rivermont Presbyterian Church,3319 Hixson Pike,Chattanooga,TN,37415
Tiftonia Church Of Christ,159 Browns Ferry Rd,Chattanooga,TN,37419
Anglican Church Of Redeemer,5916 Brainerd Rd,Chattanooga,TN,37421
Shepherd Church Of Christ,1902 Shepherd Rd,Chattanooga,TN,37421
Tyner Church Of Christ,6620 Bonny Oaks Dr,Chattanooga,TN,37421
Ridgedale Church Of Christ,1005 Dodds Ave,Chattanooga,TN,37404
1St Haitian Church-chattanooga,4901 Midland Pike,Chattanooga,TN,37411
Abundant Life Church Of God,1660 Peavine Rd,Crossville,TN,38571
Allen's Temple Ame Church,817 Dodson Ave,Chattanooga,TN,37406
Alton Park Child Development,3735 Alton Park Blvd,Chattanooga,TN,37410
Amg International,6815 Shallowford Rd,Chattanooga,TN,37421
Anglican Church- Redeemer,545 Oak St,Chattanooga,TN,37403
Ankerberg John Television Show,6928 Lee Hwy,Chattanooga,TN,37421
Antioch Primitive Baptist Chr,1001 N Spring St,Murfreesboro,TN,37130
Apple Physical Medicine ,7446 Shallowford Rd,Chattanooga,TN,37421
Highland Seventh-Day Adventist,PO Box 430,Portland,TN,37148
Halltown Gen Baptist Church,120 Dink Rut Rd,Portland,TN,37148
Hollis Chapel Baptist Church,1344 Brandy Hollow Rd,Portland,TN,37148
Church of Christ,1001 Hadley Ave,Old Hickory,TN,37138
Mc Kendree Memorial Umc,208 Wheeler St,Portland,TN,37148
Hillcrest Sda Church,2010 25th Ave N,Nashville,TN,37208
Riverside Chapel Seventh Day,800 Youngs Ln,Nashville,TN,37207
Beech Creek Missionary Baptist,3101 Curtis St,Nashville,TN,37218
Bellevue Baptist Church,PO Box 1210,Cordova,TN,38088
Berean Baptist Church,4825 Fairmeade Ct,Nashville,TN,37218
Bordeaux Baptist Church,1900 S Hamilton Rd,Nashville,TN,37218
Broadmoor Baptist Church,3824 Austin Peay Hwy,Memphis,TN,38128
Brook Hollow Baptist Church,678 Brook Hollow Rd,Nashville,TN,37205
Charlotte Road Baptist Church,7511 Charlotte Pike,Nashville,TN,37209
Cleveland Street Baptist Chr,608 Cleveland St,Nashville,TN,37207
Cofers Chapel Free Will Bapt,3915 Franklin Pike,Nashville,TN,37204
Corinthian Baptist Church,819 33rd Ave N,Nashville,TN,37209
Cowan Street Baptist Church,1717 4th Ave N,Nashville,TN,37208
Crievewood Baptist Church,480 Hogan Rd,Nashville,TN,37220
Dalewood Baptist Church,1586 McGavock Pike,Nashville,TN,37216
Dickerson Road Baptist Church,3601 Dickerson Pike,Nashville,TN,37207
Donelson Fellowship,3210 McGavock Pike,Nashville,TN,37214
Donelson View Baptist Church,2049 Lebanon Pike,Nashville,TN,37210
Eastland Baptist Church,1215 Gallatin Ave,Nashville,TN,37206
Edgefield Baptist Church,700 Russell St,Nashville,TN,37206
Fairfield Missionary Baptist,120 Fain St,Nashville,TN,37210
Faith United Missionary Bapt,2800 Whites Creek Pike,Nashville,TN,37207
Fifteenth Avenue Baptist Chr,1203 9th Ave N,Nashville,TN,37208
Forest Hills Baptist Church,2101 Old Hickory Blvd,Nashville,TN,37215
Foster Chapel Missionary,342 Ewing Dr,Nashville,TN,37207
Fourteenth Avenue Baptist Chr,2501 Buchanan St,Nashville,TN,37208
Galilee Missionary Baptist Chr,2021 Herman St,Nashville,TN,37208
Glenwood Baptist Church,7212 Central Avenue Pike,Powell,TN,37849
Grace Community Church,PO Box 121377,Nashville,TN,37212
Greater St John Missionary,2200 26th Ave N,Nashville,TN,37208
Harpeth Heights Baptist Church,8063 Highway 100,Nashville,TN,37221
Harsh Chapel Baptist Church,2111 Elm Hill Pike,Nashville,TN,37210
Haywood Hills Baptist Church,255 Haywood Ln,Nashville,TN,37211
Hillhurst Baptist Church,144 Ewing Dr,Nashville,TN,37207
Immanuel Missionary Baptist,934 43rd Ave N,Nashville,TN,37209
Inglewood Baptist Church,3901 Gallatin Pike,Nashville,TN,37216
Ivy Memorial Baptist Church,425 E Trinity Ln,Nashville,TN,37207
Jackson Street Baptist Church,1209 Jackson St,Nashville,TN,37208
Jefferson Street Missionary,2708 Jefferson St,Nashville,TN,37208
Judson Baptist Church,4900 Franklin Pike,Nashville,TN,37220
Kayne Avenue Baptist Church,1025 12th Ave S,Nashville,TN,37203
King Solomon Missionary Bapt,1417 10th Ave N,Nashville,TN,37208
Lake Providence Baptist Church,4506 Nolensville Pike,Nashville,TN,37211
Lakewood Baptist Church,400 Donelson Pike,Nashville,TN,37214
Lincoya Hills Baptist Church,3143 McGavock Pike,Nashville,TN,37214
Lockeland Baptist Church,1601 Holly St,Nashville,TN,37206
Lyle Lane Baptist Church,107 Lyle Ln,Nashville,TN,37210
Mc Nairy Hill United Primitive,2208 Hermosa St,Nashville,TN,37208
Morning Star Baptist Church,PO Box 101482,Nashville,TN,37224
Mt Ararat Baptist Church,36 Fairfield Ave,Nashville,TN,37210
Mt Bethel Baptist Church,2506 Deadrick Ave,Memphis,TN,38114
Mt Calvary Baptist Church,2448 Herman St,Nashville,TN,37208
Mt Gilead Baptist Church,901 Acklen Ave,Nashville,TN,37203
Mt Nebo Baptist Church,555 Vance Ave,Memphis,TN,38126
Mt Pisgah Baptist Church,1234 Pisgah Rd,Cordova,TN,38016
New Hope Missionary Baptist,2350 Elvis Presley Blvd,Memphis,TN,38106
New Life Baptist Church,4809 Gallatin Pike,Nashville,TN,37216
New Livingstone Baptist Church,330 Hancock St,Nashville,TN,37207
Nolensville Road Baptist Chr,5106 Nolensville Pike,Nashville,TN,37211
Northwood Baptist Church,1287 Old Hickory Blvd,Nashville,TN,37207
Park Avenue Baptist Church,4301 Charlotte Ave,Nashville,TN,37209
Pilgrim Emanuel Baptist Church,945 S Douglas Ave,Nashville,TN,37204
Pleasant Green Baptist Church,913 Thomas St,Memphis,TN,38107
Priest Lake Community Baptist,2754 Anderson Rd,Nashville,TN,37217
Roger Heights Baptist Church,2200 Whites Creek Pike,Nashville,TN,37207
Rosedale Baptist Church,503 Rosedale Ave,Nashville,TN,37211
Saturn Drive Baptist Church,1212 Saturn Dr,Nashville,TN,37217
Shelby Avenue Baptist Church,1012 Shelby Ave,Nashville,TN,37206
Shiloh Missionary Baptist Chr,1117 2nd Ave S,Nashville,TN,37210
Smith Springs Baptist Church,PO Box 17789,Nashville,TN,37217
Spruce Street Baptist Church,504 20th Ave N,Nashville,TN,37203
St James Baptist Church,600 28th Ave N,Nashville,TN,37209
St Luke's Primitive Baptist,135 Lewis St,Nashville,TN,37210
St Mark Baptist Church,1226 6th Ave N,Nashville,TN,37208
St Matthews Missionary Baptist,2412 Osage St,Nashville,TN,37208
Swifts Tabernacle Baptist Ch,1926 10th Ave N,Nashville,TN,37208
Third Baptist Church,410 W McKnight Dr,Murfreesboro,TN,37129
Tulip Grove Baptist Chr,563 Shute Ln,Nashville,TN,37138
Tusculum Hills Baptist Church,4930 Nolensville Pike,Nashville,TN,37211
Two Rivers Baptist Church,2800 McGavock Pike,Nashville,TN,37214
Una Baptist Church,1931 Murfreesboro Pike,Nashville,TN,37217
Valley View Baptist Church,2442 Eastland Ave,Nashville,TN,37206
Watson Grove Baptist Church,1415 Horton Ave,Nashville,TN,37212
Westwood Baptist Church,6100 Charlotte Pike,Nashville,TN,37209
Westwood Baptist Church Ctr,2510 Albion St,Nashville,TN,37208
Whitsett Chapel Baptist Church,1351 Pleasant Hill Rd,Nashville,TN,37214
Woodmont Baptist Church,2100 Woodmont Blvd,Nashville,TN,37215
Assumption Church,1224 7th Ave N,Nashville,TN,37208
Cathedral of the Incarnation,2015 W End Ave,Nashville,TN,37203
Christ the King Church,3001 Belmont Blvd,Nashville,TN,37212
Holy Name Church,521 Woodland St,Nashville,TN,37206
Holy Rosary Catholic Church,190 Graylynn Dr,Nashville,TN,37214
St Henry Church,6401 Harding Pike,Nashville,TN,37205
St Joseph's Church,1225 Gallatin Rd,Nashville,TN,37115
St Patrick's Church,277 S 4th St,Memphis,TN,38126
St Vincent De Paul Church,1700 Heiman St,Nashville,TN,37208
Eastwood Christian Church,1601 Eastland Ave,Nashville,TN,37206
Vine Street Christian Church,4101 Harding Pike,Nashville,TN,37205
Woodmont Christian Church,3601 Hillsboro Pike,Nashville,TN,37215
Abundant Life Christian Ctr,5207 Linbar Dr,Nashville,TN,37211
Bellevue Church of Christ,7401 Highway 70 S,Nashville,TN,37221
Brentwood Hills Church,5120 Franklin Pike,Nashville,TN,37220
Charlotte Avenue Church,PO Box 90184,Nashville,TN,37209
Church of Christ-Trinity Lane,501 E Trinity Ln,Nashville,TN,37207
Crieve Hall Church of Christ,4806 Trousdale Dr,Nashville,TN,37220
Donelson Church of Christ,2706 Old Lebanon Rd,Nashville,TN,37214
East Side Church of Christ,901 Dalebrook Ln,Nashville,TN,37206
Granny White Church of Christ,3805 Granny White Pike,Nashville,TN,37204
Jackson Park Church of Christ,4103 Gallatin Pike,Nashville,TN,37216
Jackson Street Church-Christ,1408 Jackson St,Nashville,TN,37208
Lawrence Avenue Church-Christ,904 Lawrence Ave,Nashville,TN,37204
Lebanon Road Church of Christ,2307 Lebanon Pike,Nashville,TN,37214
Northside Church of Christ,1375 Old Hickory Blvd,Nashville,TN,37207
Otter Creek Church,5253 Granny White Pike,Nashville,TN,37220
Pennington Bend Church-Christ,2801 McGavock Pike,Nashville,TN,37214
Perry Heights Church of Christ,423 Donelson Pike,Nashville,TN,37214
Ramsey Street Church of Christ,810 Ramsey St,Nashville,TN,37206
Riverside Drive Church-Christ,1530 Riverside Dr,Nashville,TN,37206
Riverwood Church of Christ,1805 Riverwood Dr,Nashville,TN,37216
Smith Springs Church of Christ,2783 Smith Springs Rd,Nashville,TN,37217
Una Church of Christ,1917 Old Murfreesboro Pike,Nashville,TN,37217
Vultee Church of Christ,895 Murfreesboro Pike,Nashville,TN,37217
West Nashville Heights Church,5807 Charlotte Pike,Nashville,TN,37209
Western Hills Church of Christ,7565 Charlotte Pike,Nashville,TN,37209
Wingate Church of Christ,2903 Wingate Ave,Nashville,TN,37211
Woodmont Hills Church-Christ,3710 Franklin Pike,Nashville,TN,37204
Woodson Chapel Church-Christ,5800 Edmondson Pike,Nashville,TN,37211
Christ Church Cathedral,900 Broadway,Nashville,TN,37203
Church of the Advent,5501 Franklin Pike,Nashville,TN,37027
Southern Episcopal Church,4513 Park Ave,Nashville,TN,37209
St Bartholomew's Episcopal Chr,4800 Belmont Park Ter,Nashville,TN,37215
St David's Episcopal Church,6501 Pennywell Dr,Nashville,TN,37205
St George's Episcopal Church,4715 Harding Pike,Nashville,TN,37205
St Philip's Episcopal Church,85 Fairway Dr,Nashville,TN,37214
Bethel Church of the Nazarene,455 Broadmoor Dr,Nashville,TN,37216
Grace Church of the Nazarene,3135 Trenton Rd,Clarksville,TN,37040
Trinity First Church of God,1931 Old Murfreesboro Pike,Nashville,TN,37217
Temple Ohabai Sholom,5015 Harding Pike,Nashville,TN,37205
West End Synagogue,3810 W End Ave,Nashville,TN,37205
Christ Lutheran Church,PO Box 30218,Clarksville,TN,37040
Holy Trinity Lutheran Church,800 Broad St,Kingsport,TN,37660
Our Savior Lutheran Academy,5110 Franklin Pike,Nashville,TN,37220
Redeemer Lutheran Church,800 Bellevue Rd,Nashville,TN,37221
First Church Unity,5125 Franklin Pike,Nashville,TN,37220
Religious Science Church,6705 Charlotte Pike,Nashville,TN,37209
Andrew Price Memorial United,2846 Lebanon Pike,Nashville,TN,37214
Arlington United Methodist,1360 Murfreesboro Pike,Nashville,TN,37217
Bellshire United Methodist Chr,1201 Westchester Dr,Nashville,TN,37207
Blakemore United Methodist Chr,3601 W End Ave,Nashville,TN,37205
Calvary United Methodist Chr,3701 Hillsboro Pike,Nashville,TN,37215
Capers Memorial Cme Church,319 15th Ave N,Nashville,TN,37203
Clark Memorial United Meth Chr,1014 14th Ave N,Nashville,TN,37208
Crievewood United Methodist,451 Hogan Rd,Nashville,TN,37220
Dalewood Methodist Church,2300 Ridgecrest Dr,Nashville,TN,37216
Donelson Heights United Meth,84 Fairway Dr,Nashville,TN,37214
Edgehill United Methodist Chr,PO Box 128258,Nashville,TN,37212
Glencliff United Methodist Chr,2901 Glencliff Rd,Nashville,TN,37211
Hickory Bend United Methodist,605 Stewarts Ferry Pike,Nashville,TN,37214
Inglewood United Methodist Chr,3511 Gallatin Pike,Nashville,TN,37216
John Wesley United Methodist,901 Benton Ave,Nashville,TN,37204
Lee Chapel Ame Church,1732 Scovel St,Nashville,TN,37208
Mc Kendree United Meth Church,523 Church St,Nashville,TN,37219
Payne Chapel Ame Church,212 Neill Ave,Nashville,TN,37206
Pennington United Methodist,2745 Pennington Bend Rd,Nashville,TN,37214
South End United Methodist,5042 Edmondson Pike,Nashville,TN,37211
St John Ame Church,1822 Formosa St,Nashville,TN,37208
St Luke Ame Church,901 40th Ave N,Nashville,TN,37209
St Luke Cme Church,2008 28th Ave N,Nashville,TN,37208
St Paul Southern Methodist Chr,5035 Hillsboro Pike,Nashville,TN,37215
Tulip Street United Methodist,522 Russell St,Nashville,TN,37206
West End United Methodist Chr,2200 W End Ave,Nashville,TN,37203
West Nashville United Meth Chr,4710 Charlotte Pike,Nashville,TN,37209
Woodbine United Methodist Chr,2621 Nolensville Pike,Nashville,TN,37211
Bellevue Community Church,8001 Highway 70 S,Nashville,TN,37221
Belmont Church,68 Music Sq E,Nashville,TN,37203
Born Again Church,858 W Trinity Ln,Nashville,TN,37207
Ebenezer Community Church,2624 Morena St,Nashville,TN,37208
Faith Is the Victory Church,PO Box 160268,Nashville,TN,37216
First Response Ctr,2128 11th Ave N,Nashville,TN,37208
Oasis Worship Ctr,6016 Nolensville Rd,Nashville,TN,37211
Ray of Hope Community Church,901 Meridian St,Nashville,TN,37207
Schrader Lane Church of Christ,1234 Schrader Ln,Nashville,TN,37208
Spirit of Life Church,PO Box 17118,Nashville,TN,37217
Tusculum Church of Christ,4916 Nolensville Pike,Nashville,TN,37211
Victory Fellowship,PO Box 100885,Nashville,TN,37224
West Meade Fellowship,277 Old Hickory Blvd,Nashville,TN,37221
Word of Life Christian Ctr,PO Box 23421,Nashville,TN,37202
Holy Trinity Greek Orthodox,4905 Franklin Pike,Nashville,TN,37220
Bellevue Grace Assembly of God,7301 Highway 70 S,Nashville,TN,37221
Bethesda Original Church-God,2816 Tucker Rd,Nashville,TN,37218
Broadmoor Church of God,215 Broadmoor Dr,Nashville,TN,37207
Christ Church,15354 Old Hickory Blvd,Nashville,TN,37211
Church of the Living God,1310 Monetta Ave,Nashville,TN,37216
First United Pentecostal Chr,5100 Wyoming Ave,Nashville,TN,37209
Grace Apostolic Church,1100 Lischey Ave,Nashville,TN,37207
Greater Christ Temple Church,2400 10th Ave S,Nashville,TN,37204
Joywood Assembly of God,525 E Trinity Ln,Nashville,TN,37207
Music City Assembly of God Chr,PO Box 110356,Nashville,TN,37222
True Way Church of Our Lord,2715 Clarksville Pike,Nashville,TN,37208
Bellevue Presbyterian Church,100 Cross Timbers Dr,Nashville,TN,37221
Brookmeade Congregational Chr,700 Bresslyn Rd,Nashville,TN,37205
Christ Presbyterian Church,2323 Old Hickory Blvd,Nashville,TN,37215
Donelson Presbyterian Church,2305 Lebanon Pike,Nashville,TN,37214
Glen Leven Presby Chr-Day Schl,3906 Franklin Pike,Nashville,TN,37204
Meades Chapel Church of Christ,1251 Antioch Pike,Nashville,TN,37211
Trevecca Community Church,335 Murfreesboro Rd,Nashville,TN,37210
Trinity Presbyterian Church,1020 N Rutherford Blvd,Murfreesboro,TN,37130
Tusculum Cumberland Prsbtrn,477 McMurray Dr,Nashville,TN,37211
West End Community Church,"300 Orlando Ave, #100",Nashville,TN,37209
West Nashville Cumb Presby Chr,6849 Charlotte Pike,Nashville,TN,37209
Islamic Center Of Nashville,2515 12th Ave S,Nashville,TN,37204
Riverwood Church Of Christ,1904 McGavock Pike,Nashville,TN,37216
Gladstone Church Of Christ,2124 Gladstone Ave,Nashville,TN,37211
Christ Church Of Nazarene,744 E Argyle Ave,Nashville,TN,37203
Masonry Institute Of Tennessee,1138 2nd Ave N,Nashville,TN,37208
Inglewood Church Of Nazarene,3936 Gallatin Pike,Nashville,TN,37216
Ac Church Of Nashville,2059 Timberwood Dr,Nashville,TN,37215
Immanuel Ch Of Nazarene,4108 Murphy Rd,Nashville,TN,37209
Antioch Church Of Christ,3400 Sixteenth Model Rd,Manchester,TN,37355
Central Church Of Christ,1232 S Roane St,Harriman,TN,37748
Emmanuel Church Of Christ,3020 Lebanon Pike,Nashville,TN,37214
Southside Church Of Christ,1167 S Lowry St,Smyrna,TN,37167
Original Church Of God,80 Burning Bush Ln,Belvidere,TN,37306
Trinity Church Of Nazarene,1253 Vultee Blvd,Nashville,TN,37217
Salem Ame Church,1800 4th Ave N,Nashville,TN,37208
Salvation Army,PO Box 887,Bristol,TN,37621
Clifton Avenue United Baptist,1716 5th Ave N,Nashville,TN,37208
Power Of Jesus Christ Resurrection Church,1712 5th Ave N,Nashville,TN,37208
Episcopal Diocese Of Tennessee,50 Vantage Way,Nashville,TN,37228
Abiding Love Restoration Center,620 Dickerson Pike,Nashville,TN,37207
St Paul's Lutheran Church,1628 Rosa L Parks Blvd,Nashville,TN,37208
Boyce Street Church,1620 8th Ave N,Nashville,TN,37208
Christ Apostolic Church,1111 Dickerson Pike,Nashville,TN,37207
Family Fellowship Ministries,800 N 2nd St,Nashville,TN,37207
Temple Beyth El,1205 Brick Church Pike,Nashville,TN,37207
Grace United Missionary Bapt,1221 Brick Church Pike,Nashville,TN,37207
Monroe Street United Methodist,700 Monroe St,Nashville,TN,37208
St Cecilia Congregation,801 Dominican Dr,Nashville,TN,37228
Eighth Street Baptist Church,1223 6th Ave N,Nashville,TN,37208
Mt Moriah Comm Church,209 Berry St,Nashville,TN,37207
Nashville Inner City Ministry,1201 Joseph Ave,Nashville,TN,37207
Zion Baptist Church,213 Oak Rd,Powell,TN,37849
Church Of Christ,20 Spring St,Nashville,TN,37207
New Metropolitan Christian,1700 9th Ave N,Nashville,TN,37208
Hopewell Baptist Church,1398 S Willett St,Memphis,TN,38106
First Street Baptist Church,1212 9th Ave N,Nashville,TN,37208
Fifteenth Ave Baptist Church,1215 9th Ave N,Nashville,TN,37208
First Response Center,1219 9th Ave N,Nashville,TN,37208
Fifteenth Ave Baptist Comm Dev,930 Scovel St,Nashville,TN,37208
Christ Temple Church North,1600 10th Ave N,Nashville,TN,37208
Sylvan Street Baptist Church,326 Arrington St,Nashville,TN,37207
Swift's Tabernacle Baptist Chr,905 Clay St,Nashville,TN,37208
Tennessee Baptist Missionary,900 Jefferson St,Nashville,TN,37208
National Baptist Convention,1700 Baptist World Center Dr,Nashville,TN,37207
Spirit ,1414 Arthur Ave,Nashville,TN,37208
Church At Settle Court,247 Foster St,Nashville,TN,37207
Little Union Missionary Bapt,1632 Arthur Ave,Nashville,TN,37208
Mt Carmel Baptist Church,5440 Taft Hwy,Signal Mountain,TN,37377
Nation Of Islam,1006 Buchanan St,Nashville,TN,37208
Community Christian Church,828 Lischey Ave,Nashville,TN,37207
St Andrew's Calvin House,951 Jackson St,Nashville,TN,37208
Bethlehem Temple Church,1545 11th Ave N,Nashville,TN,37208
Emanuel In Faith Ministries,1701 11th Ave N,Nashville,TN,37208
Royal Life International Church,2244 Rosa L Parks Blvd,Nashville,TN,37228
Love Fellowship Baptist Church,525 Meade Ave,Nashville,TN,37207
Perfect Peace Ministries,280211 PO Box,Nashville,TN,0
Shiloh Church,1840 Haynes St,Nashville,TN,37207
Dixon-memorial Methodist Chr,1111 Buchanan St,Nashville,TN,37208
Whites Creek Pike Church,1907 Baptist World Center Dr,Nashville,TN,37207
Mt Zion Baptist Church,7594 Old Hickory Blvd,Whites Creek,TN,37189
Alpha United Baptist Church,1631 14th Ave N,Nashville,TN,37208
True House Of God,1718 14th Ave N,Nashville,TN,37208
Greater Heights Missionary,1600 14th Ave N,Nashville,TN,37208
Towel ,1107 N 5th St,Nashville,TN,37207
Jehovah's Witnesses,1400 Meridian St,Nashville,TN,37207
Abyssinia Missionary Baptist,1810 12th Ave N,Nashville,TN,37208
Baptist Sports Park,460 Great Circle Rd,Nashville,TN,37228
New Life Seventh Day Adventist,208 Gatewood Ave,Nashville,TN,37207
Mt Paran Primitive Baptist Chr,1701 14th Ave N,Nashville,TN,37208
Nashville Outreach Ministries,1513 Dickerson Pike,Nashville,TN,37207
New Jerusalem Pb Church,1104 Jennings St,Nashville,TN,37208
Greater Revelations Baptist,1027 12th Ave N,Nashville,TN,37208
Greater Harvest Church Of God,2119 14th Ave N,Nashville,TN,37208
Church Of God,1212 Meharry Blvd,Nashville,TN,37208
Clark Memorial Methodist Chr,1220 Phillips St,Nashville,TN,37208
Rivers Of Joy Church Ministry,1310 Jefferson St,Nashville,TN,37208
South Central Conference,715 Youngs Ln,Nashville,TN,37207
True Gospel,1619 16th Ave N,Nashville,TN,37208
Restoration Ministries,1206 Jackson St,Nashville,TN,37208
Greater Grace Temple Church,340 W Trinity Ln,Nashville,TN,37207
Riverside Chapel,713 Youngs Ln,Nashville,TN,37207
Stone River District Association,1401 Lischey Ave,Nashville,TN,37207
Jackson Street Church Christ,1023 14th Ave N,Nashville,TN,37208
Nashville Baptist Association,420 Main St,Nashville,TN,37206
Holy Word Ministries,1711 Knowles St,Nashville,TN,37208
First Korean Church-nazarene,630 Richardson Ave,Nashville,TN,37207
St Mary Of Seven Sorrows,330 5th Ave N,Nashville,TN,37219
Jmaes,328 5th Ave N,Nashville,TN,37219
Tabernacle Of Faith Deliverance Church Of God In Christ,1509 Jefferson St,Nashville,TN,37208
Hopewell Missionary Baptist,1307 Ireland St,Nashville,TN,37208
St Ann's Episcopal Church,419 Woodland St,Nashville,TN,37206
Ennix-jones Center,460 10th Cir N,Nashville,TN,37203
Faith Temple Baptist Church,1600 Meridian St,Nashville,TN,37207
Truevine Missionary Baptist,404 N 9th St,Nashville,TN,37206
Lee Chapel Ame Learning Center,1722 Scovel St,Nashville,TN,37208
Saint Peter African Methodist Episcopal Church,2224 Whites Creek Pike,Nashville,TN,37207
Zion Springs Missionary Church,1409 Jones Ave,Nashville,TN,37207
St Mathews Ame Methodist Chr,1721 McKinney Ave,Nashville,TN,37208
Emmaus Church Nashville,1206 Milson Ave,Nashville,TN,37203
First Community Church,1815 Knowles St,Nashville,TN,37208
First Street Missionary Bapt,1206 Montgomery Ave,Nashville,TN,37207
Jehovah's Witnesses Northwest,2010 23rd Ave N,Nashville,TN,37208
Macedonia Baptist Church,1444 Austin St,Memphis,TN,38108
Baptist Church Universal,1531 21st Ave N,Nashville,TN,37208
Christian Science Reading Room,202 6th Ave N,Nashville,TN,37219
New Covenant Christian Church,2201 Osage St,Nashville,TN,37208
Braden United Methodist Church,803 Main St,Nashville,TN,37206
Beyond Ashes LLC,713 Hart Ave,Nashville,TN,37206
Mt Herman Baptist Church,407 Hart Ave,Nashville,TN,37206
East Nashville Co-op,807 Main St,Nashville,TN,37206
Ransom Temple Presbyterian Chr,2210 Buchanan St,Nashville,TN,37208
Naaman's Retreat Ministries,203 E Trinity Ln,Nashville,TN,37207
Webster Memorial Baptist Chr,816 W Greenwood Ave,Nashville,TN,37206
Unity Missionary Christian Chr,2305 Buchanan St,Nashville,TN,37208
Downtown Presbyterian Church,154 5th Ave N,Nashville,TN,37219
Holy Temple Cogic,2006 24th Ave N,Nashville,TN,37208
Ephesian Primitive Baptist Chr,1506 22nd Ave N,Nashville,TN,37208
Mckendree United Methodist Church Day Care,520 Commerce St,Nashville,TN,37203
New Life Thru Christ Mnstrs,2406 Seifried St,Nashville,TN,37208
Anointed Life Fellowship,1029 31st Ave N,Nashville,TN,37209
St Anselm's Episcopal Church,2008 Meharry Blvd,Nashville,TN,37208
House Of God Education,2005 Heiman St,Nashville,TN,37208
Emmanuel Bible College,610 Boscobel St,Nashville,TN,37206
Southern Baptist Foundation,901 Commerce St,Nashville,TN,37203
House Of Gof Church Keith Dominion,1401 23rd Ave N,Nashville,TN,37208
Religious Leaders,621 Mainstream Dr,Nashville,TN,37228
First Wesleyan Church,611 Shelby Ave,Nashville,TN,37206
Prince Of Peace Church Of God,930 W Trinity Ln,Nashville,TN,37207
Faith Apostolic Church,925 W Trinity Ln,Nashville,TN,37207
St Teresa Holiness Science Chr,409 E Trinity Ln,Nashville,TN,37207
First Baptist Church Of Nashville,108 7th Ave S,Nashville,TN,37203
Friendship Community Outreach,1703 Jo Johnston Ave,Nashville,TN,37203
Bethlehem Upb Church,1700 26th Ave N,Nashville,TN,37208
Nancy Webb Kelly United Mthdst,511 S 8th St,Nashville,TN,37206
New Canaan Missionary,816 Shelby Ave,Nashville,TN,37206
Downtown Ministry Center,128 8th Ave S,Nashville,TN,37203
Fatherland Baptist Church,1003 Russell St,Nashville,TN,37206
East Nashville Free Will Bapt,210 S 10th St,Nashville,TN,37206
City Church Of East Nashville Planting Project,1021 Russell St,Nashville,TN,37206
New Beginning Chr-god-christ,832 Cherokee Ave,Nashville,TN,37207
New Beginning Ministry,829 Cherokee Ave,Nashville,TN,37207
23Rd Psalm Ministry ,2203 Buena Vista Pike,Nashville,TN,37218
Abundant Life Christian Center,215 Holcomb St,Hollow Rock,TN,38342
Abundant Life Pentecostal Chr,2422 Alameda St,Nashville,TN,37208
Acklen Avenue Church Of Christ,900 Acklen Ave,Nashville,TN,37203
Acts Ministry,2715 Bullock Ave,Nashville,TN,37207
Agape Fellowship Church,645 Old Hickory Blvd,Nashville,TN,37209
Al Mahdi Islamic Center,404 Wingrove Ave,Nashville,TN,37203
Alameda Street Christian Church,4006 Ashland City Hwy,Nashville,TN,37218
Al-farooq Islamic Center,1421 4th Ave S,Nashville,TN,37210
Aldersgate United Methodist,136 Highridge St,Bristol,TN,37620
Allison Durham Speer Mnstrs,5024 Kincannon Dr,Nashville,TN,37220
Almighty Ministries,1478 Doubletree Ln,Nashville,TN,37217
Amazing Grace Bible Church,1161 Murfreesboro Pike,Nashville,TN,37217
Ame Church Clergy Family Infor,5981 Hitching Post Ln,Nashville,TN,37211
Ame Church,500 8th Ave S,Nashville,TN,37203
Anchor Fellowship,629 3rd Ave S,Nashville,TN,37210
Antioch First Baptist Church,2601 Una Antioch Pike,Antioch,TN,37013
Antioch United Methodist Chr,274 Mayhew Rd,Clarksville,TN,37040
Longview Heights Seventh Day,PO Box 2058,Memphis,TN,38101
New Covenant Seventh-Day Chr,4335 Horn Lake Rd,Memphis,TN,38109
Agape Baptist Church,6011 Trotwood Ave,Columbia,TN,38401
Balmoral Baptist Chr Pre Schol,2676 Kirby Rd,Memphis,TN,38119
Baptist Student Ctr,757 Court Ave,Memphis,TN,38105
Berclair Baptist Church,4584 Summer Ave,Memphis,TN,38122
Bethesda Mssnry Baptist Church,1223 Norris Rd,Memphis,TN,38106
Bethlehem Baptist Church,3323 Bethlehem Rd,Springfield,TN,37172
Bethlehem Missionary Baptist,918 Looney Ave,Memphis,TN,38107
Beulah Baptist Church,491 Beulah Church Dr,Kingsport,TN,37663
Brookside Baptist Church,PO Box 692,Bristol,TN,37621
Castalia Baptist Church,1540 Castalia St,Memphis,TN,38114
Central Baptist Church Inc,PO Box 1677,Memphis,TN,38101
Charjean Baptist Church,2210 Charjean Rd,Memphis,TN,38114
Cherokee Baptist Church,5340 Quince Rd,Memphis,TN,38119
Cherry Road Baptist Church,1421 Cherry Rd,Memphis,TN,38117
Christ Baptist Church,3816 Mickey Dr,Memphis,TN,38116
Christ Missionary Baptist Chr,494 S Parkway E,Memphis,TN,38106
Christian Springs Baptist Chr,1080 Pearce St,Memphis,TN,38107
Christian United Baptist Chr,2421 Frayser Blvd,Memphis,TN,38127
Colonial Baptist Church,1503 Colonial Rd,Memphis,TN,38117
Columbus Baptist Church,324 Decatur St,Memphis,TN,38105
Cornerstone Institutional Bapt,7288 E Shelby Dr,Memphis,TN,38125
Cummings Street Baptist Church,250 E Raines Rd,Memphis,TN,38109
Early Grove Baptist Church,557 Lester St,Memphis,TN,38112
East Side Baptist Church,3232 Covington Pike,Memphis,TN,38128
East Trigg Avenue Missionary,1315 S Bellevue Blvd,Memphis,TN,38106
Eastern Star Baptist Church,PO Box 40074,Memphis,TN,38174
Egypt Baptist Church,4454 Raleigh Millington Rd,Memphis,TN,38128
Ellis Grove Baptist Church,PO Box 22243,Memphis,TN,38122
Elliston Baptist Church,4179 Elliston Rd,Memphis,TN,38111
Eudora Baptist Church,4684 Poplar Ave,Memphis,TN,38117
Eureka True Vine Baptist Chr,PO Box 901640,Memphis,TN,38190
Faith Baptist Church-Bartlett,3755 N Germantown Rd,Memphis,TN,38133
Faith Temple Missionary Bapt,3341 Benjestown Rd,Memphis,TN,38127
First Baptist Bartlett Church,PO Box 34337,Memphis,TN,38184
First Baptist Church Broad Ave,2849 Broad Ave,Memphis,TN,38112
First Baptist Church First St,172 1st Ave,Memphis,TN,38109
First Baptist Church-Memphis,PO Box 820105,Memphis,TN,38182
First Baptist Winchester,PO Box 181101,Memphis,TN,38181
Forest Hill Baptist Church,1850 Forest Hill Rd,Maryville,TN,37803
Frayser Baptist Church,PO Box 27148,Memphis,TN,38167
Friendly Missionary Baptist,672 Keel Ave,Memphis,TN,38107
Friendship Missionary Baptist,1957 E Alcy Rd,Memphis,TN,38114
Fullview Baptist Church,244 Simpson Ave,Memphis,TN,38106
Gateway Baptist Church,1915 Rosemark Rd,Atoka,TN,38004
Georgian Hills Baptist Church,3759 N Watkins St,Memphis,TN,38127
Golden Leaf Baptist Church,1439 N Hollywood St,Memphis,TN,38108
Graham Heights Baptist Church,1302 N Graham St,Memphis,TN,38122
Greater Abyssinia Church,1702 Silver St,Memphis,TN,38106
Greater Adelaide Baptist Chr,2742 Park Ave,Memphis,TN,38114
Greater Galatian Baptist Chr,2418 Jackson Ave,Memphis,TN,38108
Greater Golden Harvest Baptist,463 E Alston Ave,Memphis,TN,38126
Greater Middle Baptist Church,4982 Knight Arnold Rd,Memphis,TN,38118
Greater Mt Calvary Baptist,PO Box 9243,Memphis,TN,38190
Greater Mt Moriah Baptist Chr,1098 S Wellington St,Memphis,TN,38126
Greater White Stone Baptist,917 S Wellington St,Memphis,TN,38126
Greenlaw Baptist Church,1169 Stage Ave,Memphis,TN,38127
Highland Heights Baptist Chr,675 National St,Memphis,TN,38122
Holy Spring Baptist Church,5480 Vandergreen Dr,Memphis,TN,38116
Kensington Baptist Church,4945 Winchester Rd,Memphis,TN,38118
King Solomon Mb Church,324 E Olive Ave,Memphis,TN,38106
Kirby Woods Baptist Church,6325 Poplar Ave,Memphis,TN,38119
La Belle Haven Baptist Church,6825 E Holmes Rd,Memphis,TN,38141
Lake Grove Baptist Church,265 Leath St,Memphis,TN,38105
Lakeview Mssnry Baptist Church,1769 Shadowlawn Blvd,Memphis,TN,38106
Leaclair Baptist Church,4917 Macon Rd,Memphis,TN,38122
Leawood Baptist Church,3638 Macon Rd,Memphis,TN,38122
Liberty Memorial Baptist Chr,4170 Riverdale Rd,Memphis,TN,38115
Longcrest Baptist Church,1305 Longcrest Rd,Memphis,TN,38109
Macedonia Missionary Baptist,2093 Perry Rd,Memphis,TN,38106
Macon Road Baptist Church,1082 Berclair Rd,Memphis,TN,38122
Merton Avenue Baptist Church,337 N Merton St,Memphis,TN,38112
Messiah Baptist Church,2390 Chelsea Ave,Memphis,TN,38108
Middle Baptist Church,801 Whitehaven Ln,Memphis,TN,38116
Monumental Baptist Church,704 S Parkway E,Memphis,TN,38106
Mountain Terrace Baptist Chr,2424 Saint Elmo Ave,Memphis,TN,38127
Mt Gilliam Baptist Church,1029 Raymond St,Memphis,TN,38114
Mt Moriah East Baptist Church,1248 Haynes St,Memphis,TN,38114
Mt Olive Baptist Church,2763 Spottswood Ave,Memphis,TN,38114
Mt Pleasant Baptist Church,PO Box 70608,Memphis,TN,38107
Mt Vernon Baptist Church,PO Box 9286,Memphis,TN,38190
Mullins Station Baptist Church,1170 Mullins Station Rd,Memphis,TN,38134
National Avenue Baptist Church,1348 National St,Memphis,TN,38122
New Antioch Missionary Baptist,3485 Rhodes Ave,Memphis,TN,38111
New Bethel Baptist Church,7786 Poplar Pike,Germantown,TN,38138
New Little Rock Baptist Church,1499 Norris Rd,Memphis,TN,38106
New Salem Missionary Baptist,955 S 4th St,Memphis,TN,38126
New Sardis Baptist Church,7739 E Holmes Rd,Memphis,TN,38125
North Frayser Baptist Church,3735 N Trezevant St,Memphis,TN,38127
Oak Grove Missionary Baptist,183 Joubert Ave,Memphis,TN,38109
Oak Hill Missionary Baptist,1725 Ragan St,Memphis,TN,38106
Oaklawn Baptist Church,5714 Benjestown Rd,Memphis,TN,38127
Old Riverside Baptist Church,3828 Ford Rd,Memphis,TN,38109
Old Salem Baptist Church,368 Buntyn St,Memphis,TN,38111
Olivet Fellowship Baptist Chr,4450 Knight Arnold Rd,Memphis,TN,38118
Peace Baptist Church,1537 Tayner St,Memphis,TN,38108
Pentecostal Baptist Church,1538 Norris Rd,Memphis,TN,38106
Pilgrim Rest Baptist Church,1482 Pillow St,Memphis,TN,38106
Pilgrim Rest Mb Church,1394 S Lauderdale St,Memphis,TN,38106
Prescott Memorial Baptist Chr,961 Getwell Rd,Memphis,TN,38111
Prince of Peace Baptist Church,4238 New Allen Rd,Memphis,TN,38128
Progressive Missionary Baptist,PO Box 196,Memphis,TN,38101
Prosperity Missionary Baptist,PO Box 280537,Memphis,TN,38168
Range Hills Baptist Church,2741 Frayser Blvd,Memphis,TN,38127
Richland Baptist Church,170 N Oak Grove Rd,Memphis,TN,38120
Ridgeway Baptist Church,2500 Ridgeway Rd,Memphis,TN,38119
Rising Sun Mb Church,5255 Tulane Rd,Memphis,TN,38109
Riverside Missionary Baptist,PO Box 9484,Memphis,TN,38190
Robinhood Lane Baptist Church,885 Robin Hood Ln,Memphis,TN,38111
Rock of Ages Baptist Church,192 Kirk Ave,Memphis,TN,38109
Rugby Hills Baptist Church,PO Box 27129,Memphis,TN,38167
Salem Gilfield Baptist Church,3176 Kimball Ave,Memphis,TN,38111
Scenic Hills Baptist Church,2886 Allen Rd,Memphis,TN,38128
Shady Grove Missionary Baptist,1821 Kansas St,Memphis,TN,38109
Shiloh Missionary Baptist,3121 Range Line Rd,Memphis,TN,38127
Solomon Temple Mb Church,487 W Levi Rd,Memphis,TN,38109
Soul Winners Baptist Church,4221 Crump Rd,Memphis,TN,38141
Springdale Baptist Church,1193 Springdale St,Memphis,TN,38108
St John Baptist Church,PO Box 865,Alcoa,TN,37701
St Jude Baptist Church,853 E Trigg Ave,Memphis,TN,38106
St Luke Baptist Church,5274 Louise Rd,Memphis,TN,38109
St Matthew Missionary Baptist,2016 Pendleton St,Memphis,TN,38114
St Paul Baptist Church,1144 E McLemore Ave,Memphis,TN,38106
St Paul Douglas Baptist Church,1543 Brookins St,Memphis,TN,38108
St Peter Missionary Baptist,1410 Pillow St,Memphis,TN,38106
St Stephen Baptist Church,3045 Chelsea Ave,Memphis,TN,38108
Summerfield Mb Church,1383 Boxwood St,Memphis,TN,38108
Temple of Christ Bapt Church,1581 Ball Rd,Memphis,TN,38114
Trafalgar Village Baptist Ctr,6161 Us Highway 70,Memphis,TN,38134
Trinity Baptist Church,4924 Highway 41a S,Clarksville,TN,37043
True Liberty Baptist Church,2486 Sherrie Cv,Memphis,TN,38114
True Life Mb Church,PO Box 9593,Memphis,TN,38190
Union Avenue Baptist Church,2181 Union Ave,Memphis,TN,38104
Union Grove Holiness Church,PO Box 9351,Memphis,TN,38190
Union Grove Worship Ctr,905 Ayers St,Memphis,TN,38107
United Missionary Baptist Chr,2821 Range Line Rd,Memphis,TN,38127
Vollintine Baptist Church,PO Box 40706,Memphis,TN,38174
Wells Station Baptist Church,1510 Wells Station Rd,Memphis,TN,38108
West-Frayser Baptist Church,835 Whitney Ave,Memphis,TN,38127
White Station Baptist Church,621 S White Station Rd,Memphis,TN,38117
White Stone Baptist Church,187 S Parkway E,Memphis,TN,38106
Whitehaven Baptist Church,4800 Elvis Presley Blvd,Memphis,TN,38116
Whitten Memorial Baptist Chr,6773 Macon Rd,Memphis,TN,38134
Woodstock Baptist Church,2315 Fite Rd,Memphis,TN,38127
Zoe Baptist Church,3747 Knight Arnold Rd,Memphis,TN,38118
Blessed Sacrament Church,2564 Hale Ave,Memphis,TN,38112
Cathedral of Immaculate Cncptn,1695 Central Ave,Memphis,TN,38104
Church of the Holy Spirit,2300 Hickory Crest Dr,Memphis,TN,38119
Church of the Nativity,5955 Saint Elmo Rd,Memphis,TN,38135
Holy Rosary Catholic Ctr,4841 Park Ave,Memphis,TN,38117
Our Lady of Sorrows,3700 Thomas St,Memphis,TN,38127
Resurrection Catholic Church,5475 Newberry Ave,Memphis,TN,38115
Sacred Heart Church,1324 Jefferson Ave,Memphis,TN,38104
St Ann Catholic Church,6529 Stage Rd,Memphis,TN,38134
St Anne Church,706 S Highland St,Memphis,TN,38111
St Augustine Catholic Church,PO Box 10,Signal Mountain,TN,37377
St Brigid Catholic Church,7801 Lowrance Rd,Memphis,TN,38125
St James Catholic Church,4180 Leroy Ave,Memphis,TN,38108
St Louis Church,203 S White Station Rd,Memphis,TN,38117
St Mary's Catholic Church,304 Historic Nature Trl,Gatlinburg,TN,37738
St Michael Catholic Church,3848 Forrest Ave,Memphis,TN,38122
St Paul Catholic Church,"1425 E Shelby Dr, #2",Memphis,TN,38116
St Peter's Church,190 Adams Ave,Memphis,TN,38103
St Therese-Little Flower Cthlc,1644 Jackson Ave,Memphis,TN,38107
Decatur Trinity Christian Chr,2449 Altruria Rd,Memphis,TN,38134
East Win Christian Church,4350 Hacks Cross Rd,Memphis,TN,38125
Faith Christian Church,4965 Willow Rd,Memphis,TN,38117
Kingsway Christian Church,1760 Moriah Woods Blvd,Memphis,TN,38117
Lindenwood Christian Church,2400 Union Ave,Memphis,TN,38112
Mississippi Boulevard Chrstn,70 N Bellevue Blvd,Memphis,TN,38104
New Direction Christian Church,5777 Winchester Rd,Memphis,TN,38115
Park Village Christian Church,4576 Knight Arnold Rd,Memphis,TN,38118
Walker Memorial Christian Chr,PO Box 9293,Memphis,TN,38190
Boulevard Church of Christ,4439 Elvis Presley Blvd,Memphis,TN,38116
Chelsea Avenue Church-Christ,2334 Chelsea Ave,Memphis,TN,38108
Church of Christ at Horn Lake,PO Box 9396,Memphis,TN,38190
Church of Christ at White Sta,1106 Colonial Rd,Memphis,TN,38117
East Frayser Church of Christ,PO Box 27509,Memphis,TN,38167
Easthaven Church of Christ,4833 Tchulahoma Rd,Memphis,TN,38118
Forest Hill Church of Christ,3950 Forest Hill Irene Rd,Memphis,TN,38125
Great Oaks Church of Christ,3355 Brunswick Rd,Memphis,TN,38133
Highland Street Church-Christ,443 S Highland St,Memphis,TN,38111
Holmes Road Church of Christ,1187 E Holmes Rd,Memphis,TN,38116
Macon Road Church of Christ,4004 Macon Rd,Memphis,TN,38122
Memphis Christian Ctr,5221 Cottonwood Rd,Memphis,TN,38118
Midtown Church of Christ,1930 Union Ave,Memphis,TN,38104
Mountain Terrace Ch of Christ,2400 James Rd,Memphis,TN,38127
New Growth in Christ Christian,PO Box 11108,Memphis,TN,38111
Norris Road Church of Christ,1055 Norris Rd,Memphis,TN,38106
Park Avenue Church of Christ,5295 Park Ave,Memphis,TN,38119
Ross Road Church of Christ,4920 Ross Rd,Memphis,TN,38141
South Parkway East Church,2063 S Parkway E,Memphis,TN,38114
Southside Church of Christ,615 S Parkway E,Memphis,TN,38106
Southwind Church of Christ,8220 E Shelby Dr,Memphis,TN,38125
Stage Road Church of Christ,4555 Stage Rd,Memphis,TN,38128
All Saints' Episcopal Church,601 W Main St,Morristown,TN,37814
Calvary Episcopal Church,102 N 2nd St,Memphis,TN,38103
Grace-St Luk's Episcopal Chr,1720 Peabody Ave,Memphis,TN,38104
St Elisabeth's Episcopal Chr,PO Box 34280,Memphis,TN,38184
St John's Episcopal Church,500 N Roan St,Johnson City,TN,37601
St Mary's Episcopal Cathedral,700 Poplar Ave,Memphis,TN,38105
St Philip Episcopal Church,9380 Davies Plantation Rd,Memphis,TN,38133
Holy Temple Cathedral,4020 Mill Branch Rd,Memphis,TN,38116
Restoration Revival Temple,PO Box 9485,Memphis,TN,38190
Community Bible Church,650 New York St,Memphis,TN,38104
Frayser Bible Church,3820 N Watkins St,Memphis,TN,38127
Anshei Sphard-Beth El Emeth,120 E Yates Rd N,Memphis,TN,38120
Baron Hirsch Congregation,400 S Yates Rd,Memphis,TN,38120
Chabad Lubavitch,6629 Massey Ln,Memphis,TN,38120
Temple Israel,1376 E Massey Rd,Memphis,TN,38120
Christ the King Lutheran,5296 Park Ave,Memphis,TN,38119
Cross of Calvary Lutheran Chr,4327 Elvis Presley Blvd,Memphis,TN,38116
Immanuel Lutheran Church,191 Central Heights Rd,Blountville,TN,37617
Lord of Life Lutheran Church,6865 Poplar Pike,Memphis,TN,38119
Trinity Lutheran Church,720 Lock 4 Rd,Gallatin,TN,37066
Unity Church of Memphis,2570 Kirby Rd,Memphis,TN,38119
Capleville United Methodist,4725 Riverdale Rd,Memphis,TN,38141
Centenary United Methodist Chr,203 N Elm Ave,Erwin,TN,37650
Collins Chapel Cme Church,678 Washington Ave,Memphis,TN,38105
Colonial Park United Methodist,5330 Park Ave,Memphis,TN,38119
Emmanuel United Methodist Chr,2404 Kirby Rd,Memphis,TN,38119
First United Methodist Church,131 North Ave,Henderson,TN,38340
Frayser Heights United Meth,2450 Frayser Blvd,Memphis,TN,38127
Good Shepherd United Methodist,525 New Shackle Island Rd,Hendersonville,TN,37075
Grace United Methodist Church,9833 Hixson Pike,Soddy-Daisy,TN,37379
Grimes Memorial United Meth,4649 Summer Ave,Memphis,TN,38122
Highland Heights United Meth,3476 Summer Ave,Memphis,TN,38122
Holy Community Church,PO Box 679,Memphis,TN,38101
Jackson Avenue United Meth Chr,3473 Jackson Ave,Memphis,TN,38122
Longstreet United Methodist,5268 Airways Blvd,Memphis,TN,38116
Madison Hts United Meth Church,PO Box 40006,Memphis,TN,38174
Martin Memorial Temple Cme,65 S Parkway W,Memphis,TN,38109
Mt Pisgah Cme Church,2480 Park Ave,Memphis,TN,38114
Mullins United Methodist,4 N Mendenhall Rd,Memphis,TN,38117
Oakhaven United Methodist Chr,3830 Tchulahoma Rd,Memphis,TN,38118
Pillow Street Cme Church,1590 Pillow St,Memphis,TN,38106
Scenic Hills United Methodist,2847 Pembroke Rd,Memphis,TN,38128
Schoolfield United Methodist,1621 Dellwood Ave,Memphis,TN,38127
St Andrew Ame Church,867 S Parkway E,Memphis,TN,38106
St James Ame Church,PO Box 70096,Memphis,TN,38107
St John's United Methodist Chr,1207 Peabody Ave,Memphis,TN,38104
St Luke's United Methodist Chr,480 S Highland St,Memphis,TN,38111
St Mark's United Methodist Chr,252 N Main St,Clinton,TN,37716
St Matthew's United Methodist,1362 S Prescott St,Memphis,TN,38111
St Stephen's United Methodist,3981 Macon Rd,Memphis,TN,38122
St Timothy United Methodist,4105 Saint Elmo Ave,Memphis,TN,38128
Underwood United Methodist,1501 Mount Moriah Rd,Memphis,TN,38117
Whitehaven United Methodist,4523 Elvis Presley Blvd,Memphis,TN,38116
Abundant Grace Fellowship,1574 E Shelby Dr,Memphis,TN,38116
Central Church,2005 Winchester Rd,Memphis,TN,38116
Central North Church,5955 Yale Rd,Memphis,TN,38134
Christ Center,3528 Sharpe Ave,Memphis,TN,38111
Christ the Rock Metro Church,8800 Winchester Rd,Memphis,TN,38125
Covenant Community Church,704 N Highland St,Memphis,TN,38122
Cross-Way Church,2633 Altruria Rd,Memphis,TN,38134
First Evangelical Church,735 Ridge Lake Blvd,Memphis,TN,38120
Grace Christian Fellowship Chr,3025 E Holmes Rd,Memphis,TN,38118
Highpoint Church,PO Box 17911,Memphis,TN,38187
Lord's Tabernacle Church,2806 Midland Ave,Memphis,TN,38111
Memphis Inner-City Outreach,225 Exchange Ave,Memphis,TN,38105
Miracle Temple Ministries Inc,3750 Mill Branch Rd,Memphis,TN,38116
Morning Star Holiness Church,3161 Park Ave,Memphis,TN,38111
New Dimensions Ministries,PO Box 281085,Memphis,TN,38168
Sycamore View Church of Christ,1910 Sycamore View Rd,Memphis,TN,38134
Greek Orthodox Church,573 N Highland St,Memphis,TN,38122
St John Orthodox Church,1663 Tutwiler Ave,Memphis,TN,38107
Apostolic Deliverance Temple,1369 Norris Rd,Memphis,TN,38106
Bethel Church Ministries,5586 Stage Rd,Memphis,TN,38134
Bloomfield Baptist Church,123 S Parkway W,Memphis,TN,38109
Breath of Life Christian Ctr,PO Box 281394,Memphis,TN,38168
Casa De Oracion,1500 S Perkins Rd,Memphis,TN,38117
Church of God in Christ,PO Box 80444,Memphis,TN,38108
Church of the Lord Jesus Chrst,4248 Grey Rd,Memphis,TN,38108
Faith Bridge Fellowship,8180 T and B Blvd,Memphis,TN,38125
Faith Heritage Church of God,3802 Gragg Ave,Memphis,TN,38108
Fireside Temple Church of God,PO Box 181287,Memphis,TN,38181
Gateway Church of God-Christ,2201 Ketchum Rd,Memphis,TN,38114
Golden Gate Baptist Church,PO Box 477,Memphis,TN,38101
Greater Harvest Church of God,3509 Boxdale St,Memphis,TN,38118
Healing Center Full Gospel Chr,3885 Tchulahoma Rd,Memphis,TN,38118
Holy City Church of God-Christ,3208 James Rd,Memphis,TN,38128
House of Prayer Church,PO Box 9902,Memphis,TN,38190
Institute for Success,4665 Auburn Rd,Memphis,TN,38116
Jubilee Church of God-Christ,PO Box 280768,Memphis,TN,38168
Liberty Church of God-Christ,544 E Raines Rd,Memphis,TN,38109
New Hope Church of God,2455 Lamar Ave,Memphis,TN,38114
New Life Fellowship,PO Box 34310,Memphis,TN,38184
Pentecostal Church,4820 S Germantown Rd,Memphis,TN,38141
Pentecostal Temple Instnl Chr,PO Box 2116,Memphis,TN,38101
Raleigh Assembly of God,PO Box 280536,Memphis,TN,38168
Southside Church of God-Christ,1112 E McLemore Ave,Memphis,TN,38106
Spirit Life Worship Ctr,1130 Whitten Rd,Memphis,TN,38134
Temple Church of God in Christ,PO Box 314,Memphis,TN,38101
Temple of Deliverance Cogic,369 E Ge Patterson Ave,Memphis,TN,38126
Tennessee Full Gospel Baptist,3240 James Rd,Memphis,TN,38128
Word of Life Church of God,2962 Oakville Dr,Memphis,TN,38118
Balmoral Presbyterian Church,6413 Quince Rd,Memphis,TN,38119
Evergreen Presbyterian Church,613 University St,Memphis,TN,38107
Faith Cumberland Presbyterian,3427 Appling Rd,Memphis,TN,38133
First Congregational Church,1000 S Cooper St,Memphis,TN,38104
Idlewild Presbyterian Chr Ofc,1750 Union Ave,Memphis,TN,38104
Independent Presbyterian Chr,4738 Walnut Grove Rd,Memphis,TN,38117
Raleigh Presby Extended Care,6671 Yale Rd,Memphis,TN,38134
Woodland Presbyterian Church,5217 Park Ave,Memphis,TN,38119
Renaissance,99 N Main St,Memphis,TN,38103
Worldwide Church Of God,3774 Raleigh-Millington Rd,Memphis,TN,38128
Eastside Church Of Nazarene,4141 New Willow Rd,Memphis,TN,38111
Getwell Church Of Christ,1511 Getwell Rd,Memphis,TN,38111
Prayer House Of Deliverance,1111 McClure Rd,Memphis,TN,38116
Forestview Church Of Christ,5425 N Watkins St,Memphis,TN,38127
Emanuel Church Of Nazarene,2723 Steele St,Memphis,TN,38127
Berclair Church Of Christ,4536 Summer Ave,Memphis,TN,38122
Calvary Church Of God-christ,2072 Florida St,Memphis,TN,38109
Boulevard Church Of Christ,1102 Hale Rd,Memphis,TN,38116
Neighborhood Church Of God,619 Pearce St,Memphis,TN,38107
Hope Assembly Of God,3000 N Watkins St,Memphis,TN,38127
Lambert Church Of God-christ,1070 Keating St,Memphis,TN,38114
Riverview Church Of God-christ,435 W Raines Rd,Memphis,TN,38109
Abundant Faith World Mnstrs,5645 Spring Lake Rd,Memphis,TN,38135
Abounding Grace Church-god,2783 McMurray St,Memphis,TN,38118
Abundant Life Delivery Church,714 Ayers St,Memphis,TN,38107
Abundant Life Temple,1636 Lamar Ave,Memphis,TN,38114
Abyssinian Missionary Bapt Chr,3890 Millbranch Rd,Memphis,TN,38116
Adams James Rev,4245 Singleton Pky,Memphis,TN,38128
Agape Christian Center,1464 S McLean Blvd,Memphis,TN,38114
Agape International Church,1436 Mt Moriah Rd,Memphis,TN,38117
Alice Avenue Tiny Tots,964 Alice Ave,Memphis,TN,38106
All People Fellowship Holiness,3010 S 3rd St,Memphis,TN,38109
All Saints Deliverance Temple,94 Eastman Rd,Memphis,TN,38109
All Saints Presbyterian Church,1870 Union Ave,Memphis,TN,38104
Alston Neasbie Rev/Office,1080 N Manassas St,Memphis,TN,38107
Alpha Church Congregation,1084 E McLemore Ave,Memphis,TN,38106
Amazing Grace Lutheran Church,8720 Meadow Vale Dr,Memphis,TN,38125
Ame Employee Security,280 Hernando St,Memphis,TN,38126
Amistad Christian Church,2673 Tutwiler Ave,Memphis,TN,38112
Amore Excellent Way,2768 Colony Park Dr,Memphis,TN,38118
Angel Of Destiny Home,6171 Molsonwood Cv,Memphis,TN,38135
Annesdale Cherokee Baptist Chr,2960 Kimball Ave,Memphis,TN,38114
Anointed Outreach Ministries,3241 Woodrow St,Memphis,TN,38127
Anointed Temple Of Praise,3939 Riverdale Rd,Memphis,TN,38115
Anshei Sphard-beth El Emeth Congregation,120 N Yates Rd,Memphis,TN,38120
Apostolic Faith Ministry ,1767 Benford St,Memphis,TN,38109
Apostolic Fellowship Church,1024 Philadelphia St,Memphis,TN,38104
Arlington Ward Church Of J,4195 Kirby Whitten Pky,Memphis,TN,38135
Memphis First Seventh Day,7895 Cordova Rd,Cordova,TN,38016
Briarwood Baptist Church,1900 N Germantown Pky,Cordova,TN,38016
Cordova Baptist Church,PO Box 174,Cordova,TN,38088
First Chinese Baptist Church,7555 Macon Rd,Cordova,TN,38018
St Francis of Assisi Church,8151 Chimney Rock Blvd,Cordova,TN,38016
Cordova Church of Christ,7801 Macon Rd,Cordova,TN,38018
Woodland Hills Church-Christ,10011 Woodland Hills Dr,Cordova,TN,38018
Church of the Annunciation,8282 Macon Rd,Cordova,TN,38018
Faith Anglican Church,PO Box 4192,Cordova,TN,38088
Calvary Church of the Nazarene,1851 N Houston Levee Rd,Cordova,TN,38016
Grace Celebration Lutheran,8601 Trinity Rd,Cordova,TN,38018
St Luke Lutheran Church,2000 N Germantown Pky,Cordova,TN,38016
Covenant United Methodist Chr,8350 Walnut Grove Rd,Cordova,TN,38018
Heartsong-A United Methodist,800 Houston Levee Rd,Cordova,TN,38018
Church of Jesus Christ of Lds,6637 Fannie Daniels Rd,College Grove,TN,37046
Grey's Creek Church Inc,1801 N Houston Levee Rd,Cordova,TN,38016
Life Church of Memphis,PO Box 2913,Cordova,TN,38088
Cathedral of Praise,PO Box 2108,Cordova,TN,38088
Faith Temple Holiness Church,PO Box 334,Cordova,TN,38088
Family Harvest Church of Memphis,P.O. Box 1897,Cordova,TN,38088
First Assembly of God/Memphis,PO Box 3035,Cordova,TN,38088
Advent Presbyterian Church,1879 N Germantown Pky,Cordova,TN,38016
Highland Heights Presbyterian,2855 Morning Sun Rd,Cordova,TN,38016
Hope Presbyterian Church,8500 Walnut Grove Rd,Cordova,TN,38018
St Andrews Pca,455 Houston Levee Rd,Cordova,TN,38018
Life Church Of Memphis,1800 N Germantown Pky,Cordova,TN,38016
Alive Ministries,1533 Bonnie Ln,Cordova,TN,38016
Murfreesboro Seventh-Day Chr,2815 Elam Rd,Murfreesboro,TN,37127
Belle Aire Baptist Church,1307 N Rutherford Blvd,Murfreesboro,TN,37130
Bellwood Baptist Church,PO Box 606,Murfreesboro,TN,37133
Crossway Baptist Church,PO Box 330601,Murfreesboro,TN,37133
Franklin Road Baptist Church,3148 Franklin Rd,Murfreesboro,TN,37128
Hillview Baptist Church,3113 Lascassas Pike,Murfreesboro,TN,37130
Lighthouse Baptist Church,706 Richard Rd,Murfreesboro,TN,37129
Middle Tennessee Baptist Chr,217 N Tennessee Blvd,Murfreesboro,TN,37130
Mount Hermon Baptist Church,2204 Jarrell Ridge Rd,Clarksville,TN,37043
New Vision Baptist Church,1750 N Thompson Ln,Murfreesboro,TN,37129
Northside Baptist,655 W Thompson Ln,Murfreesboro,TN,37129
Powell's Chapel Baptist Church,8697 Powells Chapel Rd,Murfreesboro,TN,37129
River Rock Church,2248 Highway 99,Murfreesboro,TN,37128
Riverdale Community Church,307 Warrior Dr,Murfreesboro,TN,37128
Southeast Baptist Church,708 Minerva Dr,Murfreesboro,TN,37130
Walter Hill First Baptist Chr,6607 Lebanon Rd,Murfreesboro,TN,37129
St Rose of Lima Catholic Chr,1601 N Tennessee Blvd,Murfreesboro,TN,37130
Central Christian Church,400 S Maple St,Covington,TN,38019
Church of Christ at Cason Ln,1110 Cason Ln,Murfreesboro,TN,37128
Cresent Church of Christ,4915 Barfield Crescent Rd,Murfreesboro,TN,37128
East Main Street Church-Christ,PO Box 429,Murfreesboro,TN,37133
Kingwood Heights Church-Christ,115 Mtcs Dr,Murfreesboro,TN,37129
North Blvd Church of Christ,1112 N Rutherford Blvd,Murfreesboro,TN,37130
Stone's River Church of Christ,1607 Hamilton Dr,Murfreesboro,TN,37129
Walter Hill Church of Christ,307 E Jefferson Pike,Murfreesboro,TN,37130
First Church of God,517 Sanbyrn Dr,Murfreesboro,TN,37130
Advent Lutheran Church-Elca,PO Box 3001,Murfreesboro,TN,37133
Blackman United Methodist Chr,4380 Manson Pike,Murfreesboro,TN,37129
Fellowship United Methodist,2511 Highway 99,Murfreesboro,TN,37128
First United Methodist Prschl,265 W Thompson Ln,Murfreesboro,TN,37129
Apostolic Ark,1601 Weeks Rd,Murfreesboro,TN,37127
Believer's Chapel,1820 S Rutherford Blvd,Murfreesboro,TN,37130
Carpenters House,714 W Main St,Murfreesboro,TN,37129
Carpenter's House,3045 Memorial Blvd,Murfreesboro,TN,37129
Christian Life Church,734 Middle Tennessee Blvd,Murfreesboro,TN,37129
Destiny Center,2316 Armory Dr,Murfreesboro,TN,37129
Family Worship Ctr,1503 Sulphur Springs Rd,Murfreesboro,TN,37129
Murfreesboro Church of God,402 Saint Clair St,Murfreesboro,TN,37130
United Pentecostal Church,1800 Lascassas Pike,Murfreesboro,TN,37130
First Cumberland Church,907 E Main St,Murfreesboro,TN,37130
Westvue Church Of Christ,1710 Mooresville Hwy,Lewisburg,TN,37091
Bible Church Of Jesus,6371 Bradyville Pike,Murfreesboro,TN,37127
Unity Church Of Life,130 S Cannon Ave,Murfreesboro,TN,37129
Murfreesboro Church Of Christ,837 Esther Ln,Murfreesboro,TN,37129
Riverdale Church Of Christ,507 Warrior Dr,Murfreesboro,TN,37128
Christiana Church Of Christ,1407 S Church St,Murfreesboro,TN,37130
Sharpsville Church Of Christ,5001 Halls Hill Pike,Murfreesboro,TN,37130
Florence Church Of Christ,6732 Old Nashville Hwy,Murfreesboro,TN,37129
Abundant Life In Christ Mnstrs,2313 Uriah Pl,Murfreesboro,TN,37129
Advent Lutheran Church-e L C A,2505 Manchester Pike,Murfreesboro,TN,37127
Advent Lutheran Church-elca,1700 Irby Ln,Murfreesboro,TN,37127
Allen Chapel Ame Church,224 S Maney Ave,Murfreesboro,TN,37130
Anchor Independent Baptist Chr,987 River Barfield Rd,Murfreesboro,TN,37128
Seventh Day Adventist Church,1910 E Oakland Ave,Johnson City,TN,37601
Baptist Collegiate Ministry,1012 Seminole Dr,Johnson City,TN,37604
Boones Creek First Baptist Chr,304 Pickens Bridge Rd,Johnson City,TN,37615
Cedar Grove Baptist Church,131 Cedar Grove Church Rd,Mt Juliet,TN,37122
Clark Street Baptist Church,200 Clark St,Johnson City,TN,37604
Grace Free-Will Baptist Church,2110 Knob Creek Rd,Johnson City,TN,37604
Heritage Baptist Church,1512 John Exum Pky,Johnson City,TN,37604
King Springs Baptist Church,1708 Miami Dr,Johnson City,TN,37601
Midway Baptist Church,3414 W Walnut St,Johnson City,TN,37604
North Johnson City Baptist Chr,305 Ferndale Rd,Johnson City,TN,37604
Oakland Avenue Baptist Church,2823 E Oakland Ave,Johnson City,TN,37601
Pinecrest Baptist Church,2129 Old Lewis Rd,Johnson City,TN,37601
Roan Hill Baptist Church,501 W Highland Rd,Johnson City,TN,37604
Sinking Creek Baptist Church,2313 Elizabethton Hwy,Johnson City,TN,37601
Skyline Heights Baptist Church,1601 Skyline Dr,Johnson City,TN,37604
Southwestern Baptist Church,1112 Cherokee Rd,Johnson City,TN,37604
Thankful Baptist Church,1501 E Watauga Ave,Johnson City,TN,37601
Tri-Cities Baptist Church,171 Promise Land Dr,Johnson City,TN,37615
University Parkway Baptist Chr,219 University Pky,Johnson City,TN,37604
Fountain of Life Bible Church,118 Julie Ln,Johnson City,TN,37601
St Mary's Church,2211 E Lakeview Dr,Johnson City,TN,37601
Grandview Christian Church,300 University Pky,Johnson City,TN,37604
Lone Oak Christian Church,1914 Lone Oak Rd,Johnson City,TN,37604
Central Church of Christ,PO Box 4021,Johnson City,TN,37602
Bethelem Lutheran Church,201 E Watauga Ave,Johnson City,TN,37601
Our Saviour Lutheran Church,212 Sunset Dr,Johnson City,TN,37604
Cherokee United Methodist Chr,1904 Jamestown Rd,Johnson City,TN,37604
Fairhaven United Methodist Chr,3131 W Walnut St,Johnson City,TN,37604
Munsey Memorial United Meth,PO Box 1336,Johnson City,TN,37605
Wesley Memorial Methodist Chr,225 Princeton Rd,Johnson City,TN,37601
Grace Fellowship Church,2314 S Greenwood Dr,Johnson City,TN,37604
Happy Valley Church of Jesus,2733 Elizabethton Hwy,Johnson City,TN,37601
New Covenant Family Church,PO Box 1836,Johnson City,TN,37605
Johnson City Church of God,PO Box 5417,Johnson City,TN,37602
Watauga Avenue Presbyterian,610 E Watauga Ave,Johnson City,TN,37601
First Church Of Brethren,122 Bart Green Dr,Johnson City,TN,37615
First Church Of God,450 W Economy Rd,Morristown,TN,37814
Lynnwood Church Of Christ,2755 Watauga Rd,Johnson City,TN,37601
Cherokee Church Of Christ,1421 Cherokee Rd,Johnson City,TN,37604
Answer Baptist Church,205 Harrison St,Johnson City,TN,37604
Apostolic Christian Church,123 Emmanuel Dr,Johnson City,TN,37601
Broadway Baptist Church,2329 E Broadway Ave,Maryville,TN,37804
Dotson Memorial Baptist Church,814 Dotson Memorial Rd,Maryville,TN,37801
East Maryville Baptist Church,1150 Brown School Rd,Maryville,TN,37804
Everett Hills Baptist Church,401 S Everett High Rd,Maryville,TN,37804
First Baptist Church-Maryville,202 W Lamar Alexander Pky,Maryville,TN,37801
Foothills Worship Baptist Chr,2421 Old Knoxville Pike,Maryville,TN,37804
Grandview Baptist Church,2208 Tuckaleechee Pike,Maryville,TN,37803
Hillcrest Baptist Church,380 Dover Rd,Clarksville,TN,37042
Liberty Baptist Church,2097 Holly Grove Rd,Covington,TN,38019
Madison Avenue Baptist Church,1918 Madison Ave,Maryville,TN,37804
Memorial Baptist Church,4445 Old Hixson Pike,Hixson,TN,37343
Monte Vista Baptist Church,1735 Old Niles Ferry Rd,Maryville,TN,37803
Mt Lebanon Baptist Church,1872 Mt Lebanon Rd,Covington,TN,38019
Pleasant Grove Baptist Church,344 Washington College Sta Rd,Limestone,TN,37681
Smoky View Baptist Church,2201 W Lamar Alexander Pky,Maryville,TN,37801
Springview Baptist Church,4220 U.S. 411,Maryville,TN,37801
Unity Baptist Church,803 Howard Jones Rd,Maryville,TN,37801
Victory Baptist Church,1932 Fairview Ave,Kingsport,TN,37665
Wildwood Baptist Church,4705 Porter Cir,Maryville,TN,37804
Mountain View Church of Christ,6 Mile Rd,Maryville,TN,37803
Eastside Church of Christ,2543 Sevierville Rd,Maryville,TN,37804
Maryville Church of Christ,PO Box 5293,Maryville,TN,37802
St Andrew's Episcopal Church,PO Box 4368,Maryville,TN,37802
St Paul Lutheran Church,429 Sandy Springs Rd,Maryville,TN,37803
Broadway United Methodist Chr,309 E Broadway Ave,Maryville,TN,37804
Carpenters United Methodist Ch,3530 Best Rd,Maryville,TN,37803
Middlesettlements United Meth,2729 Middle Settlements Rd,Maryville,TN,37801
Pecks Memorial United Church,2438 Wilkinson Pike,Maryville,TN,37803
Church of God Alcoa-Maryville,2615 E Lamar Alexander Pky,Maryville,TN,37804
Restoration International,370 S Long Hollow Rd,Maryville,TN,37801
River of Life World Outreach,1412 E Broadway Ave,Maryville,TN,37804
New Providence Prsbytrn Chr,703 W Broadway Ave,Maryville,TN,37801
Church Of God Of Maryville,311 McNabb Pl,Maryville,TN,37801
Maryville Church Of Nazarene,1610 E Broadway Ave,Maryville,TN,37804
Usa Church Of Life,1602 E Lamar Alexander Pky,Maryville,TN,37804
Christ Way Community Church,PO Box 746,Ooltewah,TN,37363
Eastwood Baptist Church,4300 Ooltewah-Ringgold Rd,Ooltewah,TN,37363
Fairview Baptist Church,585 Watauga Rd,Watauga,TN,37694
Greenwood Baptist Church,PO Box 28,Ooltewah,TN,37363
Ooltewah Baptist Church,PO Box 9,Ooltewah,TN,37363
Ootelwah United Methodist Chr,6131 Relocation Way,Ooltewah,TN,37363
Straightway Church Of Ootewah,10301 Lee Hwy,Ooltewah,TN,37363
Gist Creek Baptist Church,1158 Gists Creek Rd,Sevierville,TN,37876
New Salem Baptist Church,9806 Dallas Hollow Rd,Soddy-Daisy,TN,37379
Oldhams Creek Baptist Church,3629 Boogertown Rd,Sevierville,TN,37876
Walnut Grove Baptist Church,PO Box 177,Jackson,TN,38302
Williamsburg Baptist Church,1603 Herman Large Ln,Sevierville,TN,37876
Zion Hill Baptist Church,206 Zion Hill Church Rd,Sevierville,TN,37876
Smoky Mountain Christian Chr,125 South Blvd,Sevierville,TN,37862
Pathways Community Church,110 Echota Way,Sevierville,TN,37876
Parkway Church of God,2200 N Parkway E,Jackson,TN,38301
First Assembly Of God,2049 N Main St,Milan,TN,38358
Alder Branch Baptist Church,809 Alder Branch Rd,Sevierville,TN,37876
Appalachian Chiropractic Clinic,1815 Parkway,Sevierville,TN,37862
Korean Baptist Church,5075 Colemont Dr,Antioch,TN,37013
Mt View Baptist Church,12545 Old Hickory Blvd,Antioch,TN,37013
St Ignatius of Antioch,601 Bell Rd,Antioch,TN,37013
Lakeshore Christian Church,3326 Anderson Rd,Antioch,TN,37013
Antioch Church of Christ,2142 Antioch Pike,Antioch,TN,37013
Hamilton United Methodist Chr,3105 Hamilton Church Rd,Antioch,TN,37013
Apison Baptist Church,11127 Old East Brainerd Rd,Apison,TN,37302
7 Union Of 7Th Day Adventist,5040 Layton Ln,Apison,TN,37302
Apison United Methodist Church,4404 Bill Jones Rd,Apison,TN,37302
Apison Seventh Day Adventist,11429 Bates Rd,Apison,TN,37302
Ararat Baptist Church,3608 Brownsville Hwy,Jackson,TN,38301
Cane Creek Baptist Church,304 Cane Creek Rd,Jackson,TN,38301
East Laurel Baptist Church,25 Laurel Ln,Jackson,TN,38301
East Union Baptist Church,2244 Beech Bluff Rd,Jackson,TN,38301
Englewood Baptist Church,2239 N Highland Ave,Jackson,TN,38305
First Baptist Church of Bemis,116 Bemis Ln,Jackson,TN,38301
Home Baptist Church,307 James Buchanan Dr,Jackson,TN,38301
Jackson First Baptist Church,1627 N Highland Ave,Jackson,TN,38301
Liberty Grove Baptist Church,1071 Harts Bridge Rd,Jackson,TN,38301
Madison Baptist Church,930 Steam Mill Ferry Rd,Jackson,TN,38301
Malesus Baptist Church,480 Old Malesus Rd,Jackson,TN,38301
Mount Moriah Baptist Church,225 Daugherty St,Jackson,TN,38301
New St Luke Church,1670 N Royal St,Jackson,TN,38301
North Jackson Baptist Church,3768 Highway 45 Byp,Jackson,TN,38305
Pleasant Hill Baptist Church,2166 Old Highway 95,Lenoir City,TN,37771
Pleasant Plains Baptist Church,331 Pleasant Plains Rd,Jackson,TN,38305
Poplar Heights Baptist,1980 Hollywood Dr,Jackson,TN,38305
West Jackson Baptist Church,580 Oil Well Rd,Jackson,TN,38305
Westover Baptist Church,14 Old Denmark Rd,Jackson,TN,38301
Woodland Baptist Church,365 Wallace Rd,Jackson,TN,38305
East Jackson Church of Christ,1461 E Chester St,Jackson,TN,38301
North Jackson Church of Christ,2780 Highway 45 Byp,Jackson,TN,38305
Skyline Church of Christ,1024 Skyline Dr,Jackson,TN,38301
St Luke's Episcopal Church,309 E Baltimore St,Jackson,TN,38301
Concordia Lutheran Church,637 Wallace Rd,Jackson,TN,38305
Messiah Evangelical Lutheran,618 Country Club Ln,Jackson,TN,38305
Brown's United Methodist Chr,181 McLeary Rd,Jackson,TN,38305
East Trinity United Methodist,3291 Paul Coffman Dr,Jackson,TN,38301
Forest Hgts United Methodist,863 W Forest Ave,Jackson,TN,38301
Lambuth Memorial United Method,160 Campbell St,Jackson,TN,38301
Malesus United Methodist Chr,430 Old Malesus Rd,Jackson,TN,38301
Northside United Methodist,2571 N Highland Ave,Jackson,TN,38305
St Andrew United Methodist,636 Wallace Rd,Jackson,TN,38305
Christs Chapel of Jackson,PO Box 1442,Jackson,TN,38302
Deliverance Cathedral-Prayer,PO Box 2906,Jackson,TN,38302
Evangelical Community Church,730 Pipkin Rd,Jackson,TN,38305
All Nations Church of God,230 Hollywood Dr,Jackson,TN,38301
Bemis Pentecostal Church,40 Colorado St,Jackson,TN,38301
Central Jurisdiction Chr-God,PO Box 2915,Jackson,TN,38302
First Assembly of God,1186 Fort Campbell Blvd,Clarksville,TN,37042
Lighthouse United Pentecostal,333 Old Humboldt Rd,Jackson,TN,38305
Northside Assembly of God,3200 N Highland Ave,Jackson,TN,38305
Unity Temple Church-God-Christ,369 Lexington Ave,Jackson,TN,38301
Pentecostal Church Of Jesus,146 Stoddert St,Jackson,TN,38301
Islamic Center Of Jackson,1742 Airways Blvd,Jackson,TN,38301
Family Worship Center Of Jackson,1340 N Parkway,Jackson,TN,38305
Advanced Cardiovascular ,172 W University Pky,Jackson,TN,38305
Agape Christian Fellowship,600 N Parkway,Jackson,TN,38305
All Sts Anglican Church,212 McClellan Rd,Jackson,TN,38305
Anderson Arthur Rev,117 Wallace Rd,Jackson,TN,38301
Armona Baptist Church,2211 Louisville Rd,Alcoa,TN,37701
First Baptist Church of Alcoa,819 Gilbert St,Alcoa,TN,37701
Rest Haven Baptist Church,224 E Watt St,Alcoa,TN,37701
Our Lady of Fatima Church,860 Louisville Rd,Alcoa,TN,37701
Praise Temple Assembly of God,1873 Wright Rd N,Alcoa,TN,37701
Alcoa Church Of Christ,127 Badgett Aly,Alcoa,TN,37701
Bartlett Baptist Church,5868 Stage Rd,Bartlett,TN,38134
Easthill Baptist Church,7054 Saint Elmo Rd,Bartlett,TN,38135
Raleigh Baptist Church,4641 Ellendale Rd,Bartlett,TN,38135
New Hope Christian Church,3300 Kirby Whitten Rd,Bartlett,TN,38134
Bartlett United Methodist Chr,5676 Stage Rd,Bartlett,TN,38134
Quail Ridge Church of Christ,6364 Egypt Central Rd,Bartlett,TN,38135
Bartlett Presbyterian Church,6671 Yale Rd,Bartlett,TN,38134
Al Rasool Center,5315 Stage Rd,Bartlett,TN,38134
Bartons Creek Baptist Church,1530 Bartons Creek Rd,Lebanon,TN,37090
Rocky Valley Baptist Church,5745 Old Murfreesboro Rd E,Lebanon,TN,37090
Rome Baptist Church,824 Lebanon Hwy,Lebanon,TN,37087
Shop Springs Baptist Church,3022 Sparta Pike,Lebanon,TN,37090
St Francis Cabrini Catholic,300 S Tarver Ave,Lebanon,TN,37087
Highland Heights Chr of Christ,505 N Cumberland St,Lebanon,TN,37087
Maple Hill Church of Christ,102 Maple Hill Rd,Lebanon,TN,37087
Market Street Church-Christ,E Market St,Lebanon,TN,37087
Westland United Methodist Chr,110 Dawson Ln,Lebanon,TN,37087
College Street Church-Christ,1401 Leeville Pike,Lebanon,TN,37090
Lebanon Church of God,PO Box 1040,Lebanon,TN,37088
Cumberland Presbyterian Church,PO Box 373,Loudon,TN,37774
Church Of God Worship ,1007 Hartsville Pike,Lebanon,TN,37087
Rome Church Of Christ,840 Lebanon Hwy,Lebanon,TN,37087
Adams Avenue Church Of Christ,600 S Cumberland St,Lebanon,TN,37087
Bayside Baptist Church,6100 Highway 58,Harrison,TN,37341
Harrison United Methodist Chr,PO Box 237,Harrison,TN,37341
Beaver Baptist Church,9344 Holly Grove Rd,Brighton,TN,38011
Brighton Baptist Church,PO Box 29,Brighton,TN,38011
Brighton Church of Christ,PO Box 416,Brighton,TN,38011
Holly Grove Cumberland Church,4556 Holly Grove Rd,Brighton,TN,38011
Holly Grove Presbyterian Ch,8865 Holly Grove Rd,Brighton,TN,38011
Beck Mountain Baptist Church,2797 Siam Rd,Elizabethton,TN,37643
Biltmore Baptist Church,1181 Bristol Hwy,Elizabethton,TN,37643
Caldwell Springs Baptist Ch,345 Nave Hollow Loop,Elizabethton,TN,37643
Dungan Chapel Baptist Church,104 Jim Deal Rd,Elizabethton,TN,37643
East Side Free Will Baptist,704 Siam Rd,Elizabethton,TN,37643
Eastside Baptist Church,PO Box 458,Burns,TN,37029
First Free Will Baptist Church,PO Box 606,Church Hill,TN,37642
Harvest Baptist Church,309 E F St,Elizabethton,TN,37643
Hunter First Baptist Church,693 Highway 91,Elizabethton,TN,37643
Lynn Valley Baptist Church,1367 Broad St,Elizabethton,TN,37643
Oak Street Baptist Church,PO Box 745,Soddy-Daisy,TN,37384
Siam Baptist Church,2414 Siam Rd,Elizabethton,TN,37643
Stoney Creek Baptist Church,1843 Highway 91,Elizabethton,TN,37643
Watauga Vly Freewill Bapt Ch,119 Watauga Valley Church Rd,Elizabethton,TN,37643
St Elizabeths Church,510 W C St,Elizabethton,TN,37643
Southside Christian Church,1605 Southside Rd,Elizabethton,TN,37643
Valley Forge Christian Church,108 Hatfield Dr,Elizabethton,TN,37643
West Side Christian Church,1307 W G St,Elizabethton,TN,37643
Watauga Point United Methodist,416 Sabine St,Elizabethton,TN,37643
Beech Grove Baptist Church,1519 Topside Rd,Louisville,TN,37777
Zion Chapel Baptist Church,3334 Zion Chapel Rd,Louisville,TN,37777
Topside Church Of God,2526 Topside Rd,Louisville,TN,37777
International House Of Prayer,3222 Wrights Ferry Rd,Louisville,TN,37777
Bells Chapel Baptist Church,1112 Bell Chapel Ln,Seymour,TN,37865
First Baptist Church Seymour,11621 Chapman Hwy,Seymour,TN,37865
Knob Creek Baptist Church,959 Knob Creek Blvd,Seymour,TN,37865
Providence Baptist Church,PO Box 127,Seymour,TN,37865
Shiloh Baptist Church,1432 Shiloh Church Rd,Seymour,TN,37865
Holy Family Catholic Church,9100 Crockett Rd,Brentwood,TN,37027
Seymour Heights Christian Chr,122 Boyds Creek Hwy,Seymour,TN,37865
Seymour United Methodist Child,PO Box 171,Seymour,TN,37865
Seymour Community Church,PO Box 220,Seymour,TN,37865
Seymour Church Of God,204 Pickens Gap Rd,Seymour,TN,37865
Belmount Mb Church,PO Box 1630,Millington,TN,38083
Faith Heritage Baptist Church,PO Box 157,Millington,TN,38083
Holy Temple Mb Church,PO Box 1081,Millington,TN,38083
Lucy Baptist Church,4005 Lucy Rd,Millington,TN,38053
Shelby Forest Baptist Church,1207 Locke Cuba Rd,Millington,TN,38053
Millington Church of Christ,PO Box 26,Millington,TN,38083
Lighthouse Fellowship,PO Box 1360,Millington,TN,38083
West Union Cumberland Prsbytrn,3099 W Union Rd,Millington,TN,38053
Greater Temple Of Hope,6119 Hamlet Rd,Millington,TN,38053
Rosemark Church Of Christ,8905 Austin Peay Hwy,Millington,TN,38053
Anchor Baptist Church,8054 Nelson Rd,Millington,TN,38053
Bethany Baptist Church,3586 Highway 72 N,Loudon,TN,37774
Blairland Baptist Church,730 Steekee St,Loudon,TN,37774
Corinth Baptist Church,6100 Corinth Church Rd,Loudon,TN,37774
Union Fork Creek Baptist Chr,28280 TN-72,Loudon,TN,37774
Loudon United Methodist Church,PO Box 342,Loudon,TN,37774
Tellico Village Community Chr,130 Chota Rd,Loudon,TN,37774
Loudon Church of God,910 Mulberry St,Loudon,TN,37774
Abundantly Blessed Christian,900 Mulberry St,Loudon,TN,37774
Bethel Baptist Church,132 Bethel Church Rd,Townsend,TN,37882
Lights Chapel Baptist Church,PO Box 278,Greenbrier,TN,37073
Rock Springs Baptist Church,2155 Rock Springs Rd,Greenbrier,TN,37073
Green Ridge Church of Christ,PO Box 424,Greenbrier,TN,37073
Greenbrier United Methodist,PO Box 419,Greenbrier,TN,37073
Black Oak Baptist Church,236 Black Oak Rd,Clinton,TN,37716
Blowing Springs Baptist Church,119 Blowing Springs Ln,Clinton,TN,37716
Edgemoor Baptist Church,330 Old Emory Rd,Clinton,TN,37716
Farmers Grove Baptist Church,3322 W Wolf Valley Rd,Clinton,TN,37716
Island Ford Baptist Church,317 Offutt Rd,Clinton,TN,37716
Pleasant View Baptist Church,1388 Cumberland Heights Rd,Clarksville,TN,37040
South Clinton Baptist Church,1000 Clinch Ave,Clinton,TN,37716
St Therese Catholic Church,701 S Charles G Seivers Blvd,Clinton,TN,37716
Memorial United Methodist Chr,323 N Main St,Clinton,TN,37716
Clinton Church Of God,635 Hillcrest St,Clinton,TN,37716
Sylvia Baptist Church,1415 Old Sylvia Rd,Dickson,TN,37055
St Christopher's Church,713 W College St,Dickson,TN,37055
Oak Avenue Church of Christ,PO Box 42,Dickson,TN,37056
Pomona Church of Christ,1705 Highway 46 S,Dickson,TN,37055
Walnut St Church of Christ,201 Center Ave,Dickson,TN,37055
Jason Chapel Church-Nazarene,2541 Garners Creek Rd,Dickson,TN,37055
First Methodist Church,215 N Main St,Dickson,TN,37055
Dickson Cumberland Prebyterian,500 Highway 70 E,Dickson,TN,37055
Pond Church Of Christ,650 Pond Rd,Dickson,TN,37055
Allen David ,955 Wilson Hollow Rd,Dickson,TN,37055
Tuckaleechee United Methodist,7322 Old Tuckaleechee Rd,Townsend,TN,37882
Bethel Free Will Baptist Chr,1015 Ranch Rd,Ashland City,TN,37015
Bethlehem Free Will Baptist,1709 Highway 12 N,Ashland City,TN,37015
First Baptist-Ashland City,603 N Main St,Ashland City,TN,37015
Mt Zion Freewill Baptist Chr,2025 E Blue Springs Rd,Ashland City,TN,37015
Ashland City United Meth Chr,103 Oak St,Ashland City,TN,37015
Bethel Missionary Baptist Chr,762 Holly Grove Rd,Lascassas,TN,37085
Holly Grove Baptist Church,2633 Holly Grove Rd,Lascassas,TN,37085
Lascassas Baptist Church,PO Box 358,Lascassas,TN,37085
Lascassas Church Of Christ,6402 Lascassas Pike,Lascassas,TN,37085
Centerpoint Baptist Church,6660 Highway 161,Springfield,TN,37172
Coopertown Community Church,PO Box 416,Springfield,TN,37172
Eastland Heights Baptist Chr,PO Box 116,Springfield,TN,37172
North Springfield Baptist Chr,211 W 1st Ave,Springfield,TN,37172
Oakland Baptist Church,3580 Pinson School Rd,Springfield,TN,37172
South Haven Baptist Church,116 Academy Dr,Springfield,TN,37172
Springfield Baptist Church,400 N Main St,Springfield,TN,37172
Our Lady of Lourdes Church,103 Golf Club Ln,Springfield,TN,37172
Church of Christ Main Street,318 N Main St,Springfield,TN,37172
New Chapel Methodist Church,5016 Highway 49 W,Springfield,TN,37172
Coopertown Church Of Christ,3618 Old Coopertown Rd,Springfield,TN,37172
19Th Avenue Church Of Christ,201 19th Ave W,Springfield,TN,37172
Bloomingdale Baptist Church,3220 Bloomingdale Rd,Kingsport,TN,37660
Colonial Heights Baptist,108 Colonial Heights Rd,Kingsport,TN,37663
Double Springs Baptist Church,2783 Rock Springs Rd,Kingsport,TN,37664
Fellowship Freewill Baptist,2313 Portland Ave,Kingsport,TN,37660
Fort Robinson Baptist Church,2012 Fort Robinson Dr,Kingsport,TN,37660
Gravelly Baptist Church,500 Gravely Rd,Kingsport,TN,37660
Higher Ground Baptist Church,PO Box 4155,Kingsport,TN,37665
Holy Mountain Baptist Church,PO Box 4177,Kingsport,TN,37665
Homeland Baptist Church,PO Box 3430,Kingsport,TN,37664
Indian Springs Baptist Church,325 Hill Rd,Kingsport,TN,37664
Litz Manor Baptist Church,1383 Dewey Ave,Kingsport,TN,37664
Orebank Missionary Baptist,5930 Orebank Rd,Kingsport,TN,37664
Sullivan Baptist Church,4152 Maplewood St,Kingsport,TN,37660
Summersville Baptist Church,235 Mockingbird Ln,Kingsport,TN,37663
Sunnyside Baptist Church,406 Cooks Valley Rd,Kingsport,TN,37664
Vernon Heights Baptist Church,2547 Russell St,Kingsport,TN,37660
West Colonial Hills Baptist,1202 Kendrick Creek Rd,Kingsport,TN,37663
West View Baptist Church,1037 Fairview Ave,Kingsport,TN,37660
St Dominic's,2517 N John B Dennis Hwy,Kingsport,TN,37660
Belvue Christian Church,2700 E Center St,Kingsport,TN,37664
Oakwood Forest Christian,1713 E Sevier Ave,Kingsport,TN,37664
Colonial Heights Christian Chr,PO Box 5035,Kingsport,TN,37663
Northeast Church of Christ,2217 Beechnut Dr,Kingsport,TN,37660
St Paul's Church,161 E Ravine Rd,Kingsport,TN,37660
Kingsport Community Church,2316 Memorial Blvd,Kingsport,TN,37664
Bible Way Church,570 Packing House Rd,Kingsport,TN,37660
Cassidy United Methodist Ch,5801 Memorial Blvd,Kingsport,TN,37664
Crossroads United Methodist,200 Bays Cove Trl,Kingsport,TN,37660
Glen Alpine United Methodist,3200 Glen Alpine Rd,Kingsport,TN,37660
Ketron Memorial United Church,301 Virgil Ave,Kingsport,TN,37665
Kingsley United Methodist Chr,2828 Bloomingdale Rd,Kingsport,TN,37660
Mafair United Methodist Church,1409 E Center St,Kingsport,TN,37664
Morrison Chapel United,2019 Chapel Dr,Kingsport,TN,37665
Mountain View Methodist Church,4405 Orebank Rd,Kingsport,TN,37664
Rock Springs United Methodist,227 Church View Dr,Kingsport,TN,37664
St Matthew United Methodist,2505 Nathan St,Kingsport,TN,37664
Vermont United Methodist,1817 Bloomingdale Rd,Kingsport,TN,37660
Restoration Church,140 Broad St,Kingsport,TN,37660
Apostolic Gospel Church,479 Gravely Rd,Kingsport,TN,37660
Apostolic Lighthouse,1375 Falling Water Rd,Cookeville,TN,38506
Bethel Apostolic Church,PO Box 1609,Kingsport,TN,37662
Christian Life Ctr,PO Box 1383,Kingsport,TN,37662
New Life Church of God,PO Box 1406,Kingsport,TN,37662
North Kingsport Church of God,2409 N John B Dennis Hwy,Kingsport,TN,37660
Bethel Presbyterian Church,1593 Warpath Dr,Kingsport,TN,37664
Christ Fellowship,260 Victory Ln,Kingsport,TN,37664
Colonial Heights Prsby School,PO Box 5066,Kingsport,TN,37663
First Presby Childrens Ctr,100 W Church Cir,Kingsport,TN,37660
Waverly Road Presbyterian Chr,1415 Waverly Rd,Kingsport,TN,37664
Liberty Church Of Brethern,844 Liberty Church Rd,Kingsport,TN,37663
Valley Church Of Christ,525 Bell Ridge Rd,Kingsport,TN,37665
Agape Global Missions,1416 Bloomingdale Rd,Kingsport,TN,37660
Andrew Memorial Chapel Cmnty,5012 Andrew St,Kingsport,TN,37660
Apostolic Church,1734 Forest View Dr,Kingsport,TN,37660
Apostolic Gospel Academy,1780 Granby Rd,Kingsport,TN,37660
Arcadia Presbyterian Church,4616 Bloomingdale Rd,Kingsport,TN,37660
Bible Baptist Church,260 New Shackle Island Rd,Hendersonville,TN,37075
Bluegrass Baptist Church,235 Indian Lake Rd,Hendersonville,TN,37075
Centerpoint General Baptist,PO Box 1705,Hendersonville,TN,37077
Holiday Heights Baptist Church,145 River Rd,Hendersonville,TN,37075
Long Hollow Baptist Church,3031 Long Hollow Pike,Hendersonville,TN,37075
Our Lady of the Lake Church,PO Box 279,Hendersonville,TN,37077
Hendersonville Church,PO Box 176,Hendersonville,TN,37077
Hendersonville Church Nazarene,159 Luna Ln,Hendersonville,TN,37075
Celebration of Life,PO Box 460,Hendersonville,TN,37077
Community Church-Christ Youth,PO Box 737,Hendersonville,TN,37077
Hendersonville Church of God,PO Box 919,Hendersonville,TN,37077
Beech Cumberland Presbyterian,3216 Long Hollow Pike,Hendersonville,TN,37075
Lakeview Church Of Christ,132 New Shackle Island Rd,Hendersonville,TN,37075
Accurate Image Ministries,240 E Main St,Hendersonville,TN,37075
Affordable Weddings,232 Rockland Rd,Hendersonville,TN,37075
Blooming Grove Baptist Church,3900 Lylewood Rd,Woodlawn,TN,37191
Boone Trail Baptist Church,1985 Carroll Creek Rd,Gray,TN,37615
Boones Creek Bible Church,1528 Old Gray Station Rd,Gray,TN,37615
Buffalo Ridge Baptist Church,PO Box 8247,Gray,TN,37615
Boones Creek Christian Church,305 Christian Church Rd,Gray,TN,37615
Boones Creek United Methodist,110 Mary St,Gray,TN,37615
Gray United Methodist Church,PO Box 8068,Gray,TN,37615
Marvin's Chapel Methodist Chr,1882 Old Boones Creek Rd,Gray,TN,37615
Calvary Church Outreach,178 Pickens Bridge Rd,Gray,TN,37615
Crossroads Christian Church,1300 Suncrest Dr,Gray,TN,37615
Bowmantown Baptist Church,418 Bowmantown Rd,Jonesborough,TN,37659
Cherry Grove Baptist Church,104 Cherry Grove Rd,Jonesborough,TN,37659
Enon Baptist Church,1594 Highway 107,Jonesborough,TN,37659
New Victory Baptist Church,527 Conklin Rd,Jonesborough,TN,37659
Sulphur Springs Baptist Church,1567 Gray Station Sulphur Springs Rd,Jonesborough,TN,37659
Bethel Church of Christ,134 Hilbert Rd,Jonesborough,TN,37659
Jonesboro United Methodist Chr,PO Box 115,Jonesborough,TN,37659
Sulphur Springs Methodist Chr,1432 Gray Station Sulphur Springs Rd,Jonesborough,TN,37659
Chestnut Grove Union Church,367 Chestnut Grove Church Rd,Jonesborough,TN,37659
Jonesboro Presbyterian Church,PO Box 383,Jonesborough,TN,37659
Jonesborough Church Of God,164 Sugar Hollow Rd,Jonesborough,TN,37659
Brentwood Baptist Church,7777 Concord Rd,Brentwood,TN,37027
Concord Grandview Baptist Chr,6820 Nolensville Rd,Brentwood,TN,37027
Sonrise Baptist Church,7108 Crossroads Blvd,Brentwood,TN,37027
Brentwood Church of Christ,PO Box 1309,Brentwood,TN,37024
Harpeth Hills Church of Christ,1949 Old Hickory Blvd,Brentwood,TN,37027
Good Shepherd Episcopal Church,PO Box 1867,Brentwood,TN,37024
Whispering Hills Church,9826 Concord Rd,Brentwood,TN,37027
Congregation Micah,2001 Old Hickory Blvd,Brentwood,TN,37027
Brentwood United Methodist Chr,309 Franklin Rd,Brentwood,TN,37027
Forest Hills United Methodist,1250 Old Hickory Blvd,Brentwood,TN,37027
Bethel World Outreach Ctr,5670 Granny White Pike,Brentwood,TN,37027
Concord Road Church-Christ,8221 Concord Rd,Brentwood,TN,37027
Edmonson Chapel Missionary,10633 Concord Rd,Brentwood,TN,37027
Fellowship Bible Church,1210 Franklin Rd,Brentwood,TN,37027
Living Word Community Church,409 Franklin Rd,Brentwood,TN,37027
New Hope Community Church,PO Box 3146,Brentwood,TN,37024
New Song Christian Fellowship,316 Southgate Ct,Brentwood,TN,37027
East Brentwood Presbyterian,9000 Concord Rd,Brentwood,TN,37027
Harpeth Presbyterian Church,3077 Hillsboro Rd,Brentwood,TN,37027
African Leadership,233 Wilson Pike Cir,Brentwood,TN,37027
America's Family Doctors ,1195 Old Hickory Blvd,Brentwood,TN,37027
Tennessee Ave Baptist Day Care,PO Box 985,Bristol,TN,37621
Virginia Avenue Baptist Church,1401 Virginia Ave,Bristol,TN,37620
Volunteer Baptist Church,2695 Volunteer Pky,Bristol,TN,37620
Woodlawn Baptist Church,1400 Southside Ave,Bristol,TN,37620
Avoca Christian Church,2417 Volunteer Pky,Bristol,TN,37620
Central Holston Christian Chr,261 Sand Bar Rd,Bristol,TN,37620
West Hills Christian Church,116 Elm St,Bristol,TN,37620
Addilynn Memorial United Meth,3225 Avoca Rd,Bristol,TN,37620
Anderson St United Methodist,954 Anderson St,Bristol,TN,37620
Community Church at Bristol,6320 Old Jonesboro Rd,Bristol,TN,37620
Shelby Street Church of God,1318 Shelby St,Bristol,TN,37620
True Faith Tabernacle,2803 Broad St,Bristol,TN,37620
Eastern Heights Presbyterian,104 Cannon Ave,Bristol,TN,37620
Windsor Avenue Presbyterian,1100 Windsor Ave,Bristol,TN,37620
Addilynn Memorial United Methodist Church,134 Richmond Heights Rd,Bristol,TN,37620
Brunswick Baptist Church,PO Box 100,Brunswick,TN,38014
Bulls Gap Baptist Church,PO Box 56,Bulls Gap,TN,37711
Sunrise Baptist Church,185 Sunrise Church Ln,Bulls Gap,TN,37711
Sounds Of Faith Family Worship,495 Gap Creek Rd,Bulls Gap,TN,37711
Dixie-Lee Baptist Church,14650 Old Stage Rd,Lenoir City,TN,37772
Kingston Pike Baptist Church,1340 Old Highway 95,Lenoir City,TN,37771
Oral Baptist Church,4850 Kingston Hwy,Lenoir City,TN,37771
St Thomas Apostle Catholic Chr,1580 Saint Thomas Way,Lenoir City,TN,37772
Covenant Ministry Ctr,1965 Martel Rd,Lenoir City,TN,37772
Sixth Avenue Church of God,700 N A St,Lenoir City,TN,37771
First Church Of Nazarene,1090 Yell Rd,Lewisburg,TN,37091
Gills Chapel Baptist Church,1014 Highway 31,Mooresburg,TN,37811
Clear Branch Baptist Church,PO Box 490,Lake City,TN,37769
Erwin First Baptist Church,PO Box 526,Erwin,TN,37650
Evergreen Free Will Bapt Chr,110 Harris St,Erwin,TN,37650
Faith Baptist Church,900 Simmons Rd,Atoka,TN,38004
Ninth Street Baptist Church,310 9th St,Erwin,TN,37650
Embreeville Church of Christ,4343 Highway 81 S,Erwin,TN,37650
Erwin Church Of God,799 Rock Creek Rd,Erwin,TN,37650
Giles Creek Baptist Church,PO Box 1842,Smyrna,TN,37167
Mt Zion Missionary Baptist Chr,102 Ridley St,Smyrna,TN,37167
Stonebrook Church,5100 Almaville Rd,Smyrna,TN,37167
Stones River Baptist Church,361 Sam Ridley Pky E,Smyrna,TN,37167
St Luke's Catholic Church,PO Box 907,Smyrna,TN,37167
Church of Christ-Highland,PO Box 465,Smyrna,TN,37167
Smyrna Church of Christ,PO Box 296,Smyrna,TN,37167
Smyrna First United Methodist,PO Box 322,Smyrna,TN,37167
Cornerstone Church Ministries,PO Box 481,Smyrna,TN,37167
Smyrna Assembly,14119 Old Nashville Hwy,Smyrna,TN,37167
Abiding Faith Lutheran Church,10411 Old Nashville Hwy,Smyrna,TN,37167
First Baptist Church Oak Ridge,1101 Oak Ridge Tpke,Oak Ridge,TN,37830
Robertsville Baptist Church,251 Robertsville Rd,Oak Ridge,TN,37830
Royce Baptist Church,131 La Salle Rd,Oak Ridge,TN,37830
West Village Christian Church,637 Robertsville Rd,Oak Ridge,TN,37830
Highland View Church of Christ,PO Box 6955,Oak Ridge,TN,37831
St Stephen's Episcopal Church,212 N Tulane Ave,Oak Ridge,TN,37830
New Life Church-Nazarene,200 Lafayette Dr,Oak Ridge,TN,37830
Kern Memorial United Methodist,451 E Tennessee Ave,Oak Ridge,TN,37830
United Church,85 Kentucky Ave,Oak Ridge,TN,37830
Christian Outreach Assembly,PO Box 6139,Oak Ridge,TN,37831
Heritage Fellowship,121 Illinois Ave,Oak Ridge,TN,37830
High Places Community Church,123 Randolph Rd,Oak Ridge,TN,37830
Scarboro Church Of Christ,204 Hampton Rd,Oak Ridge,TN,37830
Fellowship Baptist Church,PO Box 428,Bluff City,TN,37618
Green Hill Baptist Church,13251 Lebanon Rd,Mt Juliet,TN,37122
Mt Olivet Baptist Church,7463 Hickory Ridge Rd,Mt Juliet,TN,37122
Center Chapel Church of Christ,9500 Central Pike,Mt Juliet,TN,37122
Mount Juliet Church of Christ,PO Box 248,Mt Juliet,TN,37121
Celebration Lutheran Church,3425 N Mount Juliet Rd,Mt Juliet,TN,37122
Cook's United Methodist Church,7919 Lebanon Rd,Mt Juliet,TN,37122
Abundant Life Church,425 Anderson St,Morristown,TN,37814
Harvest Chapel Fellowship,7104 Lebanon Rd,Mt Juliet,TN,37122
Gladeville Church Of Christ,1435 Gladeville Rd,Mt Juliet,TN,37122
Ahyh Pastor,1044 Benton Harbor Blvd,Mt Juliet,TN,37122
Cedar Hill Baptist Church,PO Box 205,Cedar Hill,TN,37032
Head's Free Will Baptist Chr,3128 Heads Church Rd,Cedar Hill,TN,37032
Central Baptist of Hixson,5208 Hixson Pike,Hixson,TN,37343
Dallas Bay Southern Baptist,8305 Daisy Dallas Rd,Hixson,TN,37343
Hixson First Baptist Church,5800 Grubb Rd,Hixson,TN,37343
Middle Valley Baptist Church,7901 Middle Valley Rd,Hixson,TN,37343
Mile Straight Baptist Church,8448 Springfield Rd,Soddy-Daisy,TN,37379
Sequoyah Baptist Tabernacle,PO Box 736,Hixson,TN,37343
Hixson Church of Christ,PO Box 75,Hixson,TN,37343
Middle Valley Church of Christ,1836 Thrasher Pike,Hixson,TN,37343
St Alban's Episcopal Church,PO Box 1326,Hixson,TN,37343
Burks United Methodist Church,6433 Hixson Pike,Hixson,TN,37343
Highland Plaza United Meth,4226 Norcross Rd,Hixson,TN,37343
Hixson United Methodist Church,5301 Old Hixson Pike,Hixson,TN,37343
Bethel Temple Assembly of God,PO Box 578,Hixson,TN,37343
North Chattanooga Church-God,PO Box 1027,Hixson,TN,37343
Hixson Presbyterian Church,1005 Gadd Rd,Hixson,TN,37343
Central Point Baptist Church,3617 Central Point Rd,Rockford,TN,37853
Rockford Baptist Church,PO Box 184,Rockford,TN,37853
Charity Baptist Church,PO Box 210,Blountville,TN,37617
Gunnings Baptist Church,PO Box 450,Blountville,TN,37617
Blountville Christian Church,PO Box 528,Blountville,TN,37617
Blountville United Methodist,PO Box 686,Blountville,TN,37617
Wheeler United Methodist,211 Sanders St,Blountville,TN,37617
Celebration Church,429 Shipley Ferry Rd,Blountville,TN,37617
Airport Christian Church,152 Centenary Rd,Blountville,TN,37617
Chinquapin Grove Baptist Chr,1489 Walnut Grove Rd,Bluff City,TN,37618
Bluff City United Methodist,PO Box 190,Bluff City,TN,37618
Elizabeth Chapel United Meth,1041 Elizabeth Chapel Rd,Bluff City,TN,37618
Church at Grace Park,PO Box 570,White House,TN,37188
Temple Baptist Church Sbc,PO Box 762,White House,TN,37188
White House Church of Christ,PO Box 623,White House,TN,37188
Clinch River Baptist Church,407 Cane Creek Rd,Lake City,TN,37769
Main Street Baptist Church,PO Box 405,Lake City,TN,37769
Pine Hill Baptist Church,PO Box 637,Lake City,TN,37769
Covenant Life Church of God,PO Box 67,Lake City,TN,37769
Cgma Church Of God,106 Adkins St,Lake City,TN,37769
Clear Springs Baptist Church,3709 Clear Springs Rd,Mascot,TN,37806
Corryton Baptist Church,PO Box 28,Corryton,TN,37721
House Mountain Baptist Church,PO Box 101,Corryton,TN,37721
Clapp's Chapel United Meth Chr,7420 Clapps Chapel Rd,Corryton,TN,37721
Rutherford Memorial United,PO Box 96,Corryton,TN,37721
Anderson Hubert Rev,8612 Coppock Rd,Corryton,TN,37721
Roseberry Baptist Church,2920 Roseberry Rd,Mascot,TN,37806
Mascot United Methodist Church,PO Box 97,Mascot,TN,37806
Clearview Baptist Church,537 Franklin Rd,Franklin,TN,37069
Crossroads Community Church,PO Box 682344,Franklin,TN,37068
First Missionary Baptist Chr,301 Fairview Ln,Clarksville,TN,37040
Grassland Heights Baptist Chr,2316 Hillsboro Rd,Franklin,TN,37069
Limestone Missionary Baptist,1613 W Main St,Franklin,TN,37064
Oak Valley Baptist Church,1161 Lewisburg Pike,Franklin,TN,37064
Walker Memorial Baptist Church,1350 W Main St,Franklin,TN,37064
St Matthew Church,535 Sneed Rd W,Franklin,TN,37069
St Philip Catholic Church,113 2nd Ave S,Franklin,TN,37064
Berry's Chapel Church-Christ,1777 Berrys Chapel Rd,Franklin,TN,37069
Fourth Avenue Church of Christ,134 4th Ave N,Franklin,TN,37064
Franklin Church of Christ,PO Box 681612,Franklin,TN,37068
Millview Church of Christ,4370 Murfreesboro Rd,Franklin,TN,37067
Royal Heights Church of Christ,PO Box 365,Franklin,TN,37065
Southern Hills Church-Christ,2508 Goose Creek Byp,Franklin,TN,37064
Church of the Resurrection,1216 Sneed Rd W,Franklin,TN,37069
St Andrew Lutheran Church,908 Murfreesboro Rd,Franklin,TN,37064
Bethlehem United Methodist Chr,2419 Bethlehem Loop Rd,Franklin,TN,37069
Epworth United Methodist Chr,4241 Arno Rd,Franklin,TN,37064
Father's House Covenant Church,"2000 Mallory Ln, #130-376",Franklin,TN,37067
Franklin Christian Church,PO Box 680815,Franklin,TN,37068
Harpeth Community Church,2142 S Berrys Chapel Rd,Franklin,TN,37069
Strong Tower Bible Church,"225 Noah Dr, #300",Franklin,TN,37064
Saint Ignatius Orthodox Church,4671 Peytonsville Rd,Franklin,TN,37064
Historic Franklin Presbyterian,PO Box 323,Franklin,TN,37065
Franklin Community Of Faith,506 Jordan Rd,Franklin,TN,37067
Parkway Church Of Christ,825 Liberty Pike,Franklin,TN,37064
4Th Avenue Church Of Christ,117 4th Ave N,Franklin,TN,37064
Abundant Life,15770 Highway 64,Bolivar,TN,38008
Clover Creek Baptist Church,2112 Highway 18,Medon,TN,38356
Maple Springs Baptist Church,155 Maple Springs Rd,Medon,TN,38356
New Union Baptist Church,1635 New Union Loop,Medon,TN,38356
Cold Springs Baptist Church,1226 Cold Springs Rd,Walland,TN,37886
Prospect Baptist Church,519 Prospect Rd,Walland,TN,37886
Rocky Branch Missionary Bapt,PO Box 26,Walland,TN,37886
Kingdom Hall Of Jehovah's,7800 Highway 64,Oakland,TN,38060
Collierville First Baptist,830 N Byhalia Rd,Collierville,TN,38017
Covenant Baptist Church,PO Box 1165,Collierville,TN,38027
Greenhills Baptist Church,300 W Powell Rd,Collierville,TN,38017
Life Church at Schilling Farms,1035 Winchester Blvd,Collierville,TN,38017
Peterson Lake Baptist Church,850 Peterson Lake Rd,Collierville,TN,38017
Church of the Incarnation,360 Bray Station Rd,Collierville,TN,38017
Bethany Christian Church,421 N Byhalia Rd,Collierville,TN,38017
Collierville Christian Church,740 Gunnison Dr,Collierville,TN,38017
St Andrews Episcopal Church,PO Box 626,Collierville,TN,38027
Faith Lutheran Church-Lcms,507 New Byhalia Rd,Collierville,TN,38017
Collierville United Methodist,454 W Poplar Ave,Collierville,TN,38017
Cross Roads United Methodist,9315 E Shelby Dr,Collierville,TN,38017
Collierville Church of Christ,575 Shelton Rd,Collierville,TN,38017
Abundant Grace Ministries,9239 Holmes Rd,Collierville,TN,38017
Conner Heights Baptist Church,177 Conner Heights Rd,Pigeon Forge,TN,37863
Fathers House,202 Sugar Hollow Rd,Pigeon Forge,TN,37863
Cragfont Baptist Church,PO Box 2167,CASTALIN SPGS,TN,37031
Old Union Church of Christ,PO Box 2226,CASTALIN SPGS,TN,37031
Crossroads Baptist Church,6601 Austin Peay Hwy,Arlington,TN,38002
Gray's Creek Mb Church,3141 Airline Rd,Arlington,TN,38028
Bartlett Woods,7800 Old Brownsville Rd,Arlington,TN,38002
St Paul United Methodist Chr,2949 Davies Plantation Rd,Arlington,TN,38002
Arlington Assembly Of God Chr,11056 Highway 70,Arlington,TN,38002
Arlington United Methodist Chr,6165 Chester St,Arlington,TN,38002
Cumberland Drive Baptist Chr,1101 Ashland City Rd,Clarksville,TN,37040
Excell Baptist Church,328 Excell Rd,Clarksville,TN,37043
Ezra Missionary Baptist Church,2606 Union Hall Rd,Clarksville,TN,37040
Greater Missionary Baptist,450 Ringgold Rd,Clarksville,TN,37042
Hilldale Baptist Church,2001 Madison St,Clarksville,TN,37043
Little Hope Baptist Church,225 Little Hope Rd,Clarksville,TN,37010
Little West Fork Baptist Chr,201 Britton Springs Rd,Clarksville,TN,37042
Maplewood Baptist Church,812 Tiny Town Rd,Clarksville,TN,37042
New Providence Baptist Church,613 E St,Clarksville,TN,37042
Pardue Memorial Free Will Bapt,1895 Memorial Dr,Clarksville,TN,37043
Spring Creek Baptist Church,2760 Trenton Rd,Clarksville,TN,37040
St John Missionary Baptist Chr,1833 Tiny Town Rd,Clarksville,TN,37042
Tabernacle Missionary Baptist,PO Box 63,Clarksville,TN,37041
Walnut Grove Mssnry Bptst Chr,PO Box 2607,Clarksville,TN,37042
Immaculate Conception Cthlc Ch,709 Franklin St,Clarksville,TN,37040
Church of Christ-Hilldale,501 Highway 76,Clarksville,TN,37043
Church of Christ-Madison St,523 Madison St,Clarksville,TN,37040
Trinity Episcopal Church,317 Franklin St,Clarksville,TN,37040
Parklane Church-the Nazarene,PO Box 2803,Clarksville,TN,37042
Forest Street United Methodist,416 Church St,Clarksville,TN,37040
Hilldale United Methodist Chr,1751 Madison St,Clarksville,TN,37043
Madison Street United Meth Chr,PO Box 864,Clarksville,TN,37041
New Providence United Meth,1317 Fort Campbell Blvd,Clarksville,TN,37042
Salem United Methodist Church,2269 Seven Mile Ferry Rd,Clarksville,TN,37040
Sango United Methodist Church,PO Box 3723,Clarksville,TN,37043
St Bethlehem United Methodist,2201 Old Russellville Pike,Clarksville,TN,37040
Clarksville Family Bible Chr,PO Box 1414,Clarksville,TN,37041
Liberty Church,PO Box 30722,Clarksville,TN,37040
Church of God,150 Lafayette Rd,Clarksville,TN,37042
Faith Outreach Church,731 Windermere Dr,Clarksville,TN,37043
Vineyard Christian Fellowship,2182 Old Russellville Pike,Clarksville,TN,37043
Clarksville Cumb Presby Church,1410 Golf Club Ln,Clarksville,TN,37040
Family Of Faith Worship Center,375 Highway 149,Clarksville,TN,37040
Church Of God Of Prophecy,828 W Tri County Blvd,Oliver Springs,TN,37840
9Th ,127 9th St,Clarksville,TN,37040
Abundant Faith Church,1303 Fort Campbell Blvd,Clarksville,TN,37042
Abundant Life Outreach Center,119 Chapel St,Clarksville,TN,37042
Agape Orphan Ministries,241 Marshall Dr,Clarksville,TN,37042
All Saints Church,863 Salem Rd,Clarksville,TN,37040
Amazing Grace Apostolic Church,1204 Greenfield Dr,Clarksville,TN,37040
Antioch United Methodist Church,2575 Antioch Church Rd,Clarksville,TN,37040
Apostolic Faith Tabernacle,1470 Golf Club Ln,Clarksville,TN,37040
Apostolic Lighthouse Upc,1602 Ashland City Rd,Clarksville,TN,37043
Deep Springs Baptist Church,745 Brushy Valley Rd,Heiskell,TN,37754
Freeway Church Of God,3282 Hinds Creek Rd,Heiskell,TN,37754
Delashmitt Road Baptist Church,4711 Delashmitt Rd,Red Bank,TN,37343
Eagleville Baptist Church,PO Box 28,Eagleville,TN,37060
East Rogersville Baptist Chr,1100 E McKinney Ave,Rogersville,TN,37857
Henard's Chapel Baptist Church,145 Henard Chapel Rd,Rogersville,TN,37857
Hickory Cove Baptist Church,RR 4 Box 138,Rogersville,TN,37857
Rogersville United Methodist,110 Colonial Rd,Rogersville,TN,37857
Rogersville Presbyterian Chr,309 W Kyle St,Rogersville,TN,37857
Crossroads Assembly Of God,2747 Highway 66 S,Rogersville,TN,37869
Ellendale Baptist Church,PO Box 487,Ellendale,TN,38029
Ellendale United Methodist Chr,PO Box 85,Ellendale,TN,38029
Brick Christian Church,PO Box 217,Watauga,TN,37694
Watauga Christian Church,PO Box 65,Watauga,TN,37694
Atoka United Methodist Church,PO Box 382,Atoka,TN,38004
First Baptist Child Care,PO Box 9,Whitwell,TN,37397
Church of God Whitwell,PO Box 147,Whitwell,TN,37397
Garland Baptist Church,1756 Garland Dr,Covington,TN,38019
Greater St John Mbc,411 Shelton St,Covington,TN,38019
St Alphonsus Catholic Church,PO Box 430,Covington,TN,38019
First Assembly of God Church,PO Box 355,Gallatin,TN,37066
Old New Hope Baptist Church,PO Box 306,Fairview,TN,37062
Fairview Church of Christ,PO Box 899,Fairview,TN,37062
Emmanuel Prince Of Peace,7111 Lakeview Dr,Fairview,TN,37062
Lavergne United Methodist Ch,248 Waldron Rd,La Vergne,TN,37086
Our Lady of Lourdes Catholic,PO Box 288,South Pittsburg,TN,37380
Holly Avenue United Methodist,PO Box 248,South Pittsburg,TN,37380
Paint Rock Baptist Church,1510 Loudon Hwy,Philadelphia,TN,37846
Reed Springs Baptist Church,485 Reed Springs Rd,Philadelphia,TN,37846
Round Lick Baptist Church,745 W Main St,Watertown,TN,37184
Greenvale Baptist Church,6909 Carters Valley Rd,Church Hill,TN,37642
Mc Pheeters Bend Missionary,430 Church Rd,Church Hill,TN,37642
Mckendree United Methodist Ch,RR 3 Box 133,Jasper,TN,37347
Jasper Church Of Nazarene,1028 Betsy Pack Dr,Jasper,TN,37347
Hickory Withe First Baptist,17675 Highway 196,Eads,TN,38028
Forest Hill Community Church,650 Houston Levee Rd,Eads,TN,38028
Harvest Hills Baptist Church,PO Box 1091,Gallatin,TN,37066
Indian Hills Baptist Church,901 Long Hollow Pike,Gallatin,TN,37066
St John Vianney Catholic Chr,449 N Water Ave,Gallatin,TN,37066
Church-Christ Nashville Rd,1883 Nashville Pike,Gallatin,TN,37066
Gallatin Church of Christ,PO Box 984,Gallatin,TN,37066
Hartsville Pike Church-Christ,PO Box 36,Gallatin,TN,37066
Gallatin Church-Nazarene,PO Box 8079,Gallatin,TN,37066
Lambuth Memorial Methodist Chr,1042 Hartsville Pike,Gallatin,TN,37066
Rehoboth Methodist Church,2601 Cages Bend Rd,Gallatin,TN,37066
St Luke African Methodist Chr,355 Blythe Ave,Gallatin,TN,37066
Gallatin Church Of Christ,150 E Main St,Gallatin,TN,37066
Roaring Fork Baptist Church,PO Box 1474,Gatlinburg,TN,37738
Powell United Methodist Church,323 W Emory Rd,Powell,TN,37849
Warren Community Church,11800 US-64,Somerville,TN,38068
St Philip the Apostle Church,11710 US-64,Somerville,TN,38068
House of Faith Ministries,PO Box 541,Somerville,TN,38068
Faith Church Of God,17890 US-64,Somerville,TN,38068
Adventist Community Service,265 Heaton Creek Rd,Roan Mountain,TN,37687
New South Daisy Baptist Church,9129 Dayton Pike,Soddy-Daisy,TN,37379
Rechoboth Baptist Church,PO Box 1450,Soddy-Daisy,TN,37384
Union Fork Baptist Church,350 Lee Pike,Soddy-Daisy,TN,37379
Daisy United Methodist Church,9508 Dayton Pike,Soddy-Daisy,TN,37379
Daisy Church of God,PO Box 77,Soddy-Daisy,TN,37384
Soddy Church Of God,335 Depot St,Soddy-Daisy,TN,37379
Sanford Hill Baptist Church,644 Sanford St,Henderson,TN,38340
Estes Church of Christ,3505 Us Highway 45 S,Henderson,TN,38340
Red Hill Baptist Church,1464 Park Ln,Andersonville,TN,37705
Andersonville United Mthdst,3944 Andersonville Hwy,Andersonville,TN,37705
Madison Creek Baptist Church,782 Long Hollow Pike,Goodlettsville,TN,37072
Spring Hill Baptist Church,6137 Dividing Ridge Rd,Goodlettsville,TN,37072
Union Hill Baptist Church,1301 Union Hill Rd,Goodlettsville,TN,37072
Goodlettsville Church-Christ,PO Box 215,Goodlettsville,TN,37070
Rivergate Church of Christ,201 Alta Loma Rd,Goodlettsville,TN,37115
Goodlettsville Church,400 Loretta Dr,Goodlettsville,TN,37072
Connell Memorial United Meth,113 Church St,Goodlettsville,TN,37072
Goodlettsville United Pent Chr,PO Box 623,Goodlettsville,TN,37070
Living to Go Life Ctr,PO Box 769,Goodlettsville,TN,37070
Goodlettsville Cumberland Chr,226 S Main St,Goodlettsville,TN,37072
Acappella Ministries,708 Loretta Dr,Goodlettsville,TN,37072
First Baptist Church Concord,11704 Kingston Pike,Farragut,TN,37934
St John Neumann Catholic,225 Jamestowne Blvd,Farragut,TN,37922
Farragut Christian Church,138 Admiral Rd,Farragut,TN,37922
Farragut Church of Christ Pre-,136 Smith Rd,Farragut,TN,37922
St Elizabeth's Episcopal Chr,110 Sugarwood Dr,Farragut,TN,37922
First Farragut United Meth,12733 Kingston Pike,Farragut,TN,37934
Lovell Heights Church of God,132 Lovell Rd,Farragut,TN,37934
Farragut Presbyterian Church,209 Jamestowne Blvd,Farragut,TN,37922
First Baptist Church Old Hckry,1106 Hadley Ave,Old Hickory,TN,37138
Lakeview Baptist Church,4319 Saundersville Rd,Old Hickory,TN,37138
St Stephen Catholic Cmnty,14544 Lebanon Rd,Old Hickory,TN,37138
Old Hickory United Methodist,PO Box 230,Old Hickory,TN,37138
Friendsville First Baptist Chr,PO Box 116,Friendsville,TN,37737
Hickory Valley Bible Baptist,3920 W Lamar Alexander Pky,Friendsville,TN,37737
Laurel Bank Baptist Church,211 County Farm Rd,Friendsville,TN,37737
High Praises,PO Box 88,Friendsville,TN,37737
Georgetown Baptist Church,PO Box 309,Georgetown,TN,37336
Meadowview Baptist Church,10715 Ooltewah Georgetown Rd,Georgetown,TN,37336
Germantown Baptist Church,PO Box 161,Pickwick Dam,TN,38365
Gladeville Baptist Church,PO Box 279,Gladeville,TN,37071
Gum Springs Baptist Church,5270 Marion Rd,Cunningham,TN,37052
Harmony Free Will Baptist Chr,3405 Gap Creek Rd,Hampton,TN,37658
Hermitage Hills Baptist Church,3475 Lebanon Pike,Hermitage,TN,37076
Stateland Baptist Church,PO Box 765,Hermitage,TN,37076
Central Pike Church of Christ,PO Box 36,Hermitage,TN,37076
Hermitage Church of Christ,4004 Lebanon Pike,Hermitage,TN,37076
Hermitage Church of Nazarene,PO Box 111,Hermitage,TN,37076
Emmanuel Lutheran Church,1003 Hickory Hill Ln,Hermitage,TN,37076
Hermitage United Methodist Chr,205 Belinda Dr,Hermitage,TN,37076
Hermitage Church of God,4316 Central Pike,Hermitage,TN,37076
Harvest Christian Fellowship,PO Box 328,Hermitage,TN,37076
Hermitage Presbyterian Church,421 Highland View Dr,Hermitage,TN,37076
Alex Zsolt Ministry,735 Tulip Grove Rd,Hermitage,TN,37076
Jubilee Worship Ctr,PO Box 129,Westmoreland,TN,37186
Westmoreland Church Of God,1114 Pleasant Grove Rd,Westmoreland,TN,37186
Kimball Baptist Church,11 Pinecrest Ln,Kimball,TN,37347
Kimball Church Of Christ,830 Main St,Kimball,TN,37347
Laurel Branch Baptist,PO Box 280,Briceville,TN,37710
Laurel Grove Baptist Church,205 Rock House Ln,Briceville,TN,37710
Milan Baptist Church,PO Box 786,Maynardville,TN,37807
New Testament Baptist Church,9325 Maynardville Hwy,Maynardville,TN,37807
Morris Memorial Baptist Chr,PO Box 315,Moscow,TN,38057
Anderson Chapel Baptist Church,4365 Cowan Loop,Moscow,TN,38057
Anderson Grove Mb Church,7545 Cowan Loop,Moscow,TN,38057
Cross Plains United Methodist,PO Box 10,Cross Plains,TN,37049
Signal Mountain Baptist Church,939 Ridgeway Ave,Signal Mountain,TN,37377
St Timothy's Episcopal Church,630 Mississippi Ave,Signal Mountain,TN,37377
Signal Crest United Methodist,PO Box 124,Signal Mountain,TN,37377
Signal Mountain Presbyterian,612 James Blvd,Signal Mountain,TN,37377
Wayside Presbyterian Church,2502 Fairmount Pike,Signal Mountain,TN,37377
Munford Baptist Church,PO Box 831,Munford,TN,38058
Parkway Village Baptist Church,7011 Poplar Ave,Germantown,TN,38138
Germantown Church of Christ,8723 Poplar Pike,Germantown,TN,38138
Early Childhood Ctr,PO Box 38447,Germantown,TN,38183
Germantown United Methodist,2331 S Germantown Rd,Germantown,TN,38138
Germantown Christian Ctr,7040 Stout Rd,Germantown,TN,38138
Grace Evangelical Church,9750 Wolf River Blvd,Germantown,TN,38139
Faith Presbyterian Church,8816 Poplar Pike,Germantown,TN,38138
Germantown Presbyterian Church,2363 S Germantown Rd,Germantown,TN,38138
Riveroaks Refromed Presby,1665 S Germantown Rd,Germantown,TN,38138
New Hope Free Will Baptist Chr,1285 New Hope Rd,Joelton,TN,37080
St Lawrence Catholic Church,5655 Clarksville Pike,Joelton,TN,37080
Clarksville Hwy Church-Christ,5444 Highway 41a,Joelton,TN,37080
Joelton Church of Christ,PO Box 218,Joelton,TN,37080
Greenville United Methodist,5892 Clarksville Pike,Joelton,TN,37080
Joelton Church Of Nazarene,6186 Eatons Creek Rd,Joelton,TN,37080
Bethel Church Of Christ,2231 Mack Benderman Rd,Culleoka,TN,38451
Niles Ferry Baptist Church,6895 Highway 411 S,Greenback,TN,37742
Greenback Church Of Christ,6536 Morganton Rd,Greenback,TN,37742
Nolensville Baptist Church,PO Box 635,Nolensville,TN,37135
Nolensville United Methodist,PO Box 249,Nolensville,TN,37135
Norris First Baptist Church,PO Box 340,Norris,TN,37828
Norris United Methodist Church,PO Box 327,Norris,TN,37828
Norris Religious Fellowship,PO Box 267,Norris,TN,37828
Mount Carmel United Methodist,550 Independence Ave,Mt Carmel,TN,37645
Oakfield Baptist Church,3527 Old Medina Rd,Oakfield,TN,38362
Peytonsville Baptist Church,4940 Harpeth-Peytonsville Rd,Thompson's Station,TN,37179
Thompson Station Baptist Chr,PO Box 218,Thompson's Station,TN,37179
Piney Flats Baptist Church,100 Cherry Rd,Piney Flats,TN,37686
Poplar Ridge Christian Church,206 Poplar Ridge Church Rd,Piney Flats,TN,37686
River-Life Church,PO Box 336,Piney Flats,TN,37686
Mt Bethel Christian Church,361 Clear Springs Rd,Limestone,TN,37681
Ridgetop First Baptist Church,PO Box 136,Ridgetop,TN,37152
Smyrna Baptist Church,7512 Highway 59 W,Burlison,TN,38015
Ward's Grove Baptist Church,7707 Halls Hill Pike,Milton,TN,37118
Williston Baptist Church,5925 Railroad St,Williston,TN,38076
Hopwood Memorial Christian Chr,PO Box 149,MILLIGAN COLLEGE,TN,37682
Allisona Church of Christ,6828 Giles Hill Rd,College Grove,TN,37046
College Grove United Methodist,PO Box 216,College Grove,TN,37046
Pegram Church of Christ,PO Box 439,Pegram,TN,37143
Pegram Church Of Christ,5019 Walkup Rd,Pegram,TN,37143
Water Street Church of Christ,501 Water St,Charlotte,TN,37036
White Bluff Church of Christ,PO Box 155,White Bluff,TN,37187
Lookout Mountain Presbyterian,PO Box 57,Lookout Mountain,TN,37350
Adams United Methodist Church,7544 Highway 41 N,Adams,TN,37010
Adams Church Of Christ,101 S Commerce St,Adams,TN,37010
Bethpage United Methodist Chr,3140 Highway 31 E,Bethpage,TN,37022
Kodak United Methodist Church,2923 Bryan Rd,Kodak,TN,37764
Pleasant View United Meth Ch,2040 Pinnacle Rd,Pleasant View,TN,37146
Unicoi United Methodist Church,702 Virginia St,Unicoi,TN,37692
Unicoi Church Of God,508 Tennessee St,Unicoi,TN,37692
Korean Full Gospel Church,5421 Ringgold Rd,East Ridge,TN,37412
Spring Creek Church of God,1003 Spring Creek Rd,East Ridge,TN,37412
Calvary Assembly Of God,1200 S Seminole Dr,East Ridge,TN,37412
House Of God Worship Center,129 Main St,New Tazewell,TN,37825
Dayton Church Of God Of Prophecy,1120 Dayton Mountain Hwy,Dayton,TN,37321
A New Thing Ministries,1548 Market St,Dayton,TN,37321
Amazing Grace Mission,289 PO Box,Dayton,TN,37321
International Word Of Faith Family Worship Center,104 Fenton St,Halls,TN,38040
Archers Chapel Methodist Church Parsonage,12767 Highway 88,Halls,TN,38040
Archers Chapel Church,356 Archers Chapel Rd,Halls,TN,38040
Family Worship Center Church Of God Of Prophecy Parsonage,205 Lancaster Hwy,Hickman,TN,38567
Churches,303 Church St,Summertown,TN,38483
Lighthouse Of Worship Ministry,4400 Warren Rd,Humboldt,TN,38343
Amazing Grace Community Church,3725 Hartsville Rd,Lafayette,TN,37083
Lynchburg Church Of Christ,376 Main St,Lynchburg,TN,37352
Deerfield Church Of Christ,4085 Waynesboro Hwy,Lawrenceburg,TN,38464
Salem Church Of Christ,505 W Point Rd,Lawrenceburg,TN,38464
Eastside Church Of Christ,109 Rowsey St,Camden,TN,38320
Northside Church Of Christ,644 N College St,Trenton,TN,38382
Gordonburg Church Of Christ,1402 Columbia Hwy,Hohenwald,TN,38462
Pineview Church Of Christ,751 Columbia Hwy,Hohenwald,TN,38462
Trinity Assembly Of God,1141 S West St,Decaturville,TN,38329
Hohenwald Church Of Christ,110 S Park St,Hohenwald,TN,38462
Victory Church Of God,166 Sanford Cir,Greeneville,TN,37743
Allen Darryl O Pastor,2395 Garrett Hill Rd,Greeneville,TN,37743
Jefferson Assembly Of God,254 W Old Andrew Johnson Hwy,Jefferson City,TN,37760
Northview Church Of Christ,865 Nashville Hwy,Columbia,TN,38401
Pentecostal Church Of Christ,724 New Lewisburg Hwy,Columbia,TN,38401
Miracle Temple Of Deliverance,1215 E End St,Columbia,TN,38401
Christ Fellowship Of Columbia,1173 Industrial Park Rd,Columbia,TN,38401
Graymere Church Of Christ,1320 Trotwood Ave,Columbia,TN,38401
Bethel Church Of God,1186 Old Highway 99,Columbia,TN,38401
Highland Church Of Christ,497 E James Campbell Blvd,Columbia,TN,38401
Acts Christian Center,1518 Highland Ave,Columbia,TN,38401
Anderson Alvin,2426 Steve Dr,Columbia,TN,38401
Prospect Church Of God,2220 Harrison Pike,Cleveland,TN,37311
Kinser Church Of God,141 Kinser Rd SE,Cleveland,TN,37323
Westmore Church Of God,2412 Wolfe Dr NW,Cleveland,TN,37311
Cleveland Church Of Christ,1025 Beech Cir NW,Cleveland,TN,37312
Amazing Grace Baptist Church,4778 Spring Place Rd SE,Cleveland,TN,37323
American Bible Society,650 25th St NW,Cleveland,TN,37311
Angel Food Ministries,155 S Ocoee St,Cleveland,TN,37311
Holladay Church Of Christ,1765 Mine Lick Creek Rd,Cookeville,TN,38501
Woodbury Church Of God,735 Doolittle Rd,Woodbury,TN,37190
Woodbury Church Of Christ,100 E Water St,Woodbury,TN,37190
Grace Assembly Of God,2999 John Bragg Hwy,Woodbury,TN,37190
Iconium Church Of Christ,2098 Iconium Rd,Woodbury,TN,37190
Whitefield Assembly Of God,5796 Conner Whitefield Rd,Ripley,TN,38063
Abundant Life Assembly Of God,107 April Cv,Ripley,TN,38063
Puryear Church Of Christ,90 W Chestnut St,Puryear,TN,38251
Pentecostal House Of Prayer,235 Friendship Rd,Brownsville,TN,38012
Christ Church Of Brownsville,2120 Anderson Ave,Brownsville,TN,38012
Allen Baptist Church,5533 Us Highway 79 N,Brownsville,TN,38012
Nunnelly Church Of Christ,1160 Highway 230 W,Nunnelly,TN,37137
Pinewood Church Of Christ,6104 Pinewood Rd,Nunnelly,TN,37137
Needmore Church Of Christ,4330 Lylewood Rd,Indian Mound,TN,37079
Abundant Life Assembly Of God In Winchester,3310 Cowan Hwy,Winchester,TN,37398
Agape Ministries,35 S Porter St,Winchester,TN,37398
Monteagle Church Of Christ,416 W Main St,Monteagle,TN,37356
Lansden Church Of Christ,4250 Fanchers Mill Rd,Sparta,TN,38583
Findlay Church Of Christ,505 N Spring St,Sparta,TN,38583
Plainview Church Of Christ,3106 Monterey Hwy,Sparta,TN,38583
Almyra United Methodist Church,2222 Burgess Falls Rd,Sparta,TN,38583
Apostolic Life,199 Alverson Rd,Sparta,TN,38583
Lantana Church Of Christ,7004 Lantana Rd,Crossville,TN,38572
St Francis Of Assissi,7503 Peavine Rd,Crossville,TN,38558
Linary Church Of Christ,1244 Old Highway 28,Crossville,TN,38555
Lbl Church Of Christ,2215 Donelson Pky,Dover,TN,37058
Dover Church Of Christ,511 Natcor Dr,Dover,TN,37058
1St Baptist Church Family Life Center,208 Church St,Dover,TN,37058
Keltonburg Church Of Christ,5526 Keltonburg Rd,Smithville,TN,37166
Alexandria Church Of Christ,109 W Main St,Alexandria,TN,37012
Allen's Chapel Methodist Chr,1037 Coconut Ridge Rd,Smithville,TN,37166
Hustburg Assembly Of God,9372 Old Tn-1,New Johnsonville,TN,37134
Hustburg Church Of Christ,8487 Old Tn-1,New Johnsonville,TN,37134
Hilham Church Of God,144 Standing Stone Hwy,Hilham,TN,38568
Aarons Chapel Church,129 Geesling Ln,Hilham,TN,38568
Fincastle Church Of God,221 Old Middlesboro Hwy,La Follette,TN,37766
Stanfield Church Of God,153 Stinking Creek Rd,La Follette,TN,37766
Lafollette Church Of Christ,201 S Cumberland Ave,La Follette,TN,37766
Alder Springs Baptist Church,529 Alder Springs Rd,La Follette,TN,37766
Bolivar Church Of Christ,1018 W Market St,Bolivar,TN,38008
Bolivar Church Of God,15650 Highway 64,Bolivar,TN,38008
Paris Community Of Christ,1404 Lone Oak Rd,Paris,TN,38242
Eastwood Church Of Christ,800 E Wood St,Paris,TN,38242
Tazewell Church Of Christ,1605 Tazewell Rd,Tazewell,TN,37879
Hebron Church Of Christ,862 Dry Creek Rd,McMinnville,TN,37110
Earleyville Church Of Christ,2188 Short Mountain Rd,McMinnville,TN,37110
Oakland Church Of Christ,1472 Shelbyville Rd,McMinnville,TN,37110
Smyrna Church Of Christ,552 Myers Cove Rd,McMinnville,TN,37110
Bethany Church Of Christ,5066 Nashville Hwy,McMinnville,TN,37110
Roane Church Of Christ,1204 S Kentucky St,Kingston,TN,37763
Hillsboro Church Of Christ,269 Winchester Hwy,Hillsboro,TN,37342
Unity Church Of Cumberlands,823 E 10th St,Cookeville,TN,38501
Sycamore Church Of Christ,1144 Crescent Dr,Cookeville,TN,38501
A Tax Solution,440 N Washington Ave,Cookeville,TN,38501
Algood Church Of Christ,395 W Main St,Cookeville,TN,38506
Algood Church Of God,106 Thompson Ln,Cookeville,TN,38506
Algood United Methodist Church,135 W Main St,Cookeville,TN,38506
Wartburg Church Of Christ,210 Old Mill Rd,Wartburg,TN,37887
Armes Chapel Baptist Church,114 French Hamby Rd,Wartburg,TN,37887
Baxter Church Of Christ,224 Buffalo Valley Rd,Baxter,TN,38544
Bethlehem Church Of Christ,7845 Water Plant Rd,Baxter,TN,38544
Fredonia Church Of God,4025 Fredonia Rd,Dunlap,TN,37327
Daus Church Of Christ,2601 W Valley Rd,Dunlap,TN,37327
Lighthouse Church Of God,1529 Douglas Loop,Stanton,TN,38069
Spencer Church Of God,546 Joe Brock St,Spencer,TN,38585
Spencer Church Of Christ,409 Church St,Spencer,TN,38585
Berea Church Of Christ,2150 Capooth Rd,Ramer,TN,38367
Savannah Church Of Christ,1175 Pickwick St,Savannah,TN,38372
Church Of Christ Of Hartsville,108 Halltown Rd,Hartsville,TN,37074
Fosterville Church Of Christ,11649 Bell Buckle Rd,Bell Buckle,TN,37020
Liberty Church Of Cosby,4304 Liberty Rd,Cosby,TN,37722
Cosby Church Of God,100 Deer Foot Rd,Cosby,TN,37722
Allen's Missionary Baptist Chr,2495 Dark Hollow Rd,Cosby,TN,37722
People's Church Of Tullahoma,1115 Bel Aire Dr,Tullahoma,TN,37388
Appalachian Church Of Christ,144 Calvary Ln,Mountain City,TN,37683
Ackerson Creek Church-christ,539 Dooleys Ridge Rd,Mountain City,TN,37683
Noah Church Of Christ,201 Noah Rd,Manchester,TN,37355
Wrigley Church Of God-prophecy,7703 Grover Vaughn Rd,Lyles,TN,0
Stewart Church Of Christ,5370 State Route 147,Stewart,TN,37175
Moss Church Of Christ,7798 Clay County Hwy,Moss,TN,38575
Delina Church Of Christ,4733 Delina Rd,Cornersville,TN,37047
Monterey Church Of God,625 S Poplar St,Monterey,TN,38574
2Nd Freewill Baptist Church,855 E Commercial Ave,Monterey,TN,38574
Faithway Church Of God,700 N Front St,Rockwood,TN,37854
Twomey Church Of Christ,65 Linden Rd,Centerville,TN,37033
Alpha Baptist Association,1476 Highway 100 W,Centerville,TN,37033
Beacon Church Of Christ,1050 Beacon Rd,Parsons,TN,38363
Amazing Grace Ministries,49 Wheat St,Parsons,TN,38363
Pickwick Church Of Christ,197 PO Box,Shiloh,TN,0
Huntingdon Church Of Christ,18900 W Main St,Huntingdon,TN,38344
Bagdad Church Of Christ,1015 Salt Lick Creek Rd,Pleasant Shade,TN,37145
Athens Church Of Christ,1016 North Ave,Athens,TN,37303
Aoh Church Of God,501 Ohio St,Athens,TN,37303
Abundant Blessings Assembly,2613 Cardinal St,Athens,TN,37303
Allen Memorial Untd Mthdst Chr,800 Decatur Pike,Athens,TN,37303
7Th Day Adventist Church,336 Patton Ln,Harriman,TN,37748
Charleston Church Of God,181 Cass Ln NW,Charleston,TN,37310
Edgemont Church Of God,202 Clevenger Cut Off Rd,Newport,TN,37821
Newport Church Of Christ,245 Woodlawn Ave,Newport,TN,37821
1St Christian Church Of Newport,382 E Broadway,Newport,TN,37821
Elmore Church Of Nazarene,5984 Dog Creek Rd,Primm Springs,TN,38476
Agnew Church,404 Old Agnew Rd,Pulaski,TN,38478
Anthony Hill Missionary Church,495 Holt Rd,Pulaski,TN,38478
Palmer Church Of God,1848 Main St,Palmer,TN,37365
Linden Church Of God,4417 Highway 412 W,Linden,TN,37096
Morristown Church Of God,2471 Old Liberty Hill Rd,Morristown,TN,37814
Alpha Baptist Church Christian,245 St Johns Rd,Morristown,TN,37814
Adamsville Church Of Christ,243 E Main St,Adamsville,TN,38310
Apostolic Faith Church-jesus,301 St George Ave,Dyersburg,TN,38024
Church Of Christ Of Bells,5212 College St,Bells,TN,38006
Montrose Church Of Christ,53 Lakeside Dr,Carthage,TN,37030
Abundant Harvest Worship Center,178 Lebanon Hwy,Carthage,TN,37030
Willette Church Of Christ,1586 Willette Rd,Red Boiling Springs,TN,37150
Farmington Church Of Christ,2192 Highway 40,Lewisburg,TN,37091
Allen Bethel Ame Church,320 Haynes St,Lewisburg,TN,37091
Ethridge Church Of Christ,3805 Highway 43 N,Ethridge,TN,38456
411 Chapel Baptist Church,314 Hill St,Madisonville,TN,37354
A New Beginning,938 Sol Colston Rd,Finger,TN,38334
Abundant Life Fellowship Chr,835 Tank Two Rd,Ridgely,TN,38080
Abundant Life Upc,21316 Alberta St,Oneida,TN,37841
Ac Of JC,526 Us Highway 45 N,Bradford,TN,38316
Acton Church Of Christ,9389 Highway 22 S,Michie,TN,38357
Adams Curtis Rev,4101 Highway 76,Cottontown,TN,37048
Adams Hollis W Rev,4710 Bruceville Slab Rd,Friendship,TN,38034
Afton Stone Dam Parsonage,445 Stone Dam Rd,Chuckey,TN,37641
Afton United Methodist Church,165 Patterson St,Afton,TN,37616
Alamo Church Of Christ,729 W Church St,Alamo,TN,38001
Archers Chapel Methodist Church,9482 Johnsons Grove Rd,Alamo,TN,38001
Alexandria Church Of God,209 Edgewood St,Alexandria,TN,37012
Alexandria United Methodist,204 S Church St,Alexandria,TN,37012
Alexandria United Methodist Church,186 Front St,Mason,TN,38049
All Access,114 N Church St,Waverly,TN,37185
All Saints Chapel,735 University Ave,Sewanee,TN,37375
Allen Chapel Road Baptist Chr,1920 Allen Chapel Rd,Parrottsville,TN,37843
Allensville Baptist Church,114 2nd Ave,Mt Pleasant,TN,38474
