Name,Address,City,State,Zip
Calvary Seventh-Day Adventist,PO Box 5109,Newport News,VA,23605
Calvary Baptist Church,12302 Alum Springs Rd,Culpeper,VA,22701
Deer Park Baptist Church,826 J Clyde Morris Blvd,Newport News,VA,23601
Denbigh Baptist Church,13010 Mitchell Point Rd,Newport News,VA,23602
Emmanuel Baptist Church,8006 Centreville Rd,Manassas,VA,20111
First Baptist Church,PO Box 192,Nickelsville,VA,24271
First Baptist Church-Denbigh,3628 Campbell Rd,Newport News,VA,23602
First Baptist Church-East End,649 30th St,Newport News,VA,23607
First Church Ministries,6148 Jefferson Ave,Newport News,VA,23605
First Church of Newport News,2300 Wickham Ave,Newport News,VA,23607
First United Baptist Church,6400 Roanoke Ave,Newport News,VA,23605
Hilton Baptist Church,101 Main St,Newport News,VA,23601
Immanuel Baptist Church,620 Lafayette Ave,Colonial Heights,VA,23834
Ivy Baptist Church Child Care,50 Maple Ave,Newport News,VA,23607
Ivy Farms Baptist Church,55 Ivy Farms Rd,Newport News,VA,23601
Macedonia Baptist Church,3412 22nd St S,Arlington,VA,22204
Menchville Baptist Church,248 Menchville Rd,Newport News,VA,23602
Miracle Temple Baptist Church,617 32nd St,Newport News,VA,23607
New Beech Grove Baptist Church,326 Tabbs Ln,Newport News,VA,23602
New Grafton Baptist Church,4401 Chestnut Ave,Newport News,VA,23607
New Hope Baptist Church,1317 Gust Ln,Chesapeake,VA,23323
Newmarket Baptist Church,8309 Orcutt Ave,Newport News,VA,23605
North Riverside Baptist Church,311 Selden Rd,Newport News,VA,23606
Orcutt Baptist School,653 Baxter Ln,Newport News,VA,23602
Parkview Baptist Church,604 Hilton Blvd,Newport News,VA,23605
Peninsula Korean Baptist Chr,972 Harpersville Rd,Newport News,VA,23601
Providence Baptist Church,3501 Providence Rd,Hayes,VA,23072
Riverside Baptist Church,7409 River Rd,Newport News,VA,23607
Second Baptist Church East End,3307 Chestnut Ave,Newport News,VA,23607
Shalom Baptist Church,6395 Mechanicsville Tpke,Mechanicsville,VA,23111
Stevens Memorial Baptist Chr,224 Richneck Rd,Newport News,VA,23608
Tabernacle Baptist Church,PO Box 124,King George,VA,22485
Temple Baptist Church,1545 Dranesville Rd,Herndon,VA,20170
Trinity Baptist Church,8803 James Madison Hwy,Warrenton,VA,20187
Union Baptist Church,9254 Guinea Rd,Hayes,VA,23072
Our Lady of Mount Carmel Ch,100 Harpersville Rd,Newport News,VA,23601
St Jerome's Catholic Church,116 Denbigh Blvd,Newport News,VA,23608
St Vincent De Paul Catholic,PO Box 258,Newport News,VA,23607
Denbigh Christian Church,816 Moyer Rd,Newport News,VA,23608
Hilton Christian Church,100 James River Dr,Newport News,VA,23601
Lebanon Church of Christ,PO Box 3155,Newport News,VA,23603
Olivet Christian Church,14425 Old Courthouse Way,Newport News,VA,23608
Church of Christ Denbigh Blvd,205 Denbigh Blvd,Newport News,VA,23608
Living Waters Christian Flwshp,PO Box 2879,Newport News,VA,23609
St Andrew's Episcopal Church,6509 Sydenstricker Rd,Burke,VA,22015
St Augustine Episcopal Chr,PO Box 634,Newport News,VA,23607
St Georges Episcopal Church,15446 Warwick Blvd,Newport News,VA,23608
St Stephens Episcopal Church,228 Halifax St,Petersburg,VA,23803
Rodef Sholom Temple,PO Box 5726,Newport News,VA,23605
Reformation Lutheran Church,13100 Warwick Blvd,Newport News,VA,23602
Resurrection Lutheran Church,6170 Plank Rd,Fredericksburg,VA,22407
Trinity Lutheran Church,2315 N Parham Rd,Richmond,VA,23229
Warwick River Mennonite Church,250 Lucas Creek Rd,Newport News,VA,23602
Asbury United Methodist Church,7151 Belmont Rd,Chesterfield,VA,23832
Chestnut Memorial United Meth,1024 Harpersville Rd,Newport News,VA,23601
Christ United Methodist Church,8285 Glen Eagles Ln,Fairfax Station,VA,22039
First United Methodist Church,PO Box 636,Hopewell,VA,23860
Grace United Methodist Church,9750 Wellington Rd,Manassas,VA,20110
Greater Walters Ame Zion Ch,656 28th St,Newport News,VA,23607
Morrison United Methodist Chr,236 Harpersville Rd,Newport News,VA,23601
Noland Memorial United Meth,5501 Huntington Ave,Newport News,VA,23607
St Paul Ame Church,PO Box 7475,Portsmouth,VA,23707
Trinity United Methodist Chr,PO Box 147,Disputanta,VA,23842
Warwick Memorial United Meth,38 Hoopes Rd,Newport News,VA,23602
Abundant Life Family Church,10402 Armstrong St,Fairfax,VA,22030
Calvary Chapel,PO Box 1098,Charlottesville,VA,22902
Church of Christ,6398 Lee Highway Access Rd,Warrenton,VA,20187
Unity of Faith Church,"15324 Warwick Blvd, #d",Newport News,VA,23608
World Victory Church ,5900 Jefferson Ave,Newport News,VA,23605
Greek Orthodox Church,PO Box 94,Charlottesville,VA,22902
Church of God of Parkview,1116 Briarfield Rd,Newport News,VA,23605
Glorious Church of Jesus,PO Box 925,Newport News,VA,23607
Peninsula Pentecoastals,404 Sharon Dr,Newport News,VA,23602
Triumph Pentecostal Church,902 Kinsale Cres,Newport News,VA,23602
World Outreach Worship Ctr,1233 Shields Rd,Newport News,VA,23608
Carver Memorial Presbyterian,830 25th St,Newport News,VA,23607
Denbigh Presbyterian Church,302 Denbigh Blvd,Newport News,VA,23608
Hidenwood Presbyterian Church,414 Hiden Blvd,Newport News,VA,23606
Hilton Presbyterian Church,34 Main St,Newport News,VA,23601
Wesley Grove United Church,2308 Roanoke Ave,Newport News,VA,23607
St. James Terrace,80 30th St,Newport News,VA,23607
House Of Refuge Worship Center,624 79th St,Newport News,VA,23605
Tabernacle Of Praise Worship Center,13813 Warwick Blvd,Newport News,VA,23602
First Church Of God,257 Highway 107,Chilhowie,VA,24319
God's Church Of Jesus,1619 25th St,Newport News,VA,23607
Abiding Truth Ministries,14277 PO Box,Newport News,VA,0
Abiding Vine Life Family Mnstr,1148 N Green Dr,Newport News,VA,23602
Abundant Life International Church,5889 Jefferson Ave,Newport News,VA,23605
Abundant Overcomers Ministries,616 North Ave,Newport News,VA,23601
Abyssinia Baptist Church,2816 Colley Ave,Norfolk,VA,23508
Adath Jeshurun Synagogue,12646 Nettles Dr,Newport News,VA,23606
Agape Bible Fellowship,13771 Warwick Blvd,Newport News,VA,23602
Agape Hands Cathedral,1307 Jefferson Ave,Newport News,VA,23607
All Nations Church,2179 Cunningham Dr,Hampton,VA,23666
Allen James C Rev,108 Towne Square Dr,Newport News,VA,23607
Alpha ,1110 39th St,Newport News,VA,23607
Campostella Sda Church,PO Box 4655,Norfolk,VA,23523
Norfolk Seventh-Day Adventists,1099 Kempsville Rd,Norfolk,VA,23502
Antioch Baptist Church,6531 Little Ox Rd,Fairfax Station,VA,22039
Azalea Baptist Church,3314 E Little Creek Rd,Norfolk,VA,23518
Bank Street Memorial Baptist,7036 Chesapeake Blvd,Norfolk,VA,23513
Bethlehem Baptist Church,PO Box 2467,Stafford,VA,22555
Brentwood Baptist Church,8026 Old Ocean View Rd,Norfolk,VA,23518
Burrows Memorial Baptist Chr,1539 Johnstons Rd,Norfolk,VA,23518
Central Baptist Church,6405 Courthouse Rd,Church Road,VA,23833
Christ First Community Fllwshp,133 Woodview Ave,Norfolk,VA,23505
Cornerstone Baptist Church,6100 Cornerstone Blvd,Richmond,VA,23234
East Ocean View Baptist Church,9609 9th Bay St,Norfolk,VA,23518
First Baptist Church-Norfolk,312 Kempsville Rd,Norfolk,VA,23502
First Calvary Baptist Church,813 Henry St,Norfolk,VA,23504
Friendship Baptist Church,5200 Newbys Bridge Rd,Chesterfield,VA,23832
Ingleside Baptist Church,925 Ingleside Rd,Norfolk,VA,23502
Jerusalem Baptist Church,994 Three Chopt Rd,Manakin Sabot,VA,23103
Larchmont Baptist Church,1127 Surrey Cres,Norfolk,VA,23508
Mount Gilead Baptist Church,4829 Shannon Hill Rd,Columbia,VA,23038
Mount Olive Baptist Church,310 N Birdneck Rd,Virginia Beach,VA,23451
Mount Pleasant Baptist Church,2516 Squirrel Hill Rd,Herndon,VA,20171
Mount Zion Baptist Church,18410 Chapel Dr,Triangle,VA,22172
Mt Carmel Baptist Church,3310 Deep Creek Blvd,Portsmouth,VA,23702
Mt Lebenon Babtist Church,1141 Campostella Rd,Norfolk,VA,23523
New Calvary Baptist Church,800 E Virginia Beach Blvd,Norfolk,VA,23504
New Rising Sun Baptist Church,201 Patrick St,Norfolk,VA,23523
Norview Baptist Church,1127 Norview Ave,Norfolk,VA,23513
Ocean View Christian Academy,9504 Selby Pl,Norfolk,VA,23503
Park Place Baptist Church,430 W 31st St,Norfolk,VA,23508
Queen Street Baptist Church,413 E Brambleton Ave,Norfolk,VA,23510
Second Calvary Baptist Church,2940 Corprew Ave,Norfolk,VA,23504
Shiloh Baptist Church,13457 Kings Hwy,King George,VA,22485
Spurgeon Memorial Baptist Chr,5520 Tidewater Dr,Norfolk,VA,23509
Talbot Park Baptist Preschool,6919 Granby St,Norfolk,VA,23505
Virginia Heights Baptist Chr,2014 Memorial Ave SW,Roanoke,VA,24015
Blessed Sacrament Church,170 Painter St,Norfolk,VA,23505
Catholic Campus Ministry,1306 W 49th St,Norfolk,VA,23508
Holy Trinity Catholic Church,155 W Government Ave,Norfolk,VA,23503
Sacred Heart Church,520 Graydon Ave,Norfolk,VA,23507
St Mary of Immac Conception,1000 Holt St,Norfolk,VA,23504
St Pius X Church,7800 Halprin Dr,Norfolk,VA,23518
Colonial Heights Church-Christ,831 Mayfield Ave,Norfolk,VA,23518
Smyrna Christian Church,741 Marshall Ave,Norfolk,VA,23504
Norfolk Church of Christ,5801 Granby St,Norfolk,VA,23505
Christ ,1545 S Sycamore St,Petersburg,VA,23805
Church of the Ascension,4853 Princess Anne Rd,Virginia Beach,VA,23462
Church of the Epiphany,3301 Hidden Meadow Dr,Herndon,VA,20171
Church of the Good Shepherd,9350 Braddock Rd,Burke,VA,22015
Grace Episcopal Church,PO Box 32,The Plains,VA,20198
St Paul's Episcopal Church,PO Box 195,Haymarket,VA,20168
St Peters Episcopal Church,224 S Military Hwy,Norfolk,VA,23502
St Stephen's Episcopal Church,1695 Perrowville Rd,Forest,VA,24551
Faith Wesleyan Church,745 Pecan Point Rd,Norfolk,VA,23502
First Church of God,5008 Hildebrand Rd NW,Roanoke,VA,24012
Salvation Army,PO Box 4206,Arlington,VA,22204
Beth El Temple,422 Shirley Ave,Norfolk,VA,23517
B'Nai Israel Congregation,420 Spotswood Ave,Norfolk,VA,23517
Ohef Sholom Temple,530 Raleigh Ave,Norfolk,VA,23507
Temple Israel,7255 Granby St,Norfolk,VA,23505
First Lutheran Church,1301 Colley Ave,Norfolk,VA,23517
Saint Timothy Lutheran Church,1051 Kempsville Rd,Norfolk,VA,23502
Trinity Evangelical Lutheran,6001 Granby St,Norfolk,VA,23505
Memorial Spiritualist Church,307 W 37th St,Norfolk,VA,23508
Aldersgate United Methodist,4320 Bruce Rd,Chesapeake,VA,23321
Colonial Avenue United Meth,1420 Colonial Ave,Norfolk,VA,23517
Epworth United Methodist Chr,124 W Freemason St,Norfolk,VA,23510
Ferebee-Halstead Memorial Chr,1520 Halstead Ave,Norfolk,VA,23502
Ghent United Methodist Church,531 Raleigh Ave,Norfolk,VA,23507
Mc Kendree United Methodist,6870 N Military Hwy,Norfolk,VA,23518
Miles Memorial United Church,9450 Granby St,Norfolk,VA,23503
Norview United Methodist Chr,1112 Norview Ave,Norfolk,VA,23513
Park Place United Methodist,500 W 34th St,Norfolk,VA,23508
St John African Methodist Chr,545 E Bute St,Norfolk,VA,23510
St John's United Methodist Chr,11720 Sugarland Rd,Herndon,VA,20170
St Paul Christian Methodist,310 E Virginia Beach Blvd,Norfolk,VA,23510
Tidewater Wesley Foundation,1338 W 49th St,Norfolk,VA,23508
Wesley Memorial United Church,288 E Little Creek Rd,Norfolk,VA,23505
Base Chapel,1160 D St,Norfolk,VA,23521
Beth Messiah Synagogue,7130 Granby St,Norfolk,VA,23505
Calvary Temple,5639 Brickell Rd,Norfolk,VA,23502
First Christian Fellowship Chr,4700 Little John Dr,Norfolk,VA,23513
New Life Worship Ctr,PO Box 93,Norfolk,VA,23501
Tabernacle Church of Norfolk,7000 Granby St,Norfolk,VA,23505
Greek Orthodox Cathedral,7220 Granby St,Norfolk,VA,23505
Faith Deliverance Christian,1010 E 26th St,Norfolk,VA,23504
First Pentecostal United Chr,1434 Wilson Rd,Norfolk,VA,23523
Garden of Prayer No 3,200 W 28th St,Norfolk,VA,23504
Garden of Prayer Temple,PO Box 125,Norfolk,VA,23501
Glad Tidings Church,301 S Newtown Rd,Norfolk,VA,23502
Mason Memorial Church of God,PO Box 1223,Norfolk,VA,23501
New Hope Church of God-Christ,3232 Brest Ave,Norfolk,VA,23509
Norfolk Apostolic Church,3131 Azalea Garden Rd,Norfolk,VA,23513
St Andrews Church of God,636 W 35th St,Norfolk,VA,23508
Way of the Cross Church of God,2800 Chesapeake Blvd,Norfolk,VA,23509
Way of Truth Cogic,2322 Maltby Ave,Norfolk,VA,23504
Calvary Presbyterian Church,150 Kempsville Rd,Norfolk,VA,23502
Calvin Presbyterian Church,2901 E Little Creek Rd,Norfolk,VA,23518
Coleman Place Presbyterian Chr,1513 Sewells Point Rd,Norfolk,VA,23502
First Presbyterian Church,PO Box 581,Zanoni,VA,23061
Lafayette Presbyterian Church,1821 Lafayette Blvd,Norfolk,VA,23509
New Hope United Church-Christ,145 E Liberty St,Norfolk,VA,23523
Ocean View Presbyterian Church,9200 Tidewater Dr,Norfolk,VA,23503
Second Presbyterian Church,419 W Washington St,Petersburg,VA,23803
St Mark United Church-Christ,521 Obendorfer Rd,Norfolk,VA,23523
Lion Of Judah Worship Center,1518 Johnstons Rd,Norfolk,VA,23518
Downtown Church Of Christ,3105 Granby St,Norfolk,VA,23504
Unitarian Church Of Norfolk,739 Yarmouth St,Norfolk,VA,23510
Lighthouse Assembly Of God,5012 Gum Spring Rd,Manassas,VA,20109
Glory Church Of Jesus,1044 Johnstons Rd,Norfolk,VA,23513
Phillippi Church Of Christ,211 Hardy Ave,Norfolk,VA,23523
Calvary Church Of Nazarene,967 Newell Ave,Norfolk,VA,23518
First Church Of Christ,862 E Princess Anne Rd,Norfolk,VA,23504
United House Of Prayer,1433 Whittamore Rd,Chesapeake,VA,23322
Abundant Life Christian Center,635 W 35th St,Norfolk,VA,23508
Abundant Life Christian Church,228 W Berkley Ave,Norfolk,VA,23523
Advent Episcopal Church,9629 Norfolk Ave,Norfolk,VA,23503
Agape Outreach International Ministries,703 Easy St,Norfolk,VA,23505
All Pwr Ministries,3134 Azalea Garden Rd,Norfolk,VA,23513
Angelic Church Of God ,202 W 34th St,Norfolk,VA,23504
Community Advent Christian Chr,4512 Old Mountain Rd NE,Roanoke,VA,24019
Seventh-Day Adventist Church,7410 Pole Green Rd,Mechanicsville,VA,23116
Airlee Court Baptist Church,4827 Delray St NW,Roanoke,VA,24012
Belmont Baptist Church,830 Monticello Ave,Charlottesville,VA,22902
Bonsack Baptist Church,4845 Cloverdale Rd,Roanoke,VA,24019
Cave Spring Baptist Church,4873 Brambleton Ave,Roanoke,VA,24018
Colonial Avenue Baptist Church,4165 Colonial Ave,Roanoke,VA,24018
Crystal Spring Baptist Church,PO Box 8116,Roanoke,VA,24014
East End Baptist Church,PO Box 1834,Suffolk,VA,23439
Enon Baptist Church,13607 N Enon Church Rd,Chester,VA,23836
Fellowship Baptist Church,10014 James Monroe Hwy,Culpeper,VA,22701
Garden City Baptist Church,3536 Garden City Blvd SE,Roanoke,VA,24014
Greater Mount Zion Baptist Chr,1810 Grayson Ave NW,Roanoke,VA,24017
Green Ridge Baptist Church,5521 Green Ridge Rd,Roanoke,VA,24019
Haran Baptist Church,7539 Old Bent Mountain Rd,Roanoke,VA,24018
High Street Baptist Church,2302 Florida Ave NW,Roanoke,VA,24017
Hill Street Baptist Church,111 Madison Ave NW,Roanoke,VA,24016
Hollins Road Baptist Church,3502 Old Mountain Rd NE,Roanoke,VA,24019
Maple Street Baptist Church,902 Fairfax Ave NW,Roanoke,VA,24016
Melrose Baptist Church,3520 Peters Creek Rd,Roanoke,VA,24019
Morning Star Baptist Church,3509 Midlothian Tpke,Richmond,VA,23224
Mt Pleasant Baptist Church,4002 Ironbound Rd,Williamsburg,VA,23188
New Century Community Church,PO Box 6187,Roanoke,VA,24017
North Roanoke Baptist Church,6402 Peters Creek Rd,Roanoke,VA,24019
Oakland Baptist Church,5520 James Madison Pky,King George,VA,22485
Pilgrim Baptist Church,1415 8th St NW,Roanoke,VA,24016
Preston Oaks Baptist Church,102 Preston Ave NE,Roanoke,VA,24012
Red Hill Baptist Church,6251 Franklin Rd,Roanoke,VA,24014
Ridgewood Baptist Church,703 Hemlock Rd NW,Roanoke,VA,24017
Riverdale Baptist Church,35 Tide Mill Ln,Hampton,VA,23666
Rosalind Hills Baptist Church,2712 Brandon Ave SW,Roanoke,VA,24015
Shenandoah Baptist Church,PO Box 7010,Roanoke,VA,24019
Sweet Union Baptist Church,521 Madison Ave NW,Roanoke,VA,24016
Villa Heights Baptist Church,4080 Challenger Ave,Roanoke,VA,24012
Waverly Place Baptist Church,1407 Kenwood Blvd SE,Roanoke,VA,24013
Church of the Brethren,PO Box 56,Nokesville,VA,20182
Ghent Grace Brethren Church,1511 Maiden Ln SW,Roanoke,VA,24015
Ninth St Church-the Brethren,1103 9th St SE,Roanoke,VA,24013
Oak Grove Church-the Brethren,2138 McVitty Rd SW,Roanoke,VA,24018
Peters Creek Church-Brethren,5333 Cove Rd,Roanoke,VA,24019
Poages Mill Church-Brethren,6550 Bent Mountain Rd,Roanoke,VA,24018
Red Hill Church-the Brethren,6050 Franklin Rd,Roanoke,VA,24014
Williamson Rd Church-Brethren,PO Box 5463,Roanoke,VA,24012
Our Lady of Nazareth Church,2505 Electric Rd,Roanoke,VA,24018
St Andrews Catholic Church,631 N Jefferson St,Roanoke,VA,24016
St Elias Catholic Church,4730 Cove Rd NW,Roanoke,VA,24017
Belmont Christian Church,1101 Jamison Ave SE,Roanoke,VA,24013
First Christian Church,6165 Leesburg Pike,Falls Church,VA,22044
Loudon Avenue Christian Chr,730 Loudon Ave NW,Roanoke,VA,24016
New Hope Christian Church,4229 Welcome Valley Rd SE,Roanoke,VA,24014
Northside Christian Church,3105 Embassy Dr,Roanoke,VA,24019
Penn Forest Christian Preschl,3028 Penn Forest Blvd,Roanoke,VA,24018
Westhampton Christian Church,2515 Grandin Rd SW,Roanoke,VA,24015
Christ Episcopal Church,PO Box 94,Spotsylvania,VA,22553
Church of the Holy Spirit,6011 Merriman Rd,Roanoke,VA,24018
St James Episcopal Church,PO Box 109,Mt Vernon,VA,22121
St John's Episcopal Church,PO Box 457,McLean,VA,22101
East Gate Church of Nazarene,2002 Eastgate Ave NE,Roanoke,VA,24012
Emmanuel Wesleyan Church,402 Hershberger Rd NW,Roanoke,VA,24012
Faith Alliance Church,7505 Barrens Rd,Roanoke,VA,24019
First Church of the Nazarene,4413 Wishart Rd,Virginia Beach,VA,23455
First Wesleyan Church,3706 Peters Creek Rd,Roanoke,VA,24019
Parkway Wesleyan Church,3230 King St NE,Roanoke,VA,24012
Christ Lutheran Church,1300 Augustine Ave,Fredericksburg,VA,22401
St John Lutheran Church,PO Box 657,Abingdon,VA,24212
St Marks Lutheran Church,5800 Backlick Rd,Springfield,VA,22150
St Paul Lutheran Church,807 W Mercury Blvd,Hampton,VA,23666
St Philip Lutheran Church,8115 Williamson Rd,Roanoke,VA,24019
Bonsack United Methodist Chr,4493 Bonsack Rd,Roanoke,VA,24012
Cave Spring United Methodist,4505 Hazel Dr,Roanoke,VA,24018
Fairview United Methodist Chr,1013 Westover Dr,Danville,VA,24541
Greene Memorial United Meth,PO Box 1305,Roanoke,VA,24007
Highland Park United Methodist,3001 2nd Ave,Richmond,VA,23222
Huntington Court United Meth,PO Box 5066,Roanoke,VA,24012
Northview United Methodist Chr,PO Box 7131,Roanoke,VA,24019
Raleigh Court United Methodist,1706 Grandin Rd SW,Roanoke,VA,24015
South Roanoke United Methodist,2330 Jefferson St SE,Roanoke,VA,24014
Southview United Methodist Chr,1601 Cliff St,Lynchburg,VA,24501
St Paul United Methodist Chr,1400 G St,Woodbridge,VA,22191
United Methodist Church,"4502 Starkey Rd, #101",Roanoke,VA,24018
Windsor Hills United Meth Chr,3591 Windsor Rd SW,Roanoke,VA,24018
Woodlawn United Methodist Chr,7730 Fordson Rd,Alexandria,VA,22306
Calvary Memorial Church,2226 Colonial Ave SW,Roanoke,VA,24015
Cornerstone Church,6930 Wood Haven Rd,Roanoke,VA,24019
Edgewood Christian Church,1006 Peck St NW,Roanoke,VA,24017
Grace Church,2731 Edgewood St SW,Roanoke,VA,24015
Grace Covenant Church,"530 Huntmar Park Dr, #d",Herndon,VA,20170
Holy Trinity Greek Orthdx Chr,PO Box 5055,Roanoke,VA,24012
Church of God,1212 E Main St,Bedford,VA,24523
Evangel Foursquare Church,612 Bullitt Ave SE,Roanoke,VA,24013
Garden of Prayer Church of God,PO Box 6304,Roanoke,VA,24017
New Life Temple Pentecostal,5745 Airport Rd NW,Roanoke,VA,24012
Penn Forest Church of God,4429 Buck Mountain Rd,Roanoke,VA,24018
St Matthew Church of God,1422 Abbott St NW,Roanoke,VA,24017
Covenant Presbyterian Prschl,1831 Deyerle Rd SW,Roanoke,VA,24018
Northminster Presbyterian Chr,3911 Greenland Ave NW,Roanoke,VA,24012
Raleigh Court Presbyterian Chr,1837 Grandin Rd SW,Roanoke,VA,24015
Westminister Presbyterian Chr,2216 Peters Creek Rd NW,Roanoke,VA,24017
Spirit Of Liberty Worship Center,1806 Loudon Ave NW,Roanoke,VA,24017
Oakview Church Of God,2915 King St NE,Roanoke,VA,24012
Hollins Church Of Nazarene,7039 Plantation Rd,Roanoke,VA,24019
Glorious Church Of God,1830 Hanover Ave NW,Roanoke,VA,24017
Church Of God Of Prophecy,3400 Turner Rd,Chesterfield,VA,23832
Cowboy Church Of Virginia,1410 Buena Vista Blvd SE,Roanoke,VA,24013
Truevine Church Of Christ,1132 Loudon Ave NW,Roanoke,VA,24017
220 Church LLC,215 Church Ave SW,Roanoke,VA,24011
Abundant Grace Assembly,1230 Rugby Blvd NW,Roanoke,VA,24017
Acts 2 Ministry,406 Luck Ave SW,Roanoke,VA,24016
Alston Lorraine Reverend,2002 Mercer Ave NW,Roanoke,VA,24017
Alwine Paul E,3326 Kershaw Rd NW,Roanoke,VA,24017
Andrews Milton,2757 Meadowview Dr NW,Roanoke,VA,24017
Andrews W A Rev,1501 Orange Ave NW,Roanoke,VA,24017
Community Praise Ctr Seventh,1400 Russell Rd,Alexandria,VA,22301
Alfred Street Baptist Church,301 S Alfred St,Alexandria,VA,22314
Antioch Korean Baptist Church,6355 Lincolnia Rd,Alexandria,VA,22312
Belle View Baptist Church,7415 Fort Hunt Rd,Alexandria,VA,22307
Braddock Baptist Church,6519 Braddock Rd,Alexandria,VA,22312
Calvary Road Baptist Church,6811 Beulah St,Alexandria,VA,22310
Del Ray Baptist Church,2405 Russell Rd,Alexandria,VA,22301
Downtown Baptist Church,212 S Washington St,Alexandria,VA,22314
Fair-Park Baptist Church,1801 N Quaker Ln,Alexandria,VA,22302
First Agape Baptist Community,2423 Mt Vernon Ave,Alexandria,VA,22301
Franconia Korean Baptist Chr,5912 Franconia Rd,Alexandria,VA,22310
Groveton Baptist Church,6511 Richmond Hwy,Alexandria,VA,22306
Harvest Assembly Baptist Chr,8008 Fordson Rd,Alexandria,VA,22306
New Hope Church,PO Box 10417,Alexandria,VA,22310
Plymouth Haven Baptist Church,8600 Plymouth Rd,Alexandria,VA,22308
Sunset Hills Baptist Church,3500 Franconia Rd,Alexandria,VA,22310
Virginia Hills Baptist Church,6507 Telegraph Rd,Alexandria,VA,22310
Woodlawn Baptist Church,3120 Woodlawn Ave,Colonial Heights,VA,23834
Blessed Sacrament Catholic Chr,1427 W Braddock Rd,Alexandria,VA,22302
Good Shepherd Catholic Church,PO Box 840,Smithfield,VA,23431
St Joseph's Church,711 N Columbus St,Alexandria,VA,22314
St Lawrence Catholic Church,6222 Franconia Rd,Alexandria,VA,22310
St Louis Catholic Church,2907 Popkins Ln,Alexandria,VA,22306
St Mary's Catholic Church,9505 Gayton Rd,Henrico,VA,23229
Mision Cristiana De Rstncn Y,5257 Clifton St,Alexandria,VA,22312
All Saints Sharon Chapel Chr,3421 Franconia Rd,Alexandria,VA,22310
Christ Church,118 N Washington St,Alexandria,VA,22314
Church of St Clement,1701 N Quaker Ln,Alexandria,VA,22302
Church of the Resurrection,3501 Cedar Ln,Portsmouth,VA,23703
Emmanuel Episcopal Church,PO Box 38,Greenwood,VA,22943
Immanuel Church-On-the-Hill,3606 Seminary Rd,Alexandria,VA,22304
Meade Memorial Episcopal Chr,322 N Alfred St,Alexandria,VA,22314
Olivet Episcopal Church,6107 Franconia Rd,Alexandria,VA,22310
St Aidan's Episcopal Church,3201 Edinburgh Dr,Virginia Beach,VA,23452
St Luke's Episcopal Church,8009 Fort Hunt Rd,Alexandria,VA,22308
Alexandria Bible Church,1302 W Braddock Rd,Alexandria,VA,22302
Agudas Achim Congregation,2908 Valley Dr,Alexandria,VA,22302
Beth El Hebrew Cngrgtn-Library,3830 Seminary Rd,Alexandria,VA,22304
Bethany Lutheran Church,2501 Beacon Hill Rd,Alexandria,VA,22306
Epiphany Lutheran Church,13495 Keytone Rd,Dale City,VA,22193
Good Shepherd Lutheran Church,1516 Moorings Dr,Reston,VA,20190
Immanuel Lutheran Church,1801 Russell Rd,Alexandria,VA,22301
Messiah Lutheran Church,6510 Fort Hunt Rd,Alexandria,VA,22307
Nativity Lutheran Church,1300 Collingwood Rd,Alexandria,VA,22308
Peace Lutheran Church,1510 Broad Crossing Rd,Charlottesville,VA,22911
St John's Lutheran Child Care,5952 Franconia Rd,Alexandria,VA,22310
Beverley Hills Community Untd,3512 Old Dominion Blvd,Alexandria,VA,22305
Cameron United Methodist,3130 Franconia Rd,Alexandria,VA,22310
Del Ray United Methodist Chr,100 E Windsor Ave,Alexandria,VA,22301
Fairlington United Methodist,3900 King St,Alexandria,VA,22302
Faith United Methodist Church,7321 Fairchild Dr,Alexandria,VA,22306
Franconia United Methodist Chr,6037 Franconia Rd,Alexandria,VA,22310
Lincolnia United Methodist Chr,6335 Little River Tpke,Alexandria,VA,22312
Mount Vernon United Methodist,2006 Belle View Blvd,Alexandria,VA,22307
Roberts Meml United Methodist,"606 S Washington St, #a",Alexandria,VA,22314
Roberts Memorial,500 N Naylor St,Alexandria,VA,22304
St Andrews United Methodist,717 Tucson Rd,Virginia Beach,VA,23462
St James United Methodist Chr,4820 Finlay St,Richmond,VA,23231
Washington Farm Methodist Chr,3921 Old Mill Rd,Alexandria,VA,22309
Washington Street United Meth,115 S Washington St,Alexandria,VA,22314
Wesley United Methodist Church,3701 Conduit Rd,Colonial Heights,VA,23834
Agape Embassy Ministries,5775 Barclay Dr,Alexandria,VA,22315
Evangelical Church Apostles,"8401 Richmond Hwy, #j",Alexandria,VA,22309
International Center-Christian,2701 Fairview Dr,Alexandria,VA,22306
Fillmore Avenue Church of God,5200 Fillmore Ave,Alexandria,VA,22311
First Assembly of God,700 W Braddock Rd,Alexandria,VA,22302
Full Gospel Church-Washington,6401 Lincolnia Rd,Alexandria,VA,22312
Bush Hill Presbyterian Church,4916 Franconia Rd,Alexandria,VA,22310
Faith Presbyterian Church,5725 Castlewellan Dr,Alexandria,VA,22315
Heritage Presbyterian Church,8503 Fort Hunt Rd,Alexandria,VA,22308
Mount Vernon Presbyterian Chr,2001 Sherwood Hall Ln,Alexandria,VA,22306
Old Presbyterian Meeting House,316 S Royal St,Alexandria,VA,22314
Virginia Presbyterian Church,6021 Franconia Rd,Alexandria,VA,22310
Westminster Presbyterian Chr,1022 Floyd St,Lynchburg,VA,24501
Eotc Archdioces Of District Of Columbia,4210 Corcoran St,Alexandria,VA,22309
Redeemed Church Of Christ,4 E Oak St,Alexandria,VA,22301
Abundant Life United Holy Chr,204 E del Ray Ave,Alexandria,VA,22301
Action Chapel Virginia,6295 Edsall Rd,Alexandria,VA,22312
Affirmations,234 Lynnhaven Dr,Alexandria,VA,22305
Alexandria Church Of Christ,111 E Braddock Rd,Alexandria,VA,22301
Alexandria Church- Nazarene,20 E Braddock Rd,Alexandria,VA,22301
Alexandria Church Of God,2912 King St,Alexandria,VA,22302
Alexandria Dawn,6703 W Wakefield Dr,Alexandria,VA,22307
Alexandria Free Methodist Chr,4901 Polk Ave,Alexandria,VA,22304
Alexandria Friends Meeting,Woodlawn Rd ,Alexandria,VA,0
Alexandria Miracle International,5632 Mount Vernon Memorial Hwy,Alexandria,VA,22309
Alleyne Ame Zion Church,1419 King St,Alexandria,VA,22314
Amamuel Ethiopian Evangelical,6831 Lamp Post Ln,Alexandria,VA,22306
American Christian Cause,210 N Patrick St,Alexandria,VA,22314
Ephesus Seventh Day Adventist,3700 Midlothian Tpke,Richmond,VA,23224
5th Street Baptist Church,2800 3rd Ave,Richmond,VA,23222
Bainbridge Street Bapt Church,1101 Bainbridge St,Richmond,VA,23224
Bellwood Baptist Church,9138 Quinnford Blvd,Richmond,VA,23237
Bethany Place Baptist Church,1501 S Providence Rd,Richmond,VA,23236
Bon Air Baptist Church,2531 Buford Rd,Richmond,VA,23235
Branch's Baptist Church,3400 Broad Rock Blvd,Richmond,VA,23234
Broadus Memorial Bapt Church,3700 Goodell Rd,Richmond,VA,23223
Cambridge Baptist Church,12025 Gayton Rd,Richmond,VA,23238
Carlisle Avenue Baptist Church,2010 Carlisle Ave,Richmond,VA,23231
Cedar Street Memorial Baptist,2301 Cedar St,Richmond,VA,23223
Chamberlayne Baptist Church,215 Wilkinson Rd,Richmond,VA,23227
Chicago Avenue Baptist Church,2331 Broad Rock Blvd,Richmond,VA,23224
Chinese Baptist Church,1800 Parkway Ln,Richmond,VA,23225
Christian Tabernacle Baptist,PO Box 34157,Richmond,VA,23234
Clover Hill Baptist Church,3100 Courthouse Rd,Richmond,VA,23236
Ebenezer Baptist Church,PO Box 26,Naruna,VA,24576
Elkhardt Baptist Church,6715 Hull St Rd,Richmond,VA,23224
Fairmount Memorial Bapt Church,4205 Ravenswood Rd,Richmond,VA,23222
Fifth Baptist Church,1415 W Cary St,Richmond,VA,23220
First African Baptist Church,2700 Hanes Ave,Richmond,VA,23222
First Baptist Chr-S Richmond,1501 Decatur St,Richmond,VA,23224
First Union Baptist Church,6144 Derwent Rd,Richmond,VA,23225
Fort Lee Baptist Church,2727 Charles City Rd,Richmond,VA,23231
Four Mile Creek Baptist Church,2950 New Market Rd,Richmond,VA,23231
Fourth Baptist Church,726 South St,Portsmouth,VA,23704
Garland Avenue Baptist Church,2700 Garland Ave,Richmond,VA,23222
Gayton Baptist Church,13501 N Gayton Rd,Richmond,VA,23233
Ginter Park Baptist Church,1200 Wilmington Ave,Richmond,VA,23227
Good Shepherd Baptist Church,515 Virginia Ave,Petersburg,VA,23803
Goodwill Baptist Church,8701 Hungary Spring Rd,Richmond,VA,23228
Grace Baptist Church,1013 Penniman Rd,Williamsburg,VA,23185
Grace Institutional Baptist,300 W Roanoke St,Richmond,VA,23225
Great Hope Baptist Church,PO Box 15106,Chesapeake,VA,23328
Greater Mt Moriah Baptist Chr,913 N 1st St,Richmond,VA,23219
Grove Avenue Baptist Church,8701 Ridge Rd,Richmond,VA,23229
Huguenot Road Baptist Church,10525 W Huguenot Rd,Richmond,VA,23235
Jahnke Road Baptist Church,6023 Jahnke Rd,Richmond,VA,23225
Kingsland Baptist Church,8801 Perrymont Rd,Richmond,VA,23237
Lakeside Baptist Church,447 Dalewood Ave,Salem,VA,24153
Leigh Street Baptist Church,517 N 25th St,Richmond,VA,23223
Lyndale Baptist Church,8320 Hull St Rd,Richmond,VA,23235
Manchester Baptist Church,PO Box 36568,Richmond,VA,23235
Metropolitan African Amer Bapt,5263 Warwick Rd,Richmond,VA,23224
Monument Heights Bapt Church,5716 Monument Ave,Richmond,VA,23226
Moore Street Baptist Church,PO Box 26552,Richmond,VA,23261
Mosby Memorial Baptist Church,2901 Mechanicsville Tpke,Richmond,VA,23223
Mount Vernon Baptist Church,1902 Rosewood Ave,Richmond,VA,23220
Mt Olivet Baptist Church,15583 Coatesville Rd,Beaverdam,VA,23015
Mt Tabor Baptist Church,13257 Old Richmond Rd,Keeling,VA,24566
New Canaan Baptist Church,4712 Forest Hill Ave,Richmond,VA,23225
New Chestnut Baptist Church,3601 North Ave,Richmond,VA,23222
New Convenant Baptist Church,7198 Patterson Ave,Richmond,VA,23229
New Light Baptist Church,2418 Cedar Rd,Chesapeake,VA,23323
North Gayton Baptist Church,3244 Pump Rd,Richmond,VA,23233
North Run Baptist Church,2100 Lydell Dr,Richmond,VA,23228
Northminster Baptist Church,3121 Moss Side Ave,Richmond,VA,23222
Oak Grove Baptist Church,117 E Hall Rd,Sterling,VA,20166
Oakwood Memorial Bapt Church,3100 Gay Ave,Richmond,VA,23231
Open Door Baptist Church,754 Germanna Hwy,Culpeper,VA,22701
Parham Road Baptist Church,2101 N Parham Rd,Richmond,VA,23229
Patterson Avenue Baptist Chr,4301 Patterson Ave,Richmond,VA,23221
Pine Street Baptist Church,400 S Pine St,Richmond,VA,23220
Pioneer Baptist Church,3140 Darbytown Rd,Richmond,VA,23231
Poplar Springs Baptist Church,5236 Charles City Rd,Richmond,VA,23231
Providence Park Baptist Church,468 E Ladies Mile Rd,Richmond,VA,23222
Quioccasin Baptist Church,9011 Quioccasin Rd,Richmond,VA,23229
Richmond Baptist Temple,2598 Staples Mill Rd,Richmond,VA,23230
Ridge Baptist Church,1515 Eastridge Rd,Richmond,VA,23229
Rising Mt Zion Baptist Church,2705 Hartman St,Richmond,VA,23223
River Road Church-Baptist,8000 River Rd,Richmond,VA,23229
Riverview Baptist Church,PO Box 4969,Woodbridge,VA,22194
Salem Baptist Church,1701 Cardwell Rd,Crozier,VA,23039
Second Bapt Church S Richmond,105 E Pilkington St,Richmond,VA,23224
Second Baptist Church,3355 Johnson Rd,Petersburg,VA,23805
Shalom Baptist Fellowship Chr,1708 Harwood St,Richmond,VA,23224
Sharon Baptist Church,241 Stony Mill Rd,Danville,VA,24540
Sixth Baptist Church,400 S Addison St,Richmond,VA,23220
Skipwith Baptist Church,1900 Skipwith Rd,Richmond,VA,23229
Southside Baptist Church,917 Carolina Rd,Suffolk,VA,23434
St John's Baptist Church,1905 Columbia Pike,Arlington,VA,22204
St Paul's Baptist Church,4247 Creighton Rd,Richmond,VA,23223
Stukeley Hall Baptist Church,601 Azalea Ave,Richmond,VA,23227
Swansboro Baptist Church,3801 Midlothian Tpke,Richmond,VA,23224
Thirty First Street Baptist,PO Box 7933,Richmond,VA,23223
Triumphant Baptist Church,2003 Lamb Ave,Richmond,VA,23222
Union Level Baptist Church,4908 Creedmore St,Richmond,VA,23231
Victory Tabernacle Baptist Chr,600 Chimborazo Blvd,Richmond,VA,23223
Weatherford Memorial Baptist,700 E Belt Blvd,Richmond,VA,23224
Webber Memorial Baptist Church,7800 Salem Church Rd,Richmond,VA,23237
Westhampton Baptist Church,6112 Three Chopt Rd,Richmond,VA,23226
Westhunt Baptist Church,3801 West End Dr,Richmond,VA,23294
Westover Baptist Church,5665 Riverside Dr,Danville,VA,24541
Westwood Baptist Church,8200 Old Keene Mill Rd,Springfield,VA,22152
Woodland Heights Bapt Church,611 W 31st St,Richmond,VA,23225
Zion Baptist Church,225 Byrne St,Petersburg,VA,23803
Cathedral of the Sacred Heart,823 Park Ave,Richmond,VA,23220
Holy Rosary Catholic Church,1218 N 34th St,Richmond,VA,23223
Our Lady of Lourdes,830 23rd St S,Arlington,VA,22202
Sacred Heart Catholic Church,1415 Perry St,Richmond,VA,23224
St Augustine's Catholic Church,4400 Beulah Rd,Richmond,VA,23237
St Benedict Church,206 N Belmont Ave,Richmond,VA,23221
St Bridget's Church,6006 Three Chopt Rd,Richmond,VA,23226
St Edward's Church,2700 Dolfield Dr,Richmond,VA,23235
St Joseph's Roman Catholic,828 Buford Rd,Richmond,VA,23235
St Kim Tae Gon Catholic Church,3100 Logandale Ave,Richmond,VA,23224
St Paul's Catholic Church,518 High St,Portsmouth,VA,23704
Battery Park Christian Church,4201 Brook Rd,Richmond,VA,23227
Bethany Christian Church,5400 Forest Hill Ave,Richmond,VA,23225
Bon Air Christian Church,2071 Buford Rd,Richmond,VA,23235
Bonnie Brae Church of Christ,7610 Staples Mill Rd,Richmond,VA,23228
Colonial Place Christian Chr,PO Box 70340,Richmond,VA,23255
Seventh Street Christian Chr,4101 Grove Ave,Richmond,VA,23221
Southwest Church of Christ,750 Courthouse Rd,Richmond,VA,23236
All Saints Episcopal Church,5290 Saratoga Ln,Dale City,VA,22193
Grace ,8 N Laurel St,Richmond,VA,23220
Holy Comforter Episcopal Chr,4819 Monument Ave,Richmond,VA,23230
St Barnabas' Episcopal Church,5155 Iron Bridge Rd,Richmond,VA,23234
St David's Episcopal Church,19917 Ashburn Rd,Ashburn,VA,20147
St James's Episcopal Church,1205 W Franklin St,Richmond,VA,23220
St Mark's Episcopal Church,PO Box 7430,Hampton,VA,23666
St Martin's Episcopal Church,1333 Jamestown Rd,Williamsburg,VA,23185
St Matthews Episcopal Church,PO Box 2187,Chesterfield,VA,23832
St Pauls Episcopal Church,815 E Grace St,Richmond,VA,23219
St Philip's Episcopal Church,2900 Hanes Ave,Richmond,VA,23222
St Thomas Episcopal Church,233 Mann Dr,Chesapeake,VA,23322
Beth Ahabah Congregation,1111 W Franklin St,Richmond,VA,23220
Congregation or Atid,501 E Parham Rd,Richmond,VA,23227
Keneseth Beth Israel,6300 Patterson Ave,Richmond,VA,23226
Temple Beth-El,3330 Grove Ave,Richmond,VA,23221
Bethlehem Lutheran Church,8922 Little River Tpke,Fairfax,VA,22031
Christ Lutheran Church-Elca,7809 Woodman Rd,Richmond,VA,23228
Christ the King Lutheran Chr,10550 Georgetown Pike,Great Falls,VA,22066
First English Lutheran Church,1603 Monument Ave,Richmond,VA,23220
Lutheran Church of Our Saviour,9601 Hull St Rd,Richmond,VA,23236
Redeemer Lutheran Church,5120 Harrison Rd,Fredericksburg,VA,22408
St Luke Lutheran Church,7757 Chippenham Pky,Richmond,VA,23225
Unity of Richmond Church,800 Blanton Ave,Richmond,VA,23221
Belmont United Methodist Chr,3510 Broad Rock Blvd,Richmond,VA,23234
Berryman United Methodist Chr,400 W 32nd St,Richmond,VA,23225
Beulah United Methodist Church,6930 Hopkins Rd,Richmond,VA,23234
Bon Air United Methodist Chr,1645 Buford Rd,Richmond,VA,23235
Boulevard United Methodist Chr,321 N Boulevard,Richmond,VA,23220
Brookland United Methodist Chr,2501 Staples Mill Rd,Richmond,VA,23230
Broomfield Christian Methodist,609 Jefferson Davis Hwy,Richmond,VA,23224
Calvary United Methodist Chr,845 Hemlock Rd,Salem,VA,24153
Centenary United Methodist Chr,1501 Rivermont Ave,Lynchburg,VA,24503
Chamberlayne Heights Umc,6100 Chamberlayne Rd,Richmond,VA,23227
Discovery United Methodist Chr,13000 Gayton Rd,Richmond,VA,23233
Emmaus Korean United Meth Chr,8001 Staples Mill Rd,Richmond,VA,23228
Ginter Park United Methodist,1010 W Laburnum Ave,Richmond,VA,23227
Good Shepherd United Methodist,14999 Birchdale Ave,Dale City,VA,22193
Hood Temple Ame Zion Church,16 W Clay St,Richmond,VA,23220
Huguenot United Methodist Chr,10661 Duryea Dr,Richmond,VA,23235
Lakeside United Methodist Chr,2333 Hilliard Rd,Richmond,VA,23228
Laurel Hill United Methodist,1919 New Market Rd,Richmond,VA,23231
New Hope Community Umc,3800 E Broad Rock Rd,Richmond,VA,23224
Providence United Methodist,113 Old Dare Rd,Grafton,VA,23692
Ramsey Memorial United Meth,5900 Hull St Rd,Richmond,VA,23224
Reveille United Methodist Chr,4200 Cary St Rd,Richmond,VA,23221
River Road United Methodist,8800 River Rd,Richmond,VA,23229
Sherbourne United Methodist,2619 Sherbourne Rd,Richmond,VA,23237
Skipwith United Methodist Chr,PO Box 32104,Richmond,VA,23294
St Andrew's United Methodist,5615 Portsmouth Blvd,Portsmouth,VA,23701
St Lukes United Methodist Chr,4101 Fordham Rd,Richmond,VA,23236
St Matthews United Methodist,8617 Little River Tpke,Annandale,VA,22003
Stratford Hills United Mthdst,7740 Cherokee Rd,Richmond,VA,23225
Third Street Bethel Ame Chr,614 N 3rd St,Richmond,VA,23219
Walmsley Boulevard United Meth,2950 Walmsley Blvd,Richmond,VA,23234
Welborne United Methodist Chr,920 Maybeury Dr,Richmond,VA,23229
Wesley Memorial United Mthdst,1720 Mechanicsville Pike,Richmond,VA,23223
Westhampton United Methodist,6100 Patterson Ave,Richmond,VA,23226
Westover Hills United Mthdst,1705 Westover Hills Blvd,Richmond,VA,23225
Willis United Methodist Church,8360 Willis Church Rd,Richmond,VA,23231
Antioch Christian Ctr,325 E Belt Blvd,Richmond,VA,23224
Chesterfield Community Church,11000 Trade Rd,Richmond,VA,23236
Faith Gospel Fmly Worship Ctr,PO Box 34423,Richmond,VA,23234
Harvest Renewal Church,1127 W Main St,Richmond,VA,23220
Living Word Ministries,PO Box 35062,Richmond,VA,23235
Manna Christian Fellowship,699 S Laburnum Ave,Richmond,VA,23223
New Deliverance Evangelistic,1705 Turner Rd,Richmond,VA,23225
Redeemed Assembly Jesus Christ,2200 Fairfax Ave,Richmond,VA,23224
Richmond Outreach Ctr,PO Box 6415,Richmond,VA,23230
St Constantine ,30 Malvern Ave,Richmond,VA,23221
Cornerstone Assembly of God,41 Tide Mill Ln,Hampton,VA,23666
Crusade for Christ Family,PO Box 24644,Richmond,VA,23224
Faith Landmarks Ministries,8491 Chamberlayne Rd,Richmond,VA,23227
Fountain of Deliverance,9 E Clay St,Richmond,VA,23219
Greater Refuge Church-Our Lord,2210 Carter St,Richmond,VA,23222
Meadowood Church of God,325 Azalea Ave,Richmond,VA,23227
Mt Gilead Full Gospel Intl Min,7900 Walmsley Blvd,Richmond,VA,23235
New Bethel United Holy Church,313 E Broad Rock Rd,Richmond,VA,23224
Pentecostals of Richmond,2200 Pickens Rd,Richmond,VA,23224
Refuge Temple Assembly,22 E Clay St,Richmond,VA,23219
United House of Prayer for All,926 Chimborazo Blvd,Richmond,VA,23223
West End Assembly of God,401 E Parham Rd,Richmond,VA,23227
All Saints Reformed Presby Chr,3000 Grove Ave,Richmond,VA,23221
All Souls Presbyterian Church,19 Overbrook Rd,Richmond,VA,23222
Crestwood Presbyterian Church,6627 Jahnke Rd,Richmond,VA,23225
Forest Hill Presbyterian Chr,4401 Forest Hill Ave,Richmond,VA,23225
Gayton Kirk Presbyterian Chr,11421 Gayton Rd,Richmond,VA,23233
Ginter Park Presbyterian Chr,3601 Seminary Ave,Richmond,VA,23227
Grace Covenant Presbyterian,1627 Monument Ave,Richmond,VA,23220
Hope Church,1791 Cambridge Dr,Richmond,VA,23238
Korean Presbyterian Church,9524 Braddock Rd,Fairfax,VA,22032
Lakeside Presbyterian Church,7343 Hermitage Rd,Richmond,VA,23228
New Convenant Presbyterian Chr,6415 Irongate Dr,Richmond,VA,23234
River Road Presbyterian Church,8960 River Rd,Richmond,VA,23229
Riverroad Presbyterian Church,809 Maybeury Dr,Richmond,VA,23229
Southminster Presbyterian Chr,7500 Hull St Rd,Richmond,VA,23235
St Giles Presbyterian Church,5200 Grove Ave,Richmond,VA,23226
St John's United Church-Christ,503 N Lombardy St,Richmond,VA,23220
Stony Point Reformed Presby,2330 Buford Rd,Richmond,VA,23235
Third Presbyterian Church,600 Forest Ave,Richmond,VA,23229
Three Chopt Presbyterian Chr,9315 3 Chopt Rd,Richmond,VA,23229
Tuckahoe Presbyterian Church,7000 Park Ave,Richmond,VA,23226
West End Presbyterian Church,1600 Atlantic St,Hopewell,VA,23860
Virginia Council Of Churches,112 Market St,Onancock,VA,23417
Heart Of Worship,5618 Crenshaw Rd,Richmond,VA,23227
Evangel Assembly Of God,645 Cedar Rd,Ringgold,VA,24586
Grace Church Of Richmond,1704 W Laburnum Ave,Richmond,VA,23227
Reconciliation Church Of God,630 E 16th St,Richmond,VA,23224
Chesterfield Church Of Christ,9841 W Providence Rd,Richmond,VA,23236
Episcopal Diocese Of Virginia,8727 River Rd,Richmond,VA,0
Mission House Of Prayer,133 E Belt Blvd,Richmond,VA,23224
Trinity Assembly Of God,233 N Courthouse Rd,Richmond,VA,23236
Apostolic Church Of Christ,325 Union St,Hampton,VA,23669
Glorious Church Of Christ,1525 Jacquelin St,Richmond,VA,23220
Friends Meeting Of Richmond,4500 Kensington Ave,Richmond,VA,23221
Bread Of Life Family Worship,3120 Hull St,Richmond,VA,23224
Muhammad's Temple Of Islam,4534 Welford Ave,Richmond,VA,23234
Islamic Center Of Virginia,1241 Buford Rd,Richmond,VA,23235
Calvary Chapel Of Richmond,9401 Hull St Rd,Richmond,VA,23236
Christ Worship Center,5302 Hull St Rd,Richmond,VA,23224
Church Of Jesus Christ Of Lds,2223 Keswick Ave,Richmond,VA,23224
Walmsley Baptist Church,4300 Vial Rd,Richmond,VA,23234
New Beginnings Deliverance Chr,3827 Walmsley Blvd,Richmond,VA,23234
Mc Coy Shirley,4601 Selwood Rd,Richmond,VA,23234
Lds Missionaries,4823 Whetstone Rd,Richmond,VA,23234
Greater Works Evangelistic,3904 Old Hopkins Rd,Richmond,VA,23234
Church Of Jesus Christ Of Latter-day Saints,5203 Salem St,Richmond,VA,23231
Chesher Ollie L Rev,3741 Cliffwood Rd,Richmond,VA,23234
Banton Street Pentecostal Chr,4210 Banton St,Richmond,VA,23234
Hands Of Unity LLC,3523 Oregon Oak Dr,Richmond,VA,23234
Lee Ronzo B Rev,3801 Echoway Rd,Richmond,VA,23234
New Beginning Tabernacle,3455 Broad Rock Blvd,Richmond,VA,23234
Sikh Gurdwara Sacvi,4500 Marty Blvd,Richmond,VA,23234
Berean Baptist Church,2914 Cogbill Rd,Richmond,VA,23234
Beth El Ministries,3619 Lynhaven Ave,Richmond,VA,23234
Faith Memorial Baptist Church,6202 Strathmore Rd,Richmond,VA,23234
Primera Iglesia Pentecostal,4932 Walmsley Blvd,Richmond,VA,23224
God's Storehouse Baptist Chr,5007 Jessup Rd,Richmond,VA,23234
Mt Olive Baptist Church,13111 Telegraph Rd,Woodbridge,VA,22192
New Life For Youth,2915 Broad Rock Blvd,Richmond,VA,23224
Joy Christian Tabernacle,3308 Mark Rd,Richmond,VA,23234
Restoration Place,4901 Cogbill Rd,Richmond,VA,23234
Gods Word To Life Bringing,2800 Broad Rock Blvd,Richmond,VA,23224
Broad Rock Baptist Church,5106 Walmsley Blvd,Richmond,VA,23224
All Nations Church-nazarene,4252 Panola Rd,Richmond,VA,23234
Jehovah's Witnesses,2710 Normandale Ave,Richmond,VA,23237
Gates Of Faith Day Care Center,3405 Castlewood Rd,Richmond,VA,23234
Ebenezer Ame Church,3941 Terminal Ave,Richmond,VA,23224
Greater Ebenezer Ame Church,4001 Terminal Ave,Richmond,VA,23224
Bringing Gods Word To Life,4823 Bryce Ln,Richmond,VA,23224
Believe ,2404 Summer Hill Ave,Richmond,VA,23234
Flava Ministry,2105 E Belt Blvd,Richmond,VA,23224
Temple Of God Ministries,2103 E Belt Blvd,Richmond,VA,23224
Oak Grove Church Home,3701 Harvette Dr,Richmond,VA,23237
Korean Central Presbyterian,8526 Amanda Pl,Vienna,VA,22180
Harbor Light Baptist Church,5709 Jessup Rd,Richmond,VA,23234
Korean Baptist Church-richmond,6925 Hopkins Rd,Richmond,VA,23234
Richardson Paul,2800 Blendwell Rd,Richmond,VA,23224
Crusade For Christ Christian,2337 Clearfield St,Richmond,VA,23224
Our Daily Bread Ministries,1809 Ruffin Rd,Richmond,VA,23234
Covenant Faith Church,7303 Hull St Rd,Richmond,VA,23235
Beulah Baptist Church,528 Leesville Rd,Lynchburg,VA,24502
Southside Baptist Ministries,5515 Bryce Ln,Richmond,VA,23224
Rapture-time Assembly Of God,2413 Jefferson Davis Hwy,Richmond,VA,23234
Rbm Ministries,4101 Walderbrook Ct,Richmond,VA,23234
New Birth Fellowship,5745 Orcutt Ln,Richmond,VA,23224
Redeemed Chruch-god ,5601 Bryce Ln,Richmond,VA,23224
Falling Creek Baptist Church,4701 Turner Rd,Richmond,VA,23234
Spencer M L Rev,6301 Wimbledon Dr,Richmond,VA,23224
Good Samaritan Ministries,2307 Hull St,Richmond,VA,23224
Love Joy Peace,4700 N Southside Plaza St,Richmond,VA,23224
Church Of God Amor Y,6513 Iron Bridge Pl,Richmond,VA,23234
Iglesia Hispana Tabernaculo,4690 N Southside Plaza St,Richmond,VA,23224
New Bethel Christian,4634 N Southside Plaza St,Richmond,VA,23224
New Hope Ministries,2715 Alcott Rd,Richmond,VA,23237
Summer Hill Learning-day Care,2420 Webber Ave,Richmond,VA,23224
Mt Zion Child Care ,3401 Chapel Dr,Richmond,VA,23224
New Bethel Christian Fllwshp,6417 Elk Rd,Richmond,VA,23224
Jones Jr Robert J N,3610 McGuire Dr,Richmond,VA,23224
New Generation International Ministries,3459 Chapel Dr,Richmond,VA,23224
Immanuel Church,2419 Oakland Ave,Richmond,VA,23224
Apostolic Church-jesus Christ,5419 Warwick Rd,Richmond,VA,23224
New Direction Baptist Church,911 E 36th St,Richmond,VA,23224
Christian Tabernacle,5100 Salem St,Richmond,VA,23231
Mountain Top Christian Church,1010 Mayhew St,Richmond,VA,23224
Future Church-christ Holiness,5545 Warwick Rd,Richmond,VA,23224
Bible Believing,3911 Hull St Rd,Richmond,VA,23224
All Saints Apostolic Church,2001 Royall Ave,Richmond,VA,23224
Arc Angel Michale ,6650 Elkhardt Rd,Richmond,VA,23225
Calvary Church Of Cma,6911 Iron Bridge Rd,Richmond,VA,23234
Modul Assembly,3600 Hull St,Richmond,VA,23224
New Covenant Fellowship,8624 Phoenix Dr,Manassas,VA,20110
Gnostic Institute-anthropology,5660 Warwick Rd,Richmond,VA,23224
Luke 10.30.37,7000 Hull St Rd,Richmond,VA,23224
Koinonia Independent Methodist,3600 McRand St,Richmond,VA,23224
Five Stones Outreach Ministry,200 Larne Ave,Richmond,VA,23224
Spirit ,227 E Belt Blvd,Richmond,VA,23224
New Deliverance Tabernacle Chr,7112 Hull St Rd,Richmond,VA,23235
House Of Prayer Ministries,6312 Ludwig Rd,Richmond,VA,23225
Abundant Life Cogic,201 Brandon Rd,Richmond,VA,23224
Church Of Christ-hopkins Road,8325 Hopkins Rd,Richmond,VA,23237
Upper Room Chapel,7013 Dyer Ln,Richmond,VA,23225
Antioch Church Of Our Lord,306 E Broad Rock Rd,Richmond,VA,23224
Courts Of Praise Ministries,7203 Iron Bridge Rd,Richmond,VA,23234
Word Of Life Ministries,140 E Belt Blvd,Richmond,VA,23224
Agape Ministries,3203 Walden St,Chesapeake,VA,23324
Mount Sinai House Of Prayer,818 Jefferson Davis Hwy,Richmond,VA,23224
Solid Rock Baptist Church,3013 Decatur St,Richmond,VA,23224
Virginia Triumphant College,1805 Mansion Ave,Richmond,VA,23224
Center Street Triumph Baptist,1801 Mansion Ave,Richmond,VA,23224
Liberty Rock,1809 Mansion Ave,Richmond,VA,23224
Love Center Of Unity,30 E Broad Rock Rd,Richmond,VA,23224
Message Of Hope Christian Center,221 E German School Rd,Richmond,VA,23224
Glorious Church-god In Christ,4806 Midlothian Tpke,Richmond,VA,23224
Koolhaas Abe Rev,8219 Sir Lionel Pl,Richmond,VA,23237
Cathedral Of Judah Richmond,2805 Hull St,Richmond,VA,23224
Corner Stone United Holly Chr,2653 Decatur St,Richmond,VA,23224
First Independent Methodist,3050 Midlothian Tpke,Richmond,VA,23224
United Nations Church,5200 Midlothian Tpke,Richmond,VA,23225
St James United Holy Church,16 E 28th St,Richmond,VA,23224
Calvary Pentecostal,11352 Heflin Ln,Ashland,VA,23005
Wright Ministries,1812 Gordon Ave,Richmond,VA,23224
Richmond Outreach Center,5501 Midlothian Tpke,Richmond,VA,23225
Love Of Jesus Thrift Store,5503 Midlothian Tpke,Richmond,VA,23225
God's Miracle Church,122 Agency Ave,Richmond,VA,23225
Jehovah's Witnesses Assembly,5607 Midlothian Tpke,Richmond,VA,23225
Hewlett Daisy,231 Norcroft Ter,Richmond,VA,23225
Living Waters Christian Tabernacle,55 Labrook Concourse,Richmond,VA,23224
Madison Temple Ame Zion Chr,2417 Hull St,Richmond,VA,23224
Faith Building Ministry,2413 Hull St,Richmond,VA,23224
Emmanuel Assembly Church-god,7909 Walmsley Blvd,Richmond,VA,23235
Grace Fellowship,7425 Elkhardt Rd,Richmond,VA,23225
Disciples United Corp,4229 Green Cedar Ln,Richmond,VA,23237
Victory Family Worship Center,30 Labrook Dr,Richmond,VA,23225
Korean Canaan Church-richmond,8001 Walmsley Blvd,Richmond,VA,23235
Church Of Christ,1208 W 41st St,Richmond,VA,23225
Suh Choon Duk Rev,8700 Pleasant Ridge Rd,Richmond,VA,23237
Gospel Baptist Church,1300 Turner Rd,Richmond,VA,23225
Pettis Robert L Reverend,2006 Decatur St,Richmond,VA,23224
Muslim Chaplain Service,1701 Everett St,Richmond,VA,23224
"I Fountaine Allen, LLC",5619 Lipton Rd,Richmond,VA,23225
Norville Dwight N Rev,3412 Summerbrooke Dr,Richmond,VA,23235
Greater Brook Road Baptist Chr,513 W 28th St,Richmond,VA,23225
Greater Mt Mornah Evangelical Ministry,1818 Hull St,Richmond,VA,23224
Cathedral Uhcol,1511 Stockton St,Richmond,VA,23224
Episcopal Church Good Sheperd,9 Jefferson Davis Hwy,Richmond,VA,23224
Torres Victor Rev,1005 Turner Rd,Richmond,VA,23225
Cannon Robert,5506 Larrymore Rd,Richmond,VA,23225
First Baptist Church Child Care Center,1507 Decatur St,Richmond,VA,23224
Rtop Outreach Center,1601 Hull St,Richmond,VA,23224
Cottage Prayer Ministries,6822 Everglades Dr,Richmond,VA,23225
Cross Over Ministry,108 Cowardin Ave,Richmond,VA,23224
Mt Gilead Full Gospel International Min,2501 Mt Gilead Blvd,Richmond,VA,23235
Tower Of Deliverance Church,118 Cowardin Ave,Richmond,VA,23224
Narroway True Holiness Church,1315 Stockton St,Richmond,VA,23224
Faith Harvest International Church,121 Wyck St,Richmond,VA,23225
Richmond Christian Center,214 Cowardin Ave,Richmond,VA,23224
Kmgsland Bapt,2304 Willis Rd,Richmond,VA,23237
Northeast Real Estate Invstmnt,120 Wyck St,Richmond,VA,23225
Jerusalem Holy Community Chr,200 E 12th St,Richmond,VA,23224
Rectory Augustin St,9608 N Verlinda Ct,Richmond,VA,23237
Bainbridge Community Ministry,1400 Perry St,Richmond,VA,23224
Miles Bennie,5525 Jahnke Rd,Richmond,VA,23225
New Life Deliverance Taberncle,900 Decatur St,Richmond,VA,23224
Whit Chenault Ministries,8223 Chainmaile Rd,Richmond,VA,23235
Central United Methodist Chr,428 S College Ave,Salem,VA,24153
Spirit Of Fire Fellowship,302 Turner Rd,Richmond,VA,23225
Boswell J Beryl,9749 Alfaree Rd,Richmond,VA,23237
God's Kingdom Living Family,200 Turner Rd,Richmond,VA,23225
Miles Floyd A,9506 Plum Cir,Richmond,VA,23237
Hosanna Victory Church,7903 Midlothian Tpke,Richmond,VA,23235
Hosanna Outreach Ministries,2615 Egee Dr,Richmond,VA,23237
Redeemed Christian Chr Of God,6321 Jahnke Rd,Richmond,VA,23225
Christian Deliverence Fllwshp,500 Goddin St,Richmond,VA,23231
Studevant Warren Pastor,8014 Midlothian Tpke,Richmond,VA,23235
Lion Of Judah Ministries,8521 Sutherland Rd,Richmond,VA,23236
Better Covenant Ministries International,21 Buford Rd,Richmond,VA,23235
New Zion International Child Day Care,100 Buford Rd,Richmond,VA,23235
More Than A Conqueror Fllwshp,8017 Buford Ct,Richmond,VA,23235
New Direction Evangelistic Chr,9101 Hull St Rd,Richmond,VA,23236
Inspirations-faith International,100 N Providence Rd,Richmond,VA,23235
Varina Baptist Church,8090 Varina Rd,Richmond,VA,0
Christian Ministries United,1608 S Meadow St,Richmond,VA,23220
Progressive Church,1518 Texas Ave,Richmond,VA,23220
Friendship Memorial,1901 Hicks Rd,Richmond,VA,23235
Mission House Bethany Place Baptist Church,1601 S Providence Rd,Richmond,VA,23236
Simon A J Rev,7922 Lake Shore Dr,Richmond,VA,23235
Temple Of God In Christ,1631 Williamsburg Rd,Richmond,VA,23231
Mt Calvary Baptist Church,4401 Hobbs Ln,Richmond,VA,23231
10Th Street Baptist Church,2300 Fairmount Ave,Richmond,VA,23223
31St Street Baptist Church,823 N 31st St,Richmond,VA,23223
7Th Day Praise ,912 Tulip St,Richmond,VA,23223
Abundant Blessings Christian,8191 Brook Rd,Richmond,VA,23227
Abundant Life Day Care Center,3300 Neale St,Richmond,VA,23223
Adams L W Rev,12680 Broad Street Rd,Richmond,VA,23233
Alexander Lee Motley,3057 Meadowbridge Rd,Richmond,VA,23222
All Saints Christian,1909 Huguenot Rd,Richmond,VA,23235
Anderson E Walter,1112 Oakwood Ave,Richmond,VA,23223
Andrews Apostle,5512 Cardiff Ct,Richmond,VA,23227
Seventh Day Adventist Church,344 Courthouse Rd SW,Vienna,VA,22180
First Baptist Church of Vienna,450 Orchard St NW,Vienna,VA,22180
Light Mission Church,10237 Leesburg Pike,Vienna,VA,22182
Vienna Baptist Church,541 Marshall Rd SW,Vienna,VA,22180
Oakton Church of the Brethern,10025 Courthouse Rd,Vienna,VA,22181
St Marks Church,9970 Vale Rd,Vienna,VA,22181
Church of the Holy Comforter,543 Beulah Rd NE,Vienna,VA,22180
Emmanuel Lutheran Church,3900 Virginia Beach Blvd,Virginia Beach,VA,23452
Andrew Chapel United Methodist,1732 Brooke Rd,Stafford,VA,22554
Epiphany United Methodist Chr,1014 Country Club Dr NE,Vienna,VA,22180
Christian Assembly Church,8200 Bell Ln,Vienna,VA,22182
Emmaus United Church of Christ,900 Maple Ave E,Vienna,VA,22180
Vienna Presbyterian Church,124 Park St NE,Vienna,VA,22180
Dial Thoughts Of Saints,2402 Tricia Ct,Vienna,VA,22181
Berea Church Of Christ,8817 Leesburg Pike,Vienna,VA,22182
Ambassador Bible Church,9880 Main St,Fairfax,VA,22031
Bethel Baptist Church,1004 Yorktown Rd,Yorktown,VA,23693
Buckroe Baptist Church,PO Box 4206,Hampton,VA,23664
Faith Baptist Church,5501 Middle Rd,Prince George,VA,23875
First Baptist Church-Hampton,229 N King St,Hampton,VA,23669
Fox Hill Road Baptist Church,335 Fox Hill Rd,Hampton,VA,23669
Gray's Missionary Baptist Chr,380 Union St,Hampton,VA,23669
Hampton Baptist Church,40 Kings Way,Hampton,VA,23669
Ivy Memorial Baptist Church,2200 Coliseum Dr,Hampton,VA,23666
Langley Baptist Church,116 E Little Back River Rd,Hampton,VA,23669
Liberty Baptist Church,15810 Liberty Church Rd,Lanexa,VA,23089
Lincoln Park Baptist Church,1100 W Queen St,Hampton,VA,23669
Little Zion Baptist Church,9496 Old Stage Hwy,Smithfield,VA,23430
Memorial Baptist Church,317 Lee St,Hampton,VA,23669
Mercy Seat Baptist,1013 Todds Ln,Hampton,VA,23666
New Mt Olive Baptist Church,66 Big Bethel Rd,Hampton,VA,23666
Pine Chapel Baptist Church,1544 W Queen St,Hampton,VA,23669
Providence Free Will Baptist,731 E Little Back River Rd,Hampton,VA,23669
Restoration Church Phoebus Bap,508 Fox Hill Rd,Hampton,VA,23669
Sixth Mount Zion Baptist,3100 Butternut Dr,Hampton,VA,23666
West Hampton Baptist Church,631 Aberdeen Rd,Hampton,VA,23661
Immaculate Conception Catholic,PO Box 7382,Hampton,VA,23666
St Joseph Church,PO Box 4126,Hampton,VA,23664
St Mary Star of the Sea Church,7 Frank Ln,Hampton,VA,23651
St Rose of Lima Church,2114 Bay Ave,Hampton,VA,23661
Hampton Christian Church,151 E Mercury Blvd,Hampton,VA,23669
Langley Christian Church,175 Fox Hill Rd,Hampton,VA,23669
Northampton Church of Christ,1409 Todds Ln,Hampton,VA,23666
Church of Christ Hampton,502 Woodland Rd,Hampton,VA,23669
Church of the Nazarene,17667 Roxbury Hall Rd,Leesburg,VA,20175
Gospel Spreading Church,300 Lincoln St,Hampton,VA,23669
Calvary Community Church,2311 Tower Pl,Hampton,VA,23666
Bethany United Methodist Chr,PO Box 487,Purcellville,VA,20134
Bethel Ame Church,PO Box 1940,Hampton,VA,23669
East Hampton United Methodist,714 E Pembroke Ave,Hampton,VA,23669
Fox Hill Central United Meth,501 Beach Rd,Hampton,VA,23664
Phoebus United Methodist Chr,300 E Mellen St,Hampton,VA,23663
St Mark's United Methodist Chr,11551 Lucks Ln,Midlothian,VA,23114
Wallace Memorial Umc,6 Johnson Rd,Hampton,VA,23664
Greater Bethlehem Bapt Christ,360 Ivy Home Rd,Hampton,VA,23669
New Beginning Ministry,PO Box 4376,Hampton,VA,23664
New Covenant Church,1079 Big Bethel Rd,Hampton,VA,23666
New Life Church,PO Box 326,Monroe,VA,24574
Victory Life Outreach Ctr,1741 W Queen St,Hampton,VA,23666
Bethel Temple Assembly of God,1705 Todds Ln,Hampton,VA,23666
Calvary Assembly of God,1380 N Mallory St,Hampton,VA,23663
Christ Church Apostolic Paw,39 Joynes Rd,Hampton,VA,23666
Faith Temple Church of God,252 W Queen St,Hampton,VA,23669
Warwick Assembly of God,1228 Todds Ln,Hampton,VA,23666
Calvary Reformed Presbyterian,403 Whealton Rd,Hampton,VA,23666
First United Church of Christ,1017 Todds Ln,Hampton,VA,23666
Temple Of Life Worship Center,1210 Kecoughtan Rd,Hampton,VA,23661
House Of God Worship Center,2510 Build America Dr,Hampton,VA,23666
Holy Hills Of Zion,3927 Kecoughtan Rd,Hampton,VA,23669
New House Of Israel,316 S Back River Rd,Hampton,VA,23669
United Church Of God,647 Teach St,Hampton,VA,23661
Peninsula Church Of Christ,9 Silver Isles Blvd,Hampton,VA,23664
Faith Church Of God,407 Patrician Dr,Hampton,VA,23666
First Assembly Of God,1310 Garbers Church Rd,Harrisonburg,VA,22801
Abundant Life Tabernacle,101 Blackburn Ln,Hampton,VA,23666
Aldersgate Methodist Church,151 Wythe Pky,Hampton,VA,23661
Ambassadors For Jesus Christ,4 Duncan Dr,Hampton,VA,23663
Anderson Michael D,8 Hillcrest Cir,Hampton,VA,23666
Black Creek Baptist Church,6289 McClellan Rd,Mechanicsville,VA,23111
Cool Spring Baptist Church,9283 Atlee Station Rd,Mechanicsville,VA,23116
First Union Baptist,6231 Pole Green Rd,Mechanicsville,VA,23116
Greater Nazarene Baptist Chr,11435 Georgetown Rd,Mechanicsville,VA,23116
Hillcrest Baptist Church,1637 Holland Rd,Suffolk,VA,23434
Mechanicsville Baptist Church,8016 Atlee Rd,Mechanicsville,VA,23111
New Highland Baptist Church,9200 New Ashcake Rd,Mechanicsville,VA,23116
Northside Baptist Church,445 Woodford St,Fredericksburg,VA,22401
Walnut Grove Baptist Church,PO Box 428,Mechanicsville,VA,23111
Church of the Redeemer,8275 Meadowbridge Rd,Mechanicsville,VA,23116
Fairmount Christian Church,6502 Creighton Rd,Mechanicsville,VA,23111
Gethsemane Church of Christ,5146 Mechanicsville Tpke,Mechanicsville,VA,23111
Holly Ridge Christian Church,8469 Atlee Rd,Mechanicsville,VA,23116
Pole Green Church of Christ,8319 Lee Davis Rd,Mechanicsville,VA,23111
Atlee Community Church,7171 Verdi Ln,Mechanicsville,VA,23116
Hanover Church of the Nazarene,PO Box 2949,Mechanicsville,VA,23116
Mechanicsville United Mthdst,7356 Atlee Rd,Mechanicsville,VA,23111
New Song United Methodist Chr,7450 Colts Neck Rd,Mechanicsville,VA,23111
Shady Grove United Methodist,4825 Pouncey Tract Rd,Glen Allen,VA,23059
Abundant Life Church of Christ,PO Box 149,Mechanicsville,VA,23111
Hanover Evangelical Friends,6420 Mechanicsville Tpke,Mechanicsville,VA,23111
Mechanicsville Church-Christ,8067 Atlee Rd,Mechanicsville,VA,23111
New Life Christian Ctr,8177 Mechanicsville Tpke,Mechanicsville,VA,23111
Lighthouse Christian Ctr,PO Box 757,Mechanicsville,VA,23111
Mechanicsville Christian Ctr,8061 Shady Grove Rd,Mechanicsville,VA,23111
Fairfield Presbyterian Church,PO Box 1088,Mechanicsville,VA,23111
Mechanicsville Presbyterian,7339 Atlee Rd,Mechanicsville,VA,23111
Hanover Church Of Nazarene,8391 Atlee Rd,Mechanicsville,VA,23116
Advent Christian Child Care,8079 Studley Rd,Mechanicsville,VA,23116
All Souls Episcopal Church,9077 Atlee Rd,Mechanicsville,VA,23116
Anchor Baptist Church,7291 Atlee Rd,Mechanicsville,VA,23111
Abingdon Baptist Church,361 W Main St,Abingdon,VA,24210
Highlands Fellowship,PO Box 553,Abingdon,VA,24212
Rosedale Baptist Church,26396 Lee Hwy,Abingdon,VA,24211
Valley Street Baptist Church,334 Rose St NW,Abingdon,VA,24210
Abingdon United Methodist Chr,101 E Main St,Abingdon,VA,24210
Pleasant View Methodist Church,18416 Lee Hwy,Abingdon,VA,24210
Abingdon Bible Church,16210 Elementary Dr,Abingdon,VA,24210
Green Spring Presbyterian Chr,22007 Green Springs Church Rd,Abingdon,VA,24211
Sinking Spring Presbyterian,136 E Main St,Abingdon,VA,24210
Antioch House Of Prayer,19479 N Fork River Rd,Abingdon,VA,24210
Abingdon Church Of God,333 Trigg St,Abingdon,VA,24210
Abingdon Church Of Christ,19508 Dennison Dr,Abingdon,VA,24211
Abingdon District Office United,324 E Main St,Abingdon,VA,24210
Abingdon First Assembly Of God,250 Phillips St NW,Abingdon,VA,24210
Abingdon Presbyterian Church P Ca,18438 Lee Hwy,Abingdon,VA,24210
Abingdon United Methodist Parsonage,115 E Main St,Abingdon,VA,24210
Abingdon United Pentecostal,17535 Jeb Stuart Hwy,Abingdon,VA,24211
Amherst Baptist Church,226 Lexington Tpke,Amherst,VA,24521
Emmanuel United Methodist,PO Box 451,Amherst,VA,24521
Mount Pleasant United Meth Chr,650 Thrashers Creek Rd,Amherst,VA,24521
Amherst Presbyterian Nursery,163 2nd St,Amherst,VA,24521
Belle Meadows Baptist Church,619 Wagner Rd,Bristol,VA,24201
Bradley Street Baptist Church,2218 Bradley St,Bristol,VA,24201
East Bristol Baptist Church,52 Pendergrass Rd,Bristol,VA,24201
Euclid Avenue Baptist Church,900 Euclid Ave,Bristol,VA,24201
First Free Will Baptist Church,1641 Euclid Ave,Bristol,VA,24201
Kingsway Baptist Church,1999 Long Crescent Dr,Bristol,VA,24201
Lee Street Baptist Church,1 E Mary St,Bristol,VA,24201
Midway Baptist Church,2136 Midway Rd,Gretna,VA,24557
North Bristol Baptist Church,46 Church St,Bristol,VA,24201
Northstar Baptist Church,2455 King Mill Pike,Bristol,VA,24201
Shiloh Free Will Baptist,21508 Benhams Rd,Bristol,VA,24202
Victory Baptist Church,11101 Island Rd,Bristol,VA,24202
St Anne's Catholic Church,350 Euclid Ave,Bristol,VA,24201
East End Christian Church,PO Box 1333,Bristol,VA,24203
State Street United Methodist,300 W Valley Dr,Bristol,VA,24201
Fellowship Chapel,201 Crockett St,Bristol,VA,24201
Central Presbyterian Church,301 Euclid Ave,Bristol,VA,24201
Adoration Church,52 Old Airport Rd,Bristol,VA,24201
Anderson Church Of God,1075 Wagner Rd,Bristol,VA,24201
Fluvanna Baptist Church,RR 2 Box 4711,Scottsville,VA,24590
Scottsville Baptist Church,PO Box 100,Scottsville,VA,24590
Centenary United Methodist Ch,RR 3 Box 48,Scottsville,VA,24590
Scottsville United Methodist,PO Box 280,Scottsville,VA,24590
Fairfax Baptist Temple Academy,6401 Missionary Ln,Fairfax Station,VA,22039
Virginia Korean Baptist Church,7200 Ox Rd,Fairfax Station,VA,22039
St Raymond-Penafort Roman Cath,8900 Triple Ridge Rd,Fairfax Station,VA,22039
St Peter's in the Woods,5911 Fairview Woods Dr,Fairfax Station,VA,22039
Temple B'Nai Shalom,7612 Old Ox Rd,Fairfax Station,VA,22039
Living Savior Lutheran Church,5500 Ox Rd,Fairfax Station,VA,22039
Sikh Foundation Of Virginia,7250 Ox Rd,Fairfax Station,VA,22039
Arlington Baptist Church,714 S Monroe St,Arlington,VA,22204
Cherrydale Baptist Church,3910 Lorcom Ln,Arlington,VA,22207
First Baptist Church-Clarendon,1210 N Highland St,Arlington,VA,22201
German Lutheran Church,2601 N Nelson St,Arlington,VA,22207
Arlington Diocese,3304 Washington Blvd,Arlington,VA,22201
Holy Martyrs of Vietnam Church,915 S Wakefield St,Arlington,VA,22204
Our Lady Queen of Peace Church,2700 19th St S,Arlington,VA,22204
St Agnes Catholic Church,1914 N Randolph St,Arlington,VA,22207
St Ann's Church Rectory,5312 10th St N,Arlington,VA,22205
Arlington Church of Christ,20 N Irving St,Arlington,VA,22201
Saint Mary's Episcopal Church,2609 N Glebe Rd,Arlington,VA,22207
St George's Episcopal Church,905 Princess Anne St,Fredericksburg,VA,22401
St Michael's Episcopal Church,8706 Quaker Ln,Bon Air,VA,23235
St Peter's Episcopal Church,8400 Saint Peters Ln,New Kent,VA,23124
Advent Lutheran Church,2222 S Arlington Ridge Rd,Arlington,VA,22202
Faith Lutheran Church,3313 Arlington Blvd,Arlington,VA,22201
Arlington Forest United Meth,4701 Arlington Blvd,Arlington,VA,22203
Arlington Temple,1835 N Nash St,Arlington,VA,22209
Arlington United Methodist Chr,716 S Glebe Rd,Arlington,VA,22204
Cherrydale Methodist Church,3701 Lorcom Ln,Arlington,VA,22207
Clarendon United Methodist,606 N Irving St,Arlington,VA,22201
Community United Methodist Chr,37 Cherry Rd,Portsmouth,VA,23701
Lomax Ame Zion Church,PO Box 6020,Arlington,VA,22206
Mount Olivet United Methodist,1500 N Glebe Rd,Arlington,VA,22207
Walker Chapel United Methodist,4102 N Glebe Rd,Arlington,VA,22207
Arlington Assembly of God,4501 N Pershing Dr,Arlington,VA,22203
Arlington Presbyterian Church,3507 Columbia Pike,Arlington,VA,22204
Christ Church-Arlington,3020 N Pershing Dr,Arlington,VA,22201
Church of the Covenant,2666 Military Rd,Arlington,VA,22207
First Presbyterian Arlington,601 N Vermont St,Arlington,VA,22203
Little Falls Presbyterian Chr,6025 Little Falls Rd,Arlington,VA,22207
Rock Spring Congregational Chr,5010 Little Falls Rd,Arlington,VA,22207
Trinity Presbyterian Church,651 Dranesville Rd,Herndon,VA,20170
Unity Church Of Arlington,2730 N Wakefield St,Arlington,VA,22207
1St Church Of Christ Scientistst Mclean,921 S Walter Reed Dr,Arlington,VA,22204
American Friends Of St Davids,1749 S Hayes St,Arlington,VA,22202
Atlantic Shores Baptist Church,1861 Kempsville Rd,Virginia Beach,VA,23464
Bayside Baptist Church,1920 Pleasure House Rd,Virginia Beach,VA,23455
Carrow Baptist Church,5545 Susquehanna Dr,Virginia Beach,VA,23462
Church at Virginia Beach,929 First Colonial Rd,Virginia Beach,VA,23454
Coastal Community Church,PO Box 1506,Yorktown,VA,23692
Colonial Baptist Church,221 Hillcrest St,Blue Ridge,VA,24064
East Coast Baptist Church,5149 Indian River Rd,Virginia Beach,VA,23464
First Baptist Church-Va Beach,401 35th St,Virginia Beach,VA,23451
First Lynnhaven Baptist Church,2744 Robert Jackson Dr,Virginia Beach,VA,23452
Gateway Freewell Bapt Church,5473 Virginia Beach Blvd,Virginia Beach,VA,23462
Great Neck Baptist Church,1020 General Jackson Dr,Virginia Beach,VA,23454
Green Run Baptist Church,1201 Rosemont Rd,Virginia Beach,VA,23453
Holland Road Baptist Church,4881 Euclid Rd,Virginia Beach,VA,23462
Kempsville Baptist Church,5204 Princess Anne Rd,Virginia Beach,VA,23462
Kings Grant Baptist Church,873 Little Neck Rd,Virginia Beach,VA,23452
London Bridge Baptist Church,2460 Potters Rd,Virginia Beach,VA,23454
Mt Bethel Baptist Church,4636 Indian River Rd,Virginia Beach,VA,23456
New Light Baptist School,5549 Indian River Rd,Virginia Beach,VA,23464
New Oak Grove Baptist Church,3200 Head River Rd,Virginia Beach,VA,23457
Piney Grove Church,2804 Holland Rd,Virginia Beach,VA,23453
Pleasant Grove Baptist Church,3232 Battlefield Blvd S,Chesapeake,VA,23322
Rehoboth Baptist Church,182 S Birdneck Rd,Virginia Beach,VA,23451
Tabernacle Baptist Academy,717 Whitehurst Landing Rd,Virginia Beach,VA,23464
Thalia Lynn Baptist Church,4392 Virginia Beach Blvd,Virginia Beach,VA,23462
Tidewater Korean Baptist Chr,301 Overland Rd,Virginia Beach,VA,23462
Virginia Beach Free Will Chr,210 S Witchduck Rd,Virginia Beach,VA,23462
Westwood Hill Baptist Church,865 Woodstock Rd,Virginia Beach,VA,23464
Holy Family Church,1279 N Great Neck Rd,Virginia Beach,VA,23454
Holy Spirit Parish,1396 Lynnhaven Pky,Virginia Beach,VA,23453
St Gregory's Catholic Church,5345 Virginia Beach Blvd,Virginia Beach,VA,23462
St John the Apostle Catholic,800 Los Conaes Way,Virginia Beach,VA,23456
St Luke's Catholic Church,2304 Salem Rd,Virginia Beach,VA,23456
St Mark's Catholic Church,1505 Kempsville Rd,Virginia Beach,VA,23464
St Matthews Catholic Church,3314 Sandra Ln,Virginia Beach,VA,23464
St Nicholas Catholic Church,712 Little Neck Rd,Virginia Beach,VA,23452
Star of the Sea Catholic Chr,1404 Pacific Ave,Virginia Beach,VA,23451
Avalon Church of Christ,844 Woodstock Rd,Virginia Beach,VA,23464
Church of Christ at Creeds,5500 Morris Neck Rd,Virginia Beach,VA,23457
Kempsville Church of Christ,5424 Parliament Dr,Virginia Beach,VA,23462
Virginia Beach Christian Chr,2225 Rose Hall Dr,Virginia Beach,VA,23454
Vineyard Christian Fellowship,13550 Jefferson Davis Hwy,Woodbridge,VA,22191
Christ Church Episcopal,PO Box 6367,Virginia Beach,VA,23456
Church of the Holy Apostles,1598 Lynnhaven Pky,Virginia Beach,VA,23453
Eastern Shore Chapel,2020 Laskin Rd,Virginia Beach,VA,23454
Galilee Episcopal Church,3928 Pacific Ave,Virginia Beach,VA,23451
Old Donation Episcopal,4449 N Witchduck Rd,Virginia Beach,VA,23455
St Francis Episcopal Church,9220 Georgetown Pike,Great Falls,VA,22066
Tidewater Central Church,5514 Parliament Dr,Virginia Beach,VA,23462
Avalon Hills Bible Church,5728 Indian River Rd,Virginia Beach,VA,23464
Congreagation Beth Chaverim,3820 Stoneshore Rd,Virginia Beach,VA,23452
Temple Emanuel Synagogue,424 25th St,Virginia Beach,VA,23451
Hope Lutheran Church,4604 Ravensworth Rd,Annandale,VA,22003
Our Saviour's Lutheran Church,PO Box 10,Norge,VA,23127
Prince of Peace Lutheran Chr,8304 Old Keene Mill Rd,Springfield,VA,22152
Resurrection-Lutheran Wels,5724 Providence Rd,Virginia Beach,VA,23464
St Michael Lutheran Church,2208 Princess Anne Rd,Virginia Beach,VA,23456
Asbury-S Richmond Methodist,1420 Rutland Dr,Virginia Beach,VA,23454
Baylake United Methodist Chr,4300 Shore Dr,Virginia Beach,VA,23455
Charity United Methodist Chr,4080 Charity Neck Rd,Virginia Beach,VA,23457
Courthouse United Methodist,2708 Princess Anne Rd,Virginia Beach,VA,23456
Foundry United Methodist Chr,2801 Virginia Beach Blvd,Virginia Beach,VA,23452
Francis Asbury United Church,1871 N Great Neck Rd,Virginia Beach,VA,23454
Haygood United Methodist Chr,4713 Haygood Rd,Virginia Beach,VA,23455
Lynnhaven United Methodist Chr,1033 Little Neck Rd,Virginia Beach,VA,23452
Memorial United Methodist Chr,11000 Courthouse Rd,Charles City,VA,23030
Mount Zion Ame Church,2268 Princess Anne Rd,Virginia Beach,VA,23456
Nimmo United Methodist Church,2200 Princess Anne Rd,Virginia Beach,VA,23456
Salem United Methodist Church,PO Box 157,Evington,VA,24550
Sandbridge Community Chapel,3041 Sandpiper Rd,Virginia Beach,VA,23456
Scott Memorial United Church,409 First Colonial Rd,Virginia Beach,VA,23454
St Luke's United Methodist Chr,7628 Leesburg Pike,Falls Church,VA,22043
Tabernacle United Methodist,PO Box 121,Barhamsville,VA,23011
Thalia United Methodist Church,4321 Virginia Beach Blvd,Virginia Beach,VA,23452
Virginia Beach United Meth Chr,212 19th St,Virginia Beach,VA,23451
Agapae International Church,2641 Princess Anne Rd,Virginia Beach,VA,23456
Bayside Church of Christ,PO Box 5947,Virginia Beach,VA,23471
Beach Fellowship Church,1817 General Booth Blvd,Virginia Beach,VA,23454
Forefront Church,PO Box 2524,Virginia Beach,VA,23450
Gift of Life Church,2329 Seaboard Rd,Virginia Beach,VA,23456
Grace Bible Church,2961 Shore Dr,Virginia Beach,VA,23451
Open Door Chapel,3177 Virginia Beach Blvd,Virginia Beach,VA,23452
Road to Emmaus,1001 Indian Lakes Blvd,Virginia Beach,VA,23464
Suburban Christian Church,5132 Bellamy Manor Dr,Virginia Beach,VA,23464
Virginia Beach Community Chpl,1261 Laskin Rd,Virginia Beach,VA,23451
St Nicholas Greek Orthodox Chr,621 First Colonial Rd,Virginia Beach,VA,23451
Azalea Garden Church of God,1541 Centerville Tpke,Virginia Beach,VA,23464
Dominion Christian Ctr,2159 Lynnhaven Pky,Virginia Beach,VA,23456
Kempsville Church of God,4422 Princess Anne Rd,Virginia Beach,VA,23462
New Jerusalem Church,121 Hughes Ave,Virginia Beach,VA,23451
Rock Church,580 Kempsville Rd,Virginia Beach,VA,23464
Virginia Beach Christian Life,PO Box 4488,Virginia Beach,VA,23454
Virginia Beach-Church of God,836 Regency Dr,Virginia Beach,VA,23454
Bayside Presbyterian Church,1400 Ewell Rd,Virginia Beach,VA,23455
Eastminster Presbyterian Chr,3229 MacDonald Rd,Virginia Beach,VA,23464
Kempsville Presbyterian Church,805 Kempsville Rd,Virginia Beach,VA,23464
King's Grant Presbyterian Chr,745 Little Neck Rd,Virginia Beach,VA,23452
Lynnhaven Colony Congregation,2217 W Great Neck Rd,Virginia Beach,VA,23451
Providence Presbyterian Church,9019 Little River Tpke,Fairfax,VA,22031
Thalia Trinity Presbyterian,420 Thalia Rd,Virginia Beach,VA,23452
Wycliffe Presbyterian Church,1445 N Great Neck Rd,Virginia Beach,VA,23454
Bayside Church Of Christ,5025 Shell Rd,Virginia Beach,VA,23455
Calvary Assembly Of God,1516 Spring Hill Rd,Staunton,VA,24401
United House Of Prayer-people,2503 Raleigh St,Hopewell,VA,23860
Faith House Of Refuge,485 S Independence Blvd,Virginia Beach,VA,23452
Rccg House Of Praise,121 S Witchduck Rd,Virginia Beach,VA,23462
Christian House Of Prayer,333 Edwin Dr,Virginia Beach,VA,23462
Community Church Of Christ,3617 Graham Park Rd,Triangle,VA,22172
Oceana Church Of Christ,1206 Laskin Rd,Virginia Beach,VA,23451
Unity Church Of Tidewater,5580 Shell Rd,Virginia Beach,VA,23455
Anchoring Hope Family Worship,3150 Magic Hollow Blvd,Virginia Beach,VA,23453
757 Life,1248 Gunn Hall Dr,Virginia Beach,VA,23454
A Woman Delivered From Wilderness,10093 PO Box,Virginia Beach,VA,0
Abounding Grace Church,5105 Princess Anne Rd,Virginia Beach,VA,23462
Abounding Grace,5102 Princess Anne Rd,Virginia Beach,VA,23462
Abundant Harvest Church,104 Constitution Dr,Virginia Beach,VA,23462
Ackerman Construction Co,500 Central Dr,Virginia Beach,VA,23454
Acts 2 Church Sbc,929 Level Green Blvd,Virginia Beach,VA,23464
Agape Full Gospel Worship,6620 Indian River Rd,Virginia Beach,VA,23464
Ambassadors For Christ,4809 Shell Rd,Virginia Beach,VA,23455
Ambassador Club Ministries,1029 College Park Blvd,Virginia Beach,VA,23464
Barnhardt Baptist Church,1033 Brittle St,Goodview,VA,24095
Goodview Baptist Church,1057 Grace Ct,Goodview,VA,24095
Beaver Dam Baptist Church,1794 Richmond Rd,Troy,VA,22974
Bybee Road Baptist Church,4989 Bybees Church Rd,Troy,VA,22974
Zion United Methodist Church,PO Box 240,Seaford,VA,23696
Beaverdam Baptist Church,19110 Beaver Dam Rd,Beaverdam,VA,23015
Lynn Haven Baptist Church,1501 E Washington Ave,Vinton,VA,24179
Midland Baptist Church,460 Dale Ave,Vinton,VA,24179
Mineral Springs Baptist Church,1030 Bible Ln,Vinton,VA,24179
Vinton Baptist Church,PO Box 306,Vinton,VA,24179
Thrasher Memorial United Meth,PO Box 356,Vinton,VA,24179
Jordantown Church Of God,5663 Jordantown Rd,Vinton,VA,24179
Vinton Church Of Christ,2107 Feather Rd,Vinton,VA,24179
1St Christian Church,302 6th St,Vinton,VA,24179
Bedford Baptist Church,1516 Oakwood St,Bedford,VA,24523
Suck Spring Baptist Church,3887 Jopling Rd,Bedford,VA,24523
Timber Ridge Baptist Church,3234 Timber Ridge Rd,Bedford,VA,24523
Holy Name of Mary Church,1307 Oakwood St,Bedford,VA,24523
Bedford Christian Church,305 N Bridge St,Bedford,VA,24523
St Johns Episcopal Church,314 N Bridge St,Bedford,VA,24523
Main Street Methodist Church,202 N Main St,Suffolk,VA,23434
Bedford Presbyterian Church,105 W Main St,Bedford,VA,24523
Broadus Memorial Baptist Chr,1525 Stony Point Rd,Charlottesville,VA,22911
Jefferson Park Baptist Church,2505 Jefferson Park Ave,Charlottesville,VA,22903
Mount View Baptist Church,908 Saint Clair Ave,Charlottesville,VA,22901
Mt Zion Baptist Church,105 Lankford Ave,Charlottesville,VA,22902
University Baptist Church,1223 W Main St,Charlottesville,VA,22903
Church of the Incarnation,1465 Incarnation Dr,Charlottesville,VA,22901
Dominican Fathers,308 Alderman Rd,Charlottesville,VA,22903
Holy Comforter Catholic Church,208 E Jefferson St,Charlottesville,VA,22902
St Thomas Aquinas Church,331 Kent Rd,Charlottesville,VA,22903
Cherry Avenue Christian Church,1720 Cherry Ave,Charlottesville,VA,22903
Southside Christian Church,810 Blenheim Ave,Charlottesville,VA,22902
Church of Our Saviour,1165 Rio Rd E,Charlottesville,VA,22901
St Paul's Memorial Church,1700 University Ave,Charlottesville,VA,22903
St Mark's Lutheran Church,100 Alderman Rd,Charlottesville,VA,22903
Hinton Avenue United Methodist,750 Hinton Ave,Charlottesville,VA,22902
Ivy Creek United Methodist Chr,674 Woodlands Rd,Charlottesville,VA,22901
Wesley Memorial United Meth,1901 Thomson Rd,Charlottesville,VA,22903
Bhagyalakshmi R Dr,526 Eastbrook Dr,Charlottesville,VA,22901
Christ Community Church,329 Riverside Ave,Charlottesville,VA,22902
Clear River Church,PO Box 8266,Charlottesville,VA,22906
Maple Grove Christian Church,3210 Proffit Rd,Charlottesville,VA,22911
Covenant Church of God,1025 Rio Rd E,Charlottesville,VA,22901
Meadows Presbyterian Church,2200 Angus Rd,Charlottesville,VA,22901
Olivet Presbyterian Church,2575 Garth Rd,Charlottesville,VA,22901
First Church Of Nazarene,411 E Hemlock St,Covington,VA,24426
Abundant Life Ministries,12 Lincoln Ave,Staunton,VA,24401
Albemarle Baptist Association Clthng,815 Bolling Ave,Charlottesville,VA,22902
Albemarle Baptist Church,1685 Roslyn Ridge Rd,Charlottesville,VA,22901
All Saints Anglican Church,3889 Ivy Rd,Charlottesville,VA,22903
Alliance Bible Church,1410 Old Brook Rd,Charlottesville,VA,22901
Alliance For Interfaith Mnstrs,1025 Park St,Charlottesville,VA,22901
Berea Baptist Church,PO Box 280,South Anna,VA,23146
Chancellor Baptist Church,11324 Gordon Rd,Fredericksburg,VA,22407
Chatham Baptist,1717 Stafford Ave,Fredericksburg,VA,22401
Choice Baptist Church,16 Burton Loop,Fredericksburg,VA,22406
Falmouth Baptist Church,302 Colonial Ave,Fredericksburg,VA,22405
Ferry Farm Baptist Church,1 Westmoreland Dr,Fredericksburg,VA,22405
Fredericksburg Baptist Church,1019 Princess Anne St,Fredericksburg,VA,22401
Hulls Memorial Baptist Church,256 Enon Rd,Fredericksburg,VA,22406
Kings Highway Baptist Church,15 Pine Rd,Fredericksburg,VA,22405
Massaponax Baptist Church,5101 Massaponax Church Rd,Fredericksburg,VA,22407
Spotswood Baptist Church,4009 Lafayette Blvd,Fredericksburg,VA,22408
Sylvania Heights Baptist Chr,150 Church St,Fredericksburg,VA,22408
Zoan Baptist Church,5888 Plank Rd,Fredericksburg,VA,22407
St Patrick's Church,9151 Elys Ford Rd,Fredericksburg,VA,22407
Trinity Episcopal Church,PO Box 127,Upperville,VA,20185
Salem Fields Community Church,11120 Gordon Rd,Fredericksburg,VA,22407
Eastland United Methodist Chr,10718 Courthouse Rd,Fredericksburg,VA,22407
Fredericksburg Refugee,308 Hanover St,Fredericksburg,VA,22401
Hillcrest United Methodist,2208 Lafayette Blvd,Fredericksburg,VA,22401
New Hope United Methodist,164 New Hope Church Rd,Fredericksburg,VA,22405
Peace United Methodist Church,801 Maple Grove Dr,Fredericksburg,VA,22407
St Matthias United Methodist,426 Deacon Rd,Fredericksburg,VA,22405
Faith Christian Ctr,PO Box 1669,Fredericksburg,VA,22402
Grace Church of Fredericksburg,1141 Heatherstone Dr,Fredericksburg,VA,22407
Ni River Community Church,"3920 Plank Rd, #210",Fredericksburg,VA,22407
Strong Tower Ministries,234 Ferry Rd,Fredericksburg,VA,22405
Highway Assembly of God,2221 Jefferson Davis Hwy,Fredericksburg,VA,22401
Spotsylvania Church of God,12240 Five Mile Rd,Fredericksburg,VA,22407
New Life in Christ,11925 Burgess Ln,Fredericksburg,VA,22407
Presbyterian Church,810 Princess Anne St,Fredericksburg,VA,22401
Spotsylvania Presbyterian Chr,11121 Leavells Rd,Fredericksburg,VA,22407
Pentecostal Church Of God,4404 Kentland Dr,Woodbridge,VA,22193
United Church Of Christ,1010 Headquarters Rd,Edinburg,VA,22824
,6621 Broad Creek Overlook,Fredericksburg,VA,22407
1St Church Of Christ Scientist,402 Confederate Blvd,Fredericksburg,VA,22401
Agape Fellowship Ministries,26 Perchwood Dr,Fredericksburg,VA,22405
Agape Preparatory Academy,24 Perchwood Dr,Fredericksburg,VA,22405
Agnus Dei Lutheran Church,10000 Germanna Point Dr,Fredericksburg,VA,22408
Berryville Baptist Church,114 Academy St,Berryville,VA,22611
Duncan Memorial United,210 E Main St,Berryville,VA,22611
Bethany Baptist Church,2587 Campostella Rd,Chesapeake,VA,23324
Biltmore Baptist Church,1300 New York Ave,Glen Allen,VA,23060
Calvary Evangelical Baptist,205 Gust Ln,Portsmouth,VA,23701
Collinswood Baptist Church,1030 City Park Ave,Portsmouth,VA,23701
Court Street Baptist Church,PO Box 733,Lynchburg,VA,24505
Fairview Heights Baptist Chr,4704 Deep Creek Blvd,Portsmouth,VA,23702
First Baptist Church South,1445 Centre Ave,Portsmouth,VA,23704
Green Lakes Baptist Church,1610 Hodges Ferry Rd,Portsmouth,VA,23701
Grove Baptist Church,PO Box 6142,Portsmouth,VA,23703
Grove Park Baptist Church,1400 Rodman Ave,Portsmouth,VA,23707
Mount Hermon Baptist Temple,2901 London Blvd,Portsmouth,VA,23707
New Bethel Baptist Church,3911 Big Bethel Rd,Yorktown,VA,23693
New First Baptist Church,PO Box 7035,Portsmouth,VA,23707
New Mount Vernon Baptist Chr,3555 Victory Blvd,Portsmouth,VA,23701
Noble Street Baptist Church,100 Noble St,Portsmouth,VA,23702
Park View Baptist Church,225 Hatton St,Portsmouth,VA,23704
Pinecrest Baptist Church,209 Felton Rd,Portsmouth,VA,23701
Port Norfolk Baptist Church,401 Broad St,Portsmouth,VA,23707
St John Baptist Church,2200 Effingham St,Portsmouth,VA,23704
St Marks Missionary Baptist,2714 Frederick Blvd,Portsmouth,VA,23704
Sweethaven Baptist Church,5000 W Norfolk Rd,Portsmouth,VA,23703
Western Branch Baptist Church,6952 Old Myrtle Rd,Suffolk,VA,23434
Westhaven Baptist Church,4900 Caroline Ave,Portsmouth,VA,23707
Holy Angels Catholic Church,34 Afton Pky,Portsmouth,VA,23702
Victory Christian Church,2925 Victory Blvd,Portsmouth,VA,23702
West Park Church of Christ,PO Box 3267,Portsmouth,VA,23701
West Side Christian Church,PO Box 3345,Portsmouth,VA,23701
St Christopher's Episcopal Chr,6320 Hanover Ave,Springfield,VA,22150
Alliance Church,5809 Portsmouth Blvd,Portsmouth,VA,23701
Holy Communion Lutheran Church,6220 Portsmouth Blvd,Portsmouth,VA,23701
St Andrew Lutheran Church,14640 Soucy Pl,Centreville,VA,20120
Broad Street United Methodist,300 Broad St,Portsmouth,VA,23707
Monumental United Methodist,450 Dinwiddie St,Portsmouth,VA,23704
West End United Methodist Chr,1800 Rodman Ave,Portsmouth,VA,23707
Bethel Temple Church,2106 County St,Portsmouth,VA,23704
Churchland Assembly of God,PO Box 6744,Portsmouth,VA,23703
First United Pentecostal Chr,35 Haysom St,Portsmouth,VA,23701
Greater Mount Zion Tabernacle,3100 Deep Creek Blvd,Portsmouth,VA,23704
Holy Light Church-Deliverance,PO Box 217,Portsmouth,VA,23705
Mt Sinai United Holy Church,2710 Columbus Ave,Portsmouth,VA,23704
Portsmouth First Pentecostal,3915 Turnpike Rd,Portsmouth,VA,23701
St Mark Church of Deliverance,3801 Turnpike Rd,Portsmouth,VA,23701
Tidewater Bibleway Temple,PO Box 1063,Portsmouth,VA,23705
United Full Gospel Revival Ctr,PO Box 7067,Portsmouth,VA,23707
Community United Presbyterian,801 Tazewell St,Portsmouth,VA,23701
Cradock Presbyterian Church,39 Afton Pky,Portsmouth,VA,23702
Green Acres Presbyterian Chr,3135 Hanley Ave,Portsmouth,VA,23703
Simonsdale Presbyterian Church,5016 Vick St,Portsmouth,VA,23701
United Congregational Church,5900 Portsmouth Blvd,Portsmouth,VA,23701
Zion Bethel United Ch Christ,1617 Des Moines Ave,Portsmouth,VA,23704
Portsmouth Assembly Of God,912 Elmhurst Ln,Portsmouth,VA,23701
Portsmouth Church Of Christ,2130 Airline Blvd,Portsmouth,VA,23701
Macedonia Church Of God-christ,1800 Azalea Ave,Portsmouth,VA,23704
New Destiny Revival Worship,2515 Victory Blvd,Portsmouth,VA,23702
Angel Food Ministries Cradock,96 Afton Pky,Portsmouth,VA,23702
Bethel Baptist Church Sbc,1832 Elbow Rd,Chesapeake,VA,23320
Centerville Baptist Church,908 Centerville Tpke S,Chesapeake,VA,23322
Churchland Baptist Church,3031 Churchland Blvd,Chesapeake,VA,23321
Deep Creek Baptist Church,250 Mill Creek Pky,Chesapeake,VA,23323
Elizabeth River Baptist Church,601 Sparrow Rd,Chesapeake,VA,23325
First Baptist Church Crestwood,4701 Bainbridge Blvd,Chesapeake,VA,23320
Good News Baptist Church,3252 Taylor Rd,Chesapeake,VA,23321
Grassfield Baptist Church,1772 Cedar Rd,Chesapeake,VA,23323
Great Bridge Baptist Church,640 Battlefield Blvd S,Chesapeake,VA,23322
Great Bridge Freewill Baptist,700 Mt Pleasant Rd,Chesapeake,VA,23322
Indian River Baptist Church,1600 Laurel Ave,Chesapeake,VA,23325
Jackson Memorial Baptist Chr,4316 Bruce Rd,Chesapeake,VA,23321
Lee Memorial Baptist Church,PO Box 9187,Chesapeake,VA,23321
Mt Lebanon Baptist Church,884 Bells Mill Rd,Chesapeake,VA,23322
New Galilee Baptist Church,PO Box 2874,Chesapeake,VA,23327
New Weeping Mary Baptist Chr,1104 Fentress Rd,Chesapeake,VA,23322
Philadelphia Fellowship,PO Box 13116,Chesapeake,VA,23325
Point Harbor Community Church,2705 Taylor Rd,Chesapeake,VA,23321
Raleigh Heights Baptist Church,1000 Crowell Ave,Chesapeake,VA,23324
River Oak Church,140 Kempsville Rd,Chesapeake,VA,23320
Rose of Sharon Missionary Bapt,PO Box 14038,Chesapeake,VA,23325
South Norfolk Baptist Church,1101 Chesapeake Ave,Chesapeake,VA,23324
Wayside Baptist Church,PO Box 6582,Chesapeake,VA,23323
Willow Grove Baptist Church,841 Saint Brides Rd W,Chesapeake,VA,23322
Woodland Heights Baptist Chr,529 Providence Rd,Chesapeake,VA,23325
Church of St Therese,6262 Main St,Zanoni,VA,23061
Prince of Peace Catholic Chr,621 Cedar Rd,Chesapeake,VA,23322
St Stephen Martyr,1544 Battlefield Blvd S,Chesapeake,VA,23322
Laurel Avenue Church of Christ,1126 Laurel Ave,Chesapeake,VA,23325
Living Stones Christian Church,1708 S Park Ct,Chesapeake,VA,23320
Park View Christian Church,3201 Western Branch Blvd,Chesapeake,VA,23321
South Norfolk Church of Christ,2526 Rodgers St,Chesapeake,VA,23324
Providence Road Church-Christ,921 Providence Rd,Chesapeake,VA,23325
Episcopal Church-the Messiah,816 Kempsville Rd,Chesapeake,VA,23320
Apostles Lutheran Church,PO Box 1010,Zanoni,VA,23061
Mt Pleasant Mennonite Church,2041 Mount Pleasant Rd,Chesapeake,VA,23322
Chesapeake Ave United Meth Chr,1200 Chesapeake Ave,Chesapeake,VA,23324
Covenant United Methodist Chr,2004 Dock Landing Rd,Chesapeake,VA,23321
Deep Creek Umc,141 George Washington Hwy N,Chesapeake,VA,23323
Great Bridge United Methodist,201 Stadium Dr,Chesapeake,VA,23322
Hickory United Methodist Chr,2708 Battlefield Blvd S,Chesapeake,VA,23322
Jolliff United Methodist Chr,1900 Jolliff Rd,Chesapeake,VA,23321
Lee's Chapel Ame Church,1036 Bells Mill Rd,Chesapeake,VA,23322
Messiah United Methodist Chr,6215 Rolling Rd,Springfield,VA,22152
Oak Grove United Methodist Chr,472 Battlefield Blvd N,Chesapeake,VA,23320
Oaklette United Methodist Chr,520 Oaklette Dr,Chesapeake,VA,23325
Portlock United Methodist Chr,799 Redstart Ave,Chesapeake,VA,23324
St Paul's United Methodist Chr,437 Providence Rd,Chesapeake,VA,23325
Believer's,PO Box 9559,Chesapeake,VA,23321
New Life Christian Fellowship,253 Kegman Rd E,Chesapeake,VA,23322
Sovereign Grace Church,508 Centerville Tpke N,Chesapeake,VA,23320
Unity Renaissance,1120 Eden Way N,Chesapeake,VA,23320
Bible World Church Upc,600 Happy Acres Rd,Chesapeake,VA,23323
Bibleway Holiness Church,2520 Dexter St E,Chesapeake,VA,23324
Cathedral of Faith-Cogic,2020 Portlock Rd,Chesapeake,VA,23324
Cedar Road Assembly of God,916 Cedar Rd,Chesapeake,VA,23322
Coastlands Community Church,1119 Lindale Dr,Chesapeake,VA,23320
Faith Alive Ministries,423 Shell Rd,Chesapeake,VA,23323
Great Bridge Church of God,PO Box 15514,Chesapeake,VA,23328
Harvest Assembly of God,525 Kempsville Rd,Chesapeake,VA,23320
Holy Temple Ministry,740 Great Bridge Blvd,Chesapeake,VA,23320
Parkway Temple,601 Volvo Pky,Chesapeake,VA,23320
Restoration Church-Deliverance,PO Box 13573,Chesapeake,VA,23325
Western Branch Community Chr,1935 Jolliff Rd,Chesapeake,VA,23321
Fellowship United Church,1402 Gust Ln,Chesapeake,VA,23323
Great Bridge Presbyterian,333 Cedar Rd,Chesapeake,VA,23322
Providence United Chr-Christ,2200 Vicker Ave,Chesapeake,VA,23324
South Norfolk Congregational,1030 Jackson Ave,Chesapeake,VA,23324
Chesapeake Community Of Hope,209 Dominion Blvd S,Chesapeake,VA,23322
Shoreline Church Of Christ,15785 PO Box,Chesapeake,VA,0
St Joseph Of Optina,3972 S Military Hwy,Chesapeake,VA,23321
Broadmoor Church Of Christ,3045 S Military Hwy,Chesapeake,VA,23323
Philippians Church Of Christ,1927 Liberty St,Chesapeake,VA,23324
Chesapeake Church Of Christ,1021 Mount Pleasant Rd,Chesapeake,VA,23322
Community Church Of Chesapeake,253 Saint Lukes Church Rd,Chesapeake,VA,23320
Fairview Church Of Christ,1112 Tatemstown Rd,Chesapeake,VA,23325
Fshs Church Of Grace,1615 Wood Ave,Chesapeake,VA,23325
Alexander Baptist Church,4316 Pamela Ct,Chesapeake,VA,23321
Brown Grove Baptist Church,12816 Bailey Bridge Rd,Midlothian,VA,23112
Parkway Baptist Church,"13541 E Boundary Rd, #116",Midlothian,VA,23112
Spring Creek Baptist Church,11900 Genito Rd,Midlothian,VA,23112
Swift Creek Baptist Church,PO Box 235,Colonial Heights,VA,23834
Tomahawk Baptist Church,12920 Hull St Rd,Midlothian,VA,23112
Winfree Memorial Baptist Chr,PO Box 244,Midlothian,VA,23113
Countryside Christian Church,3509 Old Hundred Rd S,Midlothian,VA,23112
Episcopal Church-the Redeemer,2341 Winterfield Rd,Midlothian,VA,23113
Manakin Episcopal Church,985 Huguenot Trl,Midlothian,VA,23113
St Joseph's Episcopal Church,1970 Castlebridge Rd,Midlothian,VA,23113
St Matthias' Episcopal Church,11300 W Huguenot Rd,Midlothian,VA,23113
Mt Pisgah United Methodist Chr,1100 Mount Pisgah Dr,Midlothian,VA,23113
Woodlake United Methodist Chr,6601 Woodlake Village Pky,Midlothian,VA,23112
Kingdom Harvest Intl Church,PO Box 4093,Midlothian,VA,23112
Kings Way Community Church,500 Le Gordon Dr,Midlothian,VA,23114
First Commonwealth Church,11000 Hull St Rd,Midlothian,VA,23112
Victory Tabernacle Church-God,11700 Genito Rd,Midlothian,VA,23112
Salisbury Presbyterian Church,13621 W Salisbury Rd,Midlothian,VA,23113
Swift Creek Presbyterian Chr,PO Box 1742,Midlothian,VA,23113
Sycamore Presbyterian Church,510 Coalfield Rd,Midlothian,VA,23114
Andrew George,12310 Bailey Bridge Rd,Midlothian,VA,23112
Fellowship Community Church,PO Box 1725,Salem,VA,24153
Fort Lewis Baptist Church,4215 W Main St,Salem,VA,24153
West Salem Baptist Church,500 Turner Rd,Salem,VA,24153
Our Lady of Perpetual Help,314 Turner Rd,Salem,VA,24153
Fort Lewis Christian Church,2931 W Main St,Salem,VA,24153
College Lutheran Church,210 S College Ave,Salem,VA,24153
Locust Grove Church,3415 Locust Grove Ln,Salem,VA,24153
Church of Christ of Westside,PO Box 427,Salem,VA,24153
Salem Church of Christ,401 W Main St,Salem,VA,24153
Christian Life Intl,307 N Bruffey St,Salem,VA,24153
Salem Presbyterian Church,PO Box 536,Salem,VA,24153
Bethel Assembly Of God,111 Totten Ln,Front Royal,VA,22630
Glenvar Church Of God-prophecy,4338 Alleghany Dr,Salem,VA,24153
Salem Church Of God,600 Craig Ave,Salem,VA,24153
Salem Church Of Nazarene,3631 Evelyn Dr,Salem,VA,24153
Church Of Christ Of Westside,1705 Starview Dr,Salem,VA,24153
Cary's Baptist Church,1615 Carys Chapel Rd,Yorktown,VA,23693
Crossroads Community Church,1420 Lakeside Dr,Yorktown,VA,23692
Grafton Baptist Church,PO Box 980,Yorktown,VA,23692
Maranatha Baptist Church,221 Hampton Hwy,Yorktown,VA,23693
Yorktown Baptist Church,237 Nelson St,Yorktown,VA,23690
Zion Prospect Baptist Church,408 Darby Rd,Yorktown,VA,23693
St Joan of Arc Church,315 Harris Grove Ln,Yorktown,VA,23692
St Kateri Tekakwitha Catholic,3800 Big Bethel Rd,Yorktown,VA,23693
Northside Church of Christ,"1213 George Washington Mem Hwy, #e",Yorktown,VA,23693
St Mark Lutheran Church,118 Old York-Hampton Hwy,Yorktown,VA,23692
Crooks Mem United Methodist,401 York Warwick Dr,Yorktown,VA,23692
Crooks Memorial United Meth,204 Cook Rd,Yorktown,VA,23690
All Generations Church,101 Valentine Cir,Yorktown,VA,23692
Mt Hope Baptist Church,1653 Brooke Rd,Stafford,VA,22554
Ramoth Baptist Church,478 Ramoth Church Rd,Stafford,VA,22554
Stafford Baptist Church,2202 Jefferson Davis Hwy,Stafford,VA,22554
St William of York- Rel Ed Ofc,3130 Jefferson Davis Hwy,Stafford,VA,22554
Aquia Episcopal Church,PO Box 275,Stafford,VA,22555
St Peter's Lutheran Church,1201 Courthouse Rd,Stafford,VA,22554
Regester Chapel United Meth,PO Box 697,Stafford,VA,22555
Church of Jesus Christ of Lds,17272 Hudson Mill Rd,Culpeper,VA,22701
Horizons Community Church,"24 Onville Rd, #202",Stafford,VA,22556
Stafford County Christian Chr,1813 Mountain View Rd,Stafford,VA,22554
Summit Presbyterian Church,256 Shelton Shop Rd,Stafford,VA,22554
Stafford Church Of God,649 Garrisonville Rd,Stafford,VA,22554
Abundant Life,200 Onville Rd,Stafford,VA,22556
Brookville Baptist Church,1916 Florida Ave,Lynchburg,VA,24501
Campbell Avenue Baptist Church,3705 Campbell Ave,Lynchburg,VA,24501
Center,305 6th St,Lynchburg,VA,24504
Chestnut Hill Baptist Church,5225 Fort Ave,Lynchburg,VA,24502
College Hill Baptist Church,1101 Floyd St,Lynchburg,VA,24501
Heritage Baptist Church,7777 Cogbill Rd,Chesterfield Court House,VA,23832
Hyland Heights Baptist Church,PO Box 4538,Lynchburg,VA,24502
Keystone Baptist Church,212 Fleetwood Dr,Lynchburg,VA,24501
Leawood Baptist Church,345 Munford St,Lynchburg,VA,24501
Old Forest Road Baptist Church,3630 Old Forest Rd,Lynchburg,VA,24501
Pleasant View Baptist Church,19278 Forest Rd,Lynchburg,VA,24502
Rivermont Avenue Baptist Chr,1301 Rivermont Ave,Lynchburg,VA,24504
Rivermont Baptist Church,122 Sunset Pl,Danville,VA,24540
Sandusky Baptist Church,915 Catalina Pl,Lynchburg,VA,24502
Thomas Road Baptist Church,PO Box 4303,Lynchburg,VA,24502
Timberlake Baptist Church,356 Lindhurst Dr,Danville,VA,24540
West Lynchburg Baptist Church,3031 Memorial Ave,Lynchburg,VA,24501
Holy Cross Catholic Church,710 Clay St,Lynchburg,VA,24504
St Thomas More Catholic Church,3015 Roundelay Rd,Lynchburg,VA,24502
Euclid Christian Church,2220 Memorial Ave,Lynchburg,VA,24501
Fairview Christian Church,2701 Campbell Ave,Lynchburg,VA,24501
Memorial Christian Church,615 Perrymont Ave,Lynchburg,VA,24502
Timberlake Christian Church,20261 Lynchburg Hwy,Lynchburg,VA,24502
Grace Memorial Episcopal Chr,1021 New Hampshire Ave,Lynchburg,VA,24502
Holy Trinity Lutheran Church,605 W Market St,Leesburg,VA,20176
Boonsboro United Methodist Chr,113 Coffee Rd,Lynchburg,VA,24503
Chestnut Hill United Methodist,4660 Fort Ave,Lynchburg,VA,24502
Court Street United Methodist,621 Court St,Lynchburg,VA,24504
Forest Road United Methodist,2805 Old Forest Rd,Lynchburg,VA,24501
Fort Hill United Methodist Chr,106 Oakridge Blvd,Lynchburg,VA,24502
Heritage United Methodist Chr,582 Leesville Rd,Lynchburg,VA,24502
Marsh Memorial United Mthdst,20348 Leesville Rd,Lynchburg,VA,24502
Park View United Methodist,2420 Memorial Ave,Lynchburg,VA,24501
Peakland United Methodist Chr,4434 Boonsboro Rd,Lynchburg,VA,24503
Shiloh United Methodist Church,18281 Forest Rd,Lynchburg,VA,24502
Timberlake United Methodist,21649 Timberlake Rd,Lynchburg,VA,24502
Blue Ridge Community Church,3410 Old Forest Rd,Lynchburg,VA,24501
Cornerstone Community Church,2201 Park Ave,Lynchburg,VA,24501
Family Life Christian Church,PO Box 10301,Lynchburg,VA,24506
Grace Evangelical Free Church,3225 Old Forest Rd,Lynchburg,VA,24501
New Life Gospel Assembly,2261 Campbell Ave,Lynchburg,VA,24501
Shekijah Preparation Assembly,104 Fleetwood Dr,Lynchburg,VA,24501
Tree of Life Pentecostal,PO Box 4572,Lynchburg,VA,24502
Covenant Presbyterian Church,2481 W Longview Dr,Woodbridge,VA,22191
Quaker Memorial Presbyterian,PO Box 4056,Lynchburg,VA,24502
Rivermont Presbyterian Church,PO Box 3017,Lynchburg,VA,24503
St Andrew Presbyterian Church,711 W Main St,Purcellville,VA,20132
Temple Of Worship Ministry,2409 Poplar St,Lynchburg,VA,24504
Kingdom Hall Of Jehovah's,511 Dare Rd,Grafton,VA,23692
Fellowship Church Of Christ,1816 Bedford Ave,Lynchburg,VA,24504
First Church Of Jesus,1208 Franklin Ave,Altavista,VA,24517
Lynchburg Church Of God,512 Breezewood Dr,Lynchburg,VA,24502
Berean Baptist Of Lynchburg,1400 Greenview Dr,Lynchburg,VA,24502
Agudath Sholom Synagogue,2055 Langhorne Rd,Lynchburg,VA,24501
All Peoples Church,2416 Langhorne Rd,Lynchburg,VA,24501
All Souls Church,4793 PO Box,Lynchburg,VA,0
Amazing Grace Baptist Church,2012 Grace St,Lynchburg,VA,24504
Amazing Grace Ministries,101 Morgan St,Lynchburg,VA,24501
Glen Allen Baptist,PO Box 1245,Glen Allen,VA,23060
Hunton Baptist Church,11660 Greenwood Rd,Glen Allen,VA,23059
Mt Vernon Baptist Church,11220 Nuckols Rd,Glen Allen,VA,23059
St Peter Baptist Church,2040 Mountain Rd,Glen Allen,VA,23060
Staples Mill Road Bapt Church,10101 Staples Mill Rd,Glen Allen,VA,23060
St Anthony's Maronite Catholic,4611 Sadler Rd,Glen Allen,VA,23060
St Michaels Catholic,4491 Springfield Rd,Glen Allen,VA,23060
Calvary Christian Church,14196 Ashland Rd,Glen Allen,VA,23059
New Found Church of Christ,PO Box 1399,Glen Allen,VA,23060
Greenwood United Methodist Chr,10040 Greenwood Rd,Glen Allen,VA,23060
Glen Allen Community Church,11801 Nuckols Rd,Glen Allen,VA,23059
Hindu Center Of Virginia,6051 Springfield Rd,Glen Allen,VA,23060
Abner Baptist Church,15143 Abner Church Rd,Glen Allen,VA,23059
Blessed Hope Baptist Church,1118 Franklin Tpke,Danville,VA,24540
Forest Lawn Baptist Church,1816 W Main St,Danville,VA,24541
Jones Chapel Missionary Bapt,201 Barrett St,Danville,VA,24541
Keen Street Baptist Church,541 Keen St,Danville,VA,24540
Loyal Baptist Church,468 Holbrook St,Danville,VA,24541
Melville Ave Baptist Church,745 Melville Ave,Danville,VA,24540
Moffett Memorial Baptist Chr,1026 N Main St,Danville,VA,24540
Mount Hermon Baptist Church,4385 Franklin Tpke,Danville,VA,24540
New Testament Baptist,691 Iris Ln,Danville,VA,24540
North Main Baptist Church,2818 N Main St,Danville,VA,24540
Schoolfield Baptist Church,12 Schoolfield Dr,Danville,VA,24541
Shermont Baptist Church,781 Mt Cross Rd,Danville,VA,24540
Stokesland Baptist Church,PO Box 2568,Danville,VA,24541
Tabernacle Learning Ctr,1978 S Boston Rd,Danville,VA,24540
Vance Street Baptist Church,PO Box 4426,Danville,VA,24540
Vandola Baptist Church,PO Box 10670,Danville,VA,24543
West Main Baptist Church,450 W Main St,Danville,VA,24541
Woodberry Hills Baptist Church,617 Audubon Dr,Danville,VA,24540
Episcopal Church-the Epiphany,115 Jefferson Ave,Danville,VA,24541
Ascension Lutheran Church,314 W Main St,Danville,VA,24541
Brosville United Methodist Chr,12648 Martinsville Hwy,Danville,VA,24541
Grace Umc Parsonage,123 Conway Dr,Danville,VA,24540
Mosley Memorial United Meth,601 Berryman Ave,Danville,VA,24541
Mt Vernon Methodist Church,107 W Main St,Danville,VA,24541
Full Gospel Fellowship Church,854 Luna Lake Rd,Danville,VA,24541
New Life Community Church,PO Box 10429,Danville,VA,24543
Abundant Life World Outreach,955 Mount Cross Rd,Danville,VA,24540
Central Blvd Church of God,235 Hairston St,Danville,VA,24540
First Pentecostal Holiness Chr,1810 N Main St,Danville,VA,24540
New Hope Apostolic,226 New St,Danville,VA,24540
Riveroak Church of God,120 River Oak Dr,Danville,VA,24541
Third Ave Christian Church,215 3rd Ave,Danville,VA,24540
Emanuel Church Of Brethren,1530 Westover Dr,Danville,VA,24541
Crosspoint Assembly Of God,168 Arnett Blvd,Danville,VA,24540
Nor-dan Church Of Christ,208 Orchard Dr,Danville,VA,24540
A R Linder Mt Sina,718 Jefferson St,Danville,VA,24541
Allgood I T Rev,1581 Halifax Rd,Danville,VA,24540
Broadway Baptist Church,PO Box 804,Hopewell,VA,23860
Powers Memorial Baptist Church,2807 Jackson St,Hopewell,VA,23860
Nazareth Lutheran Church,1711 Grant St,Hopewell,VA,23860
Church of God South Hopewell,PO Box 379,Hopewell,VA,23860
Woodlawn Presbyterian Church,1201 Blackstone Ave,Hopewell,VA,23860
Brookneal Baptist Church,PO Box 366,Brookneal,VA,24528
Falling River Baptist Church,2874 Wickliffe Rd,Brookneal,VA,24528
Buchanan Baptist Church,PO Box 537,Buchanan,VA,24066
Cedar Bluff Baptist Church,PO Box 512,Buchanan,VA,24066
Thomas Terrace Baptist Church,PO Box 965,Concord,VA,24538
Colonial Heights Baptist Chr,231 Chesterfield Ave,Colonial Heights,VA,23834
Mount Pleasant Baptist Daycare,3110 Greenwood Ave,Colonial Heights,VA,23834
Highland United Methodist Chr,PO Box 37,Colonial Heights,VA,23834
Ivey Memorial United Meth Chr,17120 Jefferson Davis Hwy,Colonial Heights,VA,23834
Bethesda Baptist Church,15800 Woods Edge Rd,Colonial Heights,VA,23834
Colonial Heights Presbyterian,PO Box 339,Colonial Heights,VA,23834
Calvary Hill Baptist Church,9301 Little River Tpke,Fairfax,VA,22031
Fair Oaks Church,4601 West Ox Rd,Fairfax,VA,22030
Fairfax Baptist Church,10830 Main St,Fairfax,VA,22030
Greater Little Zion Baptist,10185 Zion Dr,Fairfax,VA,22032
Mount Calvary Baptist Church,PO Box 82,Providence Forge,VA,23140
St Leo's Catholic Church,3700 Old Lee Hwy,Fairfax,VA,22030
St Marys of Sorrows Catholic,5222 Sideburn Rd,Fairfax,VA,22032
Fairfax Christian Church,10185 Main St,Fairfax,VA,22031
Fairfax Church of Christ,3901 Rugby Rd,Fairfax,VA,22033
Church of the Apostles,3500 Pickett Rd,Fairfax,VA,22031
Truro Episcopal Church,10520 Main St,Fairfax,VA,22030
Fairfax Community Church,4100 Hunt Rd,Fairfax,VA,22032
Barcroft Bible Church,9401 Little River Tpke,Fairfax,VA,22031
Congregation Olam Tikvah,3800 Glenbrook Rd,Fairfax,VA,22031
Christ Lutheran Church Elca,3810 Meredith Dr,Fairfax,VA,22030
King of Kings Lutheran Church,4025 Kings Way,Fairfax,VA,22033
Lord of Life Lutheran Church,5114 Twinbrook Rd,Fairfax,VA,22032
Fairfax United Methodist Chr,10300 Stratford Ave,Fairfax,VA,22030
Pender United Methodist Church,12401 Alder Woods Dr,Fairfax,VA,22033
St George's United Methodist,4910 Ox Rd,Fairfax,VA,22030
Fairfax Covenant Church,5200 Ox Rd,Fairfax,VA,22030
Fairfax Assembly of God,4104 Legato Rd,Fairfax,VA,22033
Jubilee Christian Ctr,4650 Shirley Gate Rd,Fairfax,VA,22030
Fairfax Presbyterian Church,10723 Main St,Fairfax,VA,22030
American Lutheran Church,10001 Manor Pl,Fairfax,VA,22032
Calvery Baptist Church,PO Box 1002,Smithfield,VA,23431
Main Street Learning Ctr,PO Box 159,Smithfield,VA,23431
Smithfield Baptist Church,100 Wainwright Dr,Smithfield,VA,23430
Whiteheads Grove Baptist Chr,18366 Benns Church Blvd,Smithfield,VA,23430
Benns Methodist Church,14571 Benns Church Blvd,Smithfield,VA,23430
Capital Baptist Church,3504 Gallows Rd,Annandale,VA,22003
Parkwood Baptist Church,8726 Braddock Rd,Annandale,VA,22003
Ravensworth Baptist Church,5100 Ravensworth Rd,Annandale,VA,22003
Holy Spirit Catholic Church,5121 Woodland Way,Annandale,VA,22003
St Ambrose Catholic Church,3827 Woodburn Rd,Annandale,VA,22003
St Albans Episcopal Church,6800 Columbia Pike,Annandale,VA,22003
St Barnabas Episcopal Church,4801 Ravensworth Rd,Annandale,VA,22003
Calvary Church of the Nazarene,8220 Little River Tpke,Annandale,VA,22003
Annandale United Methodist Chr,6935 Columbia Pike,Annandale,VA,22003
Immanuel United Methodist Chr,7901 Heritage Dr,Annandale,VA,22003
John Calvin Presbyterian Chr,6531 Columbia Pike,Annandale,VA,22003
Little River United Chr-Christ,8410 Little River Tpke,Annandale,VA,22003
Amazing Grace International In,8213 Guinevere Dr,Annandale,VA,22003
Ambassadors Of Mary,5039 Backlick Rd,Annandale,VA,22003
Lane Memorial Methodist Church,1201 Bedford Ave,Altavista,VA,24517
Altavista Presbyterian Church,707 Broad St,Altavista,VA,24517
Prayer House Of Deliverance,720 16th St,Altavista,VA,24517
Faith Liberty Baptist Church,PO Box 2434,Woodbridge,VA,22195
First Baptist Church Sbc,PO Box 6788,Woodbridge,VA,22195
Lake Ridge Baptist Church,12450 Clipper Dr,Woodbridge,VA,22192
Potomac Crest Baptist Church,PO Box 5322,Woodbridge,VA,22194
Tracey Baptist Church,3610 Wanda Ct,Woodbridge,VA,22193
St Elizabeth Ann Seton Church,12805 Valleywood Dr,Woodbridge,VA,22192
Harvest Life Changers Church,PO Box 4514,Woodbridge,VA,22194
New Life Anointed Christian,14508 Telegraph Rd,Woodbridge,VA,22192
St Margaret's Episcopal Church,13900 Church Hill Dr,Woodbridge,VA,22191
Grace Lutheran Church Mo Synod,2466 W Longview Dr,Woodbridge,VA,22191
Bethel United Methodist Church,13506 Minnieville Rd,Woodbridge,VA,22192
Old Bridge United Methodist,3966 Old Bridge Rd,Woodbridge,VA,22192
Christian Hope Ctr Church,14747 Arizona Ave,Woodbridge,VA,22191
Grace Christian Church,3050 Ps Business Center Dr,Woodbridge,VA,22192
Hope Aglow Christian Ctr,14627 Jefferson Davis Hwy,Woodbridge,VA,22191
Hylton Memorial Chapel,14640 Potomac Mills Rd,Woodbridge,VA,22192
Church of God-Trinity Temple,13403 Baxter St,Woodbridge,VA,22191
Church Of Christ Of Woodbridge,13815 Surrey Dr,Woodbridge,VA,22191
Abundant Life Baptist Church,14505 Jefferson Davis Hwy,Woodbridge,VA,22191
Abundant Life United,14999 Birchdale Ave,Woodbridge,VA,22193
All Saint's Church,5290 Saratoga Ln,Woodbridge,VA,22193
Allard Robert E Rev,12007 Park Shore Ct,Woodbridge,VA,22192
Centreville Baptist Church,15100 Lee Hwy,Centreville,VA,20120
New Life Christian Church,PO Box 403,Centreville,VA,20122
Centreville United Methodist,6400 Old Centreville Rd,Centreville,VA,20121
Capital Worship Ctr,PO Box 1976,Centreville,VA,20122
Centreville Presbyterian Chr,5690 Sully Rd,Centreville,VA,20120
Centreville Assembly Of God,14821 Lee Hwy,Centreville,VA,20121
A R P ,14701 Lee Hwy,Centreville,VA,20121
Chamblissburg Baptist Church,9198 Stewartsville Rd,Moneta,VA,24121
Morgans Baptist Church,PO Box 477,Moneta,VA,24121
Radford Baptist Church,1293 Radford Church Rd,Moneta,VA,24121
Bethelem United Methodist Chr,PO Box 458,Moneta,VA,24121
Mt Ivy Christian Church,230 Pasley Ln,Moneta,VA,24121
Trinity Ecumenical Parish,40 Lakemount Dr,Moneta,VA,24121
Charity Baptist Church,4716 Ruffin Rd,Bland,VA,23860
Hollybrook Church Of Christ,5553 Wilderness Rd,Bland,VA,24315
Chatham Baptist Church,PO Box 104,Chatham,VA,24531
Hollywood Baptist Church,6405 Callands Rd,Chatham,VA,24531
Shockoe Baptist Church,PO Box 968,Chatham,VA,24531
Greenbay Christian Church,641 Piney Rd,Chatham,VA,24531
Watson Memorial United Meth,PO Box 569,Chatham,VA,24531
Cornerstone Church Of Christ,1186 Fairview N,Chatham,VA,24531
Sheva Church Of Christ,4920 Chalk Level Rd,Chatham,VA,24531
Anderson Walter J Reverend,745 Mill Creek Rd,Chatham,VA,24531
Chester Baptist Church,PO Box 2370,Chester,VA,23831
Chester Christian Church,PO Box 3867,Chester,VA,23831
Grace Lutheran Church,3233 Annandale Rd,Falls Church,VA,22042
Bermuda Hundred United Meth,2025 Florence Ave,Chester,VA,23836
Chester United Methodist Chr,12132 Percival St,Chester,VA,23831
River of Love Ministries,2206 E Hundred Rd,Chester,VA,23836
Chester Presbyterian Church,3424 W Hundred Rd,Chester,VA,23831
Chester Church Of Christ,12100 Winfree St,Chester,VA,23831
Chester Church Of God,4700 Lee St,Chester,VA,23831
Rivermont Church Of Christ,2316 E Hundred Rd,Chester,VA,23836
Centralia Presbyterian Church,4625 Centralia Rd,Chester,VA,23831
Angelic Deliverance Mc,4205 Cresthill Rd,Chester,VA,23831
Chesterfield Baptist Church,16520 Hull St Rd,Moseley,VA,23120
Skinquarter Baptist Church,6900 Moseley Rd,Moseley,VA,23120
Woolridge Road Church,5130 Woolridge Rd,Moseley,VA,23120
St Gabriel Catholic Church,PO Box 129,Moseley,VA,23120
Christian Home Baptist Church,20123 Longview Dr,Windsor,VA,23487
Colosse Baptist Church,6361 Rhodes Dr,Windsor,VA,23487
Windsor Baptist Church,PO Box 498,Windsor,VA,23487
Windsor Christian Church,PO Box 407,Windsor,VA,23487
Clearview Baptist Church,PO Box 386,Rustburg,VA,24588
New Chapel Baptist Church,PO Box 515,Rustburg,VA,24588
White's United Methodist Ch,69 Kirkland St,Rustburg,VA,24588
Clifford Baptist Church,PO Box 88,Clifford,VA,24533
Glade Creek Baptist Church,3148 Webster Rd,Blue Ridge,VA,24064
Glade Creek Lutheran Church,3359 Webster Rd,Blue Ridge,VA,24064
Columbia Baptist Church,103 W Columbia St,Falls Church,VA,22046
Glencarlyn Road Baptist Church,3245 Glen Carlyn Rd,Falls Church,VA,22041
National Gardens Baptist Chr,2937 Strathmeade St,Falls Church,VA,22042
St Anthony's Catholic Church,PO Box 275,Colonial Beach,VA,22443
St James Catholic Church,905 Park Ave,Falls Church,VA,22046
St Philips Catholic Church,7500 Saint Philips Ct,Falls Church,VA,22042
Falls Church Church of Christ,PO Box 1036,Falls Church,VA,22041
Falls Church Episcopal,115 E Fairfax St,Falls Church,VA,22046
Temple Rodef Shalom,2100 Westmoreland St,Falls Church,VA,22043
St Paul's Lutheran Church,7426 Idylwood Rd,Falls Church,VA,22043
Christ Crossman United Meth,384 N Washington St,Falls Church,VA,22046
Culmore United Methodist Chr,5901 Leesburg Pike,Falls Church,VA,22041
Dulin United Methodist Church,513 E Broad St,Falls Church,VA,22046
Friendship United Methodist,3527 Gallows Rd,Falls Church,VA,22042
Galloway United Methodist Chr,306 Annandale Rd,Falls Church,VA,22042
Graham Road United Methodist,2929 Graham Rd,Falls Church,VA,22042
Sleepy Hollow Church,3439 Sleepy Hollow Rd,Falls Church,VA,22044
Celebration Ctr of Religious,"2830 Graham Rd, #220",Falls Church,VA,22042
St Katherine's Greek Orthodox,3149 Glen Carlyn Rd,Falls Church,VA,22041
Chinese Christian Church,6071 Leesburg Pike,Falls Church,VA,22041
Falls Church Presbyterian Chr,225 E Broad St,Falls Church,VA,22046
Corinth Baptist Church,PO Box 126,New Kent,VA,23124
Craigs Baptist Church,14123 W Catharpin Rd,Spotsylvania,VA,22551
Good Hope Baptist Church,5602 Courthouse Rd,Spotsylvania,VA,22551
Goshen Baptist Church,9800 Gordon Rd,Spotsylvania,VA,22553
Mine Road Baptist Church,11111 Post Oak Rd,Spotsylvania,VA,22551
St Matthew Catholic Church,8200 Robert E Lee Dr,Spotsylvania,VA,22551
Spotsylvania Assembly of God,PO Box 744,Spotsylvania,VA,22553
River Of Life Worship Center,7408 Jefferson Davis Hwy,Spotsylvania,VA,22551
Crater View Baptist Church,PO Box 1605,Petersburg,VA,23805
Elm Street Baptist Church,29 Elm St,Petersburg,VA,23803
Metropolitan Baptist Church,1021 Halifax St,Petersburg,VA,23803
Monumental Baptist Church,PO Box 1551,Petersburg,VA,23805
Mount Olivet Baptist Church,800 Augusta Ave,Petersburg,VA,23803
Union Branch Baptist Church,11521 River Rd,Chesterfield,VA,23838
Walnut Hill Baptist Church,310 W South Blvd,Petersburg,VA,23805
West End Baptist Church,6506 Boydton Plank Rd,Petersburg,VA,23803
Western Heights Baptist Church,24416 Cox Rd,Petersburg,VA,23803
Wings of Faith Ministries,PO Box 2074,Petersburg,VA,23804
Church of Sacred Heart,4415 County Dr,Petersburg,VA,23805
St Joseph,PO Box 2006,Petersburg,VA,23804
Faith ,1800 E Washington St,Petersburg,VA,23803
Lutheran Church-Our Redeemer,1769 S Sycamore St,Petersburg,VA,23805
Blandford United Methodist Chr,PO Box 1686,Petersburg,VA,23805
Greater Faith Ame Zion,1301 Youngs Rd,Petersburg,VA,23803
Kenwood United Methodist Chr,11208 Elmont Rd,Ashland,VA,23005
St Mark's Methodist Church,225 Claremont St,Petersburg,VA,23805
Washington Street Umc,22 E Washington St,Petersburg,VA,23803
Wesley Chapel United Meth Chr,9227 River Rd,Petersburg,VA,23803
Woods United Methodist Church,7200 Hickory Rd,Petersburg,VA,23803
Rock Church of Petersburg,PO Box 1877,Petersburg,VA,23805
Zion Apostolic Christian Chr,1601 Youngs Rd,Petersburg,VA,23803
Edgehill Church Of Christ,25609 Grant Ave,Petersburg,VA,23803
Crosslight Assembly Of God,27 Seyler Dr,Petersburg,VA,23805
Agape House Of Prayer,4610 Helena Cir,Petersburg,VA,23803
Crossroads Baptist Church,"5811 Hoffmans Ln, #Bailey39s",Baileys Crossroads,VA,22041
Iglesia Pentecostal Bephel,3530 Moncure Ave,Baileys Crossroads,VA,22041
Crozet Baptist Church,5804 Saint George Ave,Crozet,VA,22932
Crozet United Methodist Church,PO Box 70,Crozet,VA,22932
Culpeper Baptist Church,318 S West St,Culpeper,VA,22701
Precious Blood Catholic Church,114 E Edmondson St,Culpeper,VA,22701
St Luke's Lutheran School,1200 Old Rixeyville Rd,Culpeper,VA,22701
Culpeper United Methodist Chr,1233 Oak Lawn Dr,Culpeper,VA,22701
Culpeper Presbyterian Church,215 S Main St,Culpeper,VA,22701
Alum Spring Baptist Church,11058 Dutch Hollow Rd,Culpeper,VA,22701
Daybreak Community Church,PO Box 705,Ashburn,VA,20146
St Theresa Church,PO Box 526,Ashburn,VA,20146
Our Savior's Way Lutheran Chr,43115 Waxpool Rd,Ashburn,VA,20148
Christian Fellowship Church,21673 Beaumeade Cir,Ashburn,VA,20147
Ashburn Presbyterian Church,20962 Ashburn Rd,Ashburn,VA,20147
7 Faith Productions LLC,21887 Blossom Hill Ter,Ashburn,VA,20147
Dover Baptist Church,PO Box 96,Manakin Sabot,VA,23103
Goochland Baptist Church,2454 Manakin Rd,Manakin Sabot,VA,23103
Hebron Presbyterian Church,1040 Shallow Well Rd,Manakin Sabot,VA,23103
Mount Sinai Baptist Church,6100 Holy Neck Rd,Suffolk,VA,23437
Nansemond River Baptist Church,2896 Bridge Rd,Suffolk,VA,23435
Wilroy Baptist Church,306 Williams Rd,Suffolk,VA,23434
Tabernacle Christian Church,1401 E Washington St,Suffolk,VA,23434
Beach Grove United Methodist,4251 Driver Ln,Suffolk,VA,23435
Ebenezer United Methodist Chr,PO Box 187,Garrisonville,VA,22463
Macedonia Ame Church,127 Pine St,Suffolk,VA,23434
Magnolia United Methodist Chr,1764 Wilroy Rd,Suffolk,VA,23434
Oxford United Methodist Church,601 W Washington St,Suffolk,VA,23434
Open Door Church of Suffolk,816 Kings Fork Rd,Suffolk,VA,23434
Eaton's Temple Holiness Church,PO Box 3055,Suffolk,VA,23439
Mt Joy Church of God in Christ,307 County St,Suffolk,VA,23434
Rising St James,201 N 6th St,Suffolk,VA,23434
Berea Congregational Christian,4109 Driver Ln,Suffolk,VA,23435
Bethlehem Christian Church,1549 Holland Rd,Suffolk,VA,23434
Corinth Chapel United Church,7945 Corinth Chapel Rd,Suffolk,VA,23437
Cypress Chapel Christian Chr,1891 Cypress Chapel Rd,Suffolk,VA,23434
Oakland Christian Church,PO Box 2008,Suffolk,VA,23432
Suffolk Christian Church,PO Box 1457,Suffolk,VA,23439
Westminister Reformed,3488 Godwin Blvd,Suffolk,VA,23434
Suffolk Church Of Christ,2025 Holland Rd,Suffolk,VA,23434
Newington Baptist Church,6169 Main St,Zanoni,VA,23061
Ware Episcopal Church,PO Box 616,Zanoni,VA,23061
Bellamy United Methodist Chr,4870 Chestnut Fork Rd,Zanoni,VA,23061
Effort Baptist Church,7820 Thomas Jefferson Pky,Palmyra,VA,22963
Palmyra United Methodist Chr,PO Box 151,Palmyra,VA,22963
Elon Baptist Church,145 Younger Dr,Madison Heights,VA,24572
Madison Heights Baptist Church,329 Main St,Madison Heights,VA,24572
Oakdale Baptist Church,102 Brightwell Mill Rd,Madison Heights,VA,24572
Randolph Memorial Baptist Chr,4246 S Amherst Hwy,Madison Heights,VA,24572
Madison Heights Christian Chr,149 Main St,Madison Heights,VA,24572
Sandy Bottom Christian Church,PO Box 159,Madison Heights,VA,24572
Amelon United Methodist Church,220 Amelon Rd,Madison Heights,VA,24572
Elon Presbyterian Church,250 Camden Dr,Madison Heights,VA,24572
Alpha Ministries,4465 S Amherst Hwy,Madison Heights,VA,24572
Anderson Charles P,144 Emerson Ln,Madison Heights,VA,24572
Greater Mt Calvary Christian,9514 Westmoreland Ave,Manassas,VA,20110
Manassas Baptist Church,8730 Sudley Rd,Manassas,VA,20110
All Saints Catholic Church,9300 Stonewall Rd,Manassas,VA,20110
Antioch Church of Christ,PO Box 1603,Manassas,VA,20108
Manassas Church of Christ,8110 Signal Hill Rd,Manassas,VA,20111
Bethel Lutheran Church,8712 Plantation Ln,Manassas,VA,20110
Christus Victor Lutheran Chr,14540 Idle Brook Ct,Manassas,VA,20112
Hope Lutheran Church Mo Synod,10391 Sudley Manor Dr,Manassas,VA,20109
Buckhall United Methodist Chr,10251 Moore Dr,Manassas,VA,20111
First Ame Church of Manassas,PO Box 283,Manassas,VA,20108
Manassas St Thomas Umc,8899 Sudley Rd,Manassas,VA,20110
Prince of Peace United Church,6299 Token Forest Dr,Manassas,VA,20112
Reconciliation Community Chr,14654 Joplin Rd,Manassas,VA,20112
Church of God-Souls Harbor,PO Box 3344,Manassas,VA,20108
Manassas Presbyterian Church,8201 Ashton Ave,Manassas,VA,20109
Antioch Church Of Christ,8310 Plantation Ln,Manassas,VA,20110
Calvary Chapel Of Manassas,9312 Brentsville Rd,Manassas,VA,20112
Agape Gospel Mission,8809 Sudley Rd,Manassas,VA,20110
Emmaus Baptist Church,814 Yorktown Rd,Poquoson,VA,23662
Poquoson Baptist Church,PO Box 2278,Poquoson,VA,23662
Evangel Baptist Church,14836 Ashdale Ave,Dale City,VA,22193
Neabsco Baptist Church,15557 Cardinal Dr,Dale City,VA,22193
Holy Family Catholic Church,14160 Ferndale Rd,Dale City,VA,22193
Lutheran Church-the Covenant,15008 Cloverdale Rd,Dale City,VA,22193
Dale City Christian Church,14022 Lindendale Rd,Dale City,VA,22193
First United Presbyterian Chr,14391 Minnieville Rd,Dale City,VA,22193
Blessed Hope Community Church,6899 Lakepoint Dr,Prince George,VA,23875
Gregory Memorial Presbyterian,PO Box 182,Prince George,VA,23875
Abundant Life Pentecostal Hlns,6500 Middle Rd,Prince George,VA,23875
Fauquier Baptist Church,10550 James Madison Hwy,Bealeton,VA,22712
Morrisville United Methodist,4432 Morrisville Rd,Bealeton,VA,22712
Liberty Assembly Of God,11775 Morgansburg Rd,Bealeton,VA,22712
Fincastle Baptist Church,PO Box 707,Fincastle,VA,24090
Mill Creek Baptist Church,11475 Lee Hwy,Fincastle,VA,24090
Church of the Transfiguration,PO Box 416,Fincastle,VA,24090
Fincastle United Methodist,PO Box 63,Fincastle,VA,24090
Fincastle Presbyterian Church,PO Box 144,Fincastle,VA,24090
First Antioch Baptist Church,3920 Maidens Rd,Powhatan,VA,23139
Graceland Baptist Church,975 Dorset Rd,Powhatan,VA,23139
May Memorial Baptist Church,PO Box 56,Powhatan,VA,23139
Old Powhatan Baptist Church,2202 Old Church Rd,Powhatan,VA,23139
Red Lane Baptist Church,2095 Red Lane Rd,Powhatan,VA,23139
St John Neumann Catholic Chrch,2480 Batterson Rd,Powhatan,VA,23139
Powhatan United Methodist Chr,2253 Rosson Rd,Powhatan,VA,23139
Damascus Methodist Church,PO Box 358,Damascus,VA,24236
Springfield Christian Church,18285 Vontay Rd,Rockville,VA,23146
Immanuel Bible Church,6911 Braddock Rd,Springfield,VA,22151
Adat Reyim Congregation,6500 Westbury Oaks Ct,Springfield,VA,22152
Springfield United Methodist,7047 Old Keene Mill Rd,Springfield,VA,22150
St John's Methodist Church,5312 Backlick Rd,Springfield,VA,22151
Sydenstricker United Methodist,8508 Hooes Rd,Springfield,VA,22153
Alive Gathering,6820 Commercial Dr,Springfield,VA,22151
Word of Life Academy,5225 Backlick Rd,Springfield,VA,22151
Grace Presbyterian Church,7434 Bath St,Springfield,VA,22150
Harvester Presbyterian Church,7800 Rolling Rd,Springfield,VA,22153
Kirkwood Presbyterian Church,8336 Carrleigh Pky,Springfield,VA,22152
Abundance Life Church,7646 Fullerton Rd,Springfield,VA,22153
Afghan Islamic National Comm,6805 Backlick Rd,Springfield,VA,22150
Africa Restoration Ministries (Arm),8001 Braddock Rd,Springfield,VA,22151
Amw,7240 Boudinot Dr,Springfield,VA,22150
James River Baptist Church,4931 Centerville Rd,Williamsburg,VA,23188
Mt Gilead Baptist Church,8660 Pocahontas Trl,Williamsburg,VA,23185
Smith Memorial Baptist Church,6515 Richmond Rd,Williamsburg,VA,23188
Walnut Hills Baptist Church,1014 Jamestown Rd,Williamsburg,VA,23185
Williamsburg Baptist Church,227 Richmond Rd,Williamsburg,VA,23185
York River Baptist Church,8201 Croaker Rd,Williamsburg,VA,23188
St Bede's Catholic Church,PO Box 5400,Williamsburg,VA,23188
St Olaf Catholic Church,104 Norge Ln,Williamsburg,VA,23188
Williamsburg Christian Church,200 John Tyler Ln,Williamsburg,VA,23185
Hickory Neck Church,8300 Richmond Rd,Williamsburg,VA,23188
Temple Beth El,600 Jamestown Rd,Williamsburg,VA,23185
King of Glory Lutheran Church,4897 Longhill Rd,Williamsburg,VA,23188
St Stephen Lutheran Nursery,612 Jamestown Rd,Williamsburg,VA,23185
New Town United Methodist,309 Waltz Farm Dr,Williamsburg,VA,23185
Wellspring United Methodist,4871 Longhill Rd,Williamsburg,VA,23188
Williamsburg United Methodist,514 Jamestown Rd,Williamsburg,VA,23185
Christian Life Ctr,4451 Longhill Rd,Williamsburg,VA,23188
Williamsburg Community Chapel,3899 John Tyler Hwy,Williamsburg,VA,23185
Williamsburg Presbyterian Chr,215 Richmond Rd,Williamsburg,VA,23185
Williamsburg Church Of Christ,227 Merrimac Trl,Williamsburg,VA,23185
Holston View United Methodist,PO Box 2278,Weber City,VA,24290
Potomac Baptist Church,PO Box 701,King George,VA,22485
Sterling Park Baptist Church,501 N York Rd,Sterling,VA,20164
Christ the Redeemer Religious,46833 Harry Byrd Hwy,Sterling,VA,20164
Our Lady of Hope Catholic Chr,20648 Bellwood Ct,Sterling,VA,20165
Community Lutheran Church,21014 Whitfield Pl,Sterling,VA,20165
Galilee United Methodist Chr,20600 Broad Run Dr,Sterling,VA,20165
Sterling United Methodist Chr,304 E Church Rd,Sterling,VA,20164
Community Church,1439 Shepard Dr,Sterling,VA,20164
Riverside Church,"21010 Southbank St, #Pmb 510",Sterling,VA,20165
Riverside Presbyterian Church,21010 Southbank St,Sterling,VA,20165
Adams,46970 Community Plz,Sterling,VA,20164
Marlow Heights Baptist Church,517 Braxton Rd,Front Royal,VA,22630
St John's Catholic Church,PO Box 190,Highland Springs,VA,23075
New Hope Bible Church,80 S Lake Ave,Front Royal,VA,22630
Front Royal United Methodist,1 W Main St,Front Royal,VA,22630
Riverton United Methodist Chr,55 E Strasburg Rd,Front Royal,VA,22630
Front Royal Presbyterian Chr,115 Luray Ave,Front Royal,VA,22630
Southview Baptist Church,2620 Reston Pky,Herndon,VA,20171
St Veronica Catholic Church,3300 Dairy Lou Dr,Herndon,VA,20171
St Timothy's Episcopal Church,432 Van Buren St,Herndon,VA,20170
Holy Cross Lutheran Church,1090 Sterling Rd,Herndon,VA,20170
Dranesville United Methodist,1089 Liberty Meeting Ct,Herndon,VA,20170
Floris United Methodist Church,2730 Centreville Rd,Herndon,VA,20171
Herndon United Methodist Chr,701 Bennett St,Herndon,VA,20170
Community Chapel for Healing,481 Carlisle Dr,Herndon,VA,20170
Open Door Presbyterian Church,3001 Centreville Rd,Herndon,VA,20171
Eden Korean Presbyterian,2629 Centreville Rd,Herndon,VA,20171
Gate City United Methodist,103 Walnut St E,Gate City,VA,24251
Midway Mem United Methodist,RR 1 Box 374e,Gate City,VA,24251
First Baptist Church Gretna,PO Box 339,Gretna,VA,24557
Greenfield Baptist Church,13514 Glenbrook Ave,Meadowview,VA,24361
Piney Fork Baptist Church,2501 Piney Rd,Gretna,VA,24557
Sycamore Baptist Church,3172 Derby Rd,Gretna,VA,24557
West End Church of Christ,PO Box 539,Gretna,VA,24557
Anderson Memorial United Meth,PO Box 207,Gretna,VA,24557
Canaan Land Church,PO Box 1036,Gretna,VA,24557
First Baptist Church of Elmont,11624 Cedar Ln,Ashland,VA,23005
First Baptist Church-Ashland,800 Thompson St,Ashland,VA,23005
Gwathmey Baptist Church,PO Box 1478,Ashland,VA,23005
St Ann's Catholic Church,105 S Snead St,Ashland,VA,23005
Independence Christian Church,14023 Independence Rd,Ashland,VA,23005
Slash Christian Church,11353 Mt Hermon Rd,Ashland,VA,23005
St James the Less Episcopal,125 Beverly Rd,Ashland,VA,23005
Duncan Memorial United Mthdst,PO Box 247,Ashland,VA,23005
Ashland Church of God,PO Box 611,Ashland,VA,23005
First Baptist Church of Monroe,PO Box 247,Monroe,VA,24574
New Prospect Baptist Church,PO Box 547,Hurt,VA,24563
Rising Sun Baptist Church,PO Box 265,Monroe,VA,24574
Monroe United Methodist Church,PO Box 237,Monroe,VA,24574
First Mt Olive Baptist Church,216 Loudoun St SW,Leesburg,VA,20175
Leesburg Community Church,835 Lee Ave SW,Leesburg,VA,20175
Loudoun Baptist Temple Church,412 Edwards Ferry Rd NE,Leesburg,VA,20176
Leesburg United Methodist Chr,107 W Market St,Leesburg,VA,20176
Cornerstone Chapel,742 Miller Dr SE,Leesburg,VA,20175
Destiny Church,PO Box 6411,Leesburg,VA,20178
Worship Center Assembly of God,19227 Gleedsville Rd,Leesburg,VA,20175
Leesburg Presbyterian Church,207 W Market St,Leesburg,VA,20176
First Mt Zion Baptist Church,16622 Dumfries Rd,Dumfries,VA,22025
Dumfries United Methodist Chr,PO Box 5,Dumfries,VA,22026
Montclair Tabernacle Church,PO Box 160,Dumfries,VA,22026
Fork Union Baptist Church,PO Box 67,Fork Union,VA,23055
Hyles Baptist Church,7220 Courthouse Rd,Chesterfield Court House,VA,23832
Ironbridge Baptist Church,PO Box 575,Chesterfield Court House,VA,23832
Galilee Baptist Church,3598 Three Notch Rd,Kents Store,VA,23084
Glade Spring Baptist Church,PO Box 367,Glade Spring,VA,24340
Lebanon Baptist Assn,29491 Lee Hwy,Glade Spring,VA,24340
Glade Spring Presbyterian Chr,PO Box 336,Glade Spring,VA,24340
Gloucester Point Baptist Chr,PO Box 305,Gloucester Point,VA,23062
Gospel Light Baptist Church,31 Kingston Rd,Evington,VA,24550
Lakewood Baptist Church,2469 Sunburst Rd,Evington,VA,24550
Leesville Road Baptist Church,18059 Leesville Rd,Evington,VA,24550
Meadowview United Meth Church,PO Box 255,Meadowview,VA,24361
Guildfield Baptist Church,8657 Franklin Tpke,Dry Fork,VA,24549
Tarpley's Chapel Baptist Chr,16156 Mount Cross Rd,Dry Fork,VA,24549
White Oak Grove Baptist,PO Box 103,Dry Fork,VA,24549
Hopewell United Methodist Chr,PO Box 87,Lignum,VA,22726
Oakland United Methodist Chr,PO Box 35,Dry Fork,VA,24549
Abundant Life International Ministries,4881 Dry Fork Rd,Dry Fork,VA,24549
Gwynn's Island Baptist Church,PO Box 26,Gwynn,VA,23066
Hamilton Baptist Church,PO Box 146,Hamilton,VA,20159
Harmony United Methodist Chr,380 E Colonial Hwy,Hamilton,VA,20158
Hanover Baptist Church,PO Box 3,Ninde,VA,22526
Hatcher Memorial Bapt Church,2300 Dumbarton Rd,Henrico,VA,23228
St Mary's Episcopal Church,12291 River Rd,Henrico,VA,23238
Cornerstone Christian Church,8602 Staples Mill Rd,Henrico,VA,23228
Catholic Diocese Of Richmond,7800 Carousel Ln,Henrico,VA,23294
Apostolic Christian Church,1135 Sholey Rd,Henrico,VA,23231
Tree Ridge Community Church,1200 Tree Ridge Rd,Henrico,VA,23231
Thompson Willie C Rev,1423 Rockingham St,Henrico,VA,23231
New Life Baptist Church,6229 Osborne Tpke,Henrico,VA,23231
Rivers-living Water Healing,6904 Alyssalaine Dr,Henrico,VA,23231
St James Baptist Church,2169 New Market Rd,Henrico,VA,23231
Abundant Life Faith Tabernacle,8742 Landmark Rd,Henrico,VA,23228
Agape International Ministries,8001 Staples Mill Rd,Henrico,VA,23228
Haymarket Baptist Church,PO Box 182,Haymarket,VA,20168
Religious Freedom Of Amer,15070 Sawgrass Pl,Haymarket,VA,20169
Jeffersonton Baptist Church,18498 Springs Rd,Jeffersonton,VA,22724
Kedron Baptist Church,PO Box 38,Gladys,VA,24554
Kentuck Baptist Church,1845 Kentuck Church Rd,Ringgold,VA,24586
Ringgold Baptist Church,PO Box 100,Ringgold,VA,24586
Laurel Grove Baptist Church,136 Church Ln,Sutherlin,VA,24594
Laurel Hill Baptist Church,PO Box 457,Earlysville,VA,22936
Little Ark Baptist Church,PO Box 1031,Dahlgren,VA,22448
Dahlgren United Methodist Chr,PO Box 1797,Dahlgren,VA,22448
Living Word Baptist Church,4130 Waterlick Rd,Forest,VA,24551
Mountain View United Meth Chr,PO Box 543,Forest,VA,24551
Forest Presbyterian Church,1226 Two Church Rd,Forest,VA,24551
Altha Grove Baptist Church,7376 Cottontown Rd,Forest,VA,24551
Lynch Station Baptist Church,PO Box 68,Lynch Station,VA,24571
Mathews Baptist Church,PO Box 8,Hudgins,VA,23076
Matoaca Baptist Church,6409 River Rd,Ettrick,VA,23803
Emmanuel Worship Ctr,PO Box 7073,Ettrick,VA,23803
Mc Lean Baptist Church,1367 Chain Bridge Rd,McLean,VA,22101
St Luke's Catholic Parish,7001 Georgetown Pike,McLean,VA,22101
St Dunstan's Episcopal Church,1830 Kirby Rd,McLean,VA,22101
Mc Lean Bible Church,PO Box 9300,McLean,VA,22102
Lutheran Church-the Redeemer,1545 Chain Bridge Rd,McLean,VA,22101
Charles Wesley Methodist Chr,6817 Dean Dr,McLean,VA,22101
Chesterbrook United Methodist,6020 Woodland Ter,McLean,VA,22101
Korean United Methodist Church,1219 Swinks Mill Rd,McLean,VA,22102
Capital Church,7903 Westpark Dr,McLean,VA,22102
Immanuel Presbyterian Church,888 Dolley Madison Blvd,McLean,VA,22101
Lewinsville Presbyterian Chr,PO Box 538,McLean,VA,22101
Mc Clean Presbyterian Church,1020 Balls Hill Rd,McLean,VA,22101
Mc Lean Korean Presbyterian,7144 Old Dominion Dr,McLean,VA,22101
Churches Of Chr,1819 Westwind Way,McLean,VA,22102
Midlothian Baptist Church,11840 Lucks Ln,Clover Hill,VA,23114
Samaria Baptist Church,8130 Lott Cary Rd,Providence Forge,VA,23140
Star Bethlehem Baptist Chr,PO Box 409,Triangle,VA,22172
St Francis of Assisi Church,18825 Fuller Heights Rd,Triangle,VA,22172
Concordia Lutheran Church,PO Box 336,Triangle,VA,22172
New Bridge Baptist Church,PO Box 9,Sandston,VA,23150
Sandston Baptist Church,100 W Williamsburg Rd,Sandston,VA,23150
Corinth United Methodist Chr,23 W Williamsburg Rd,Sandston,VA,23150
Oak Forest Baptist Church,5101 Courthouse Rd,Chesterfield,VA,23832
Second Branch Baptist Church,12217 2nd Branch Rd,Chesterfield,VA,23838
Church of the Nazarene Sthsd,6851 Courthouse Rd,Chesterfield,VA,23832
Gill Grove Baptist Church,10726 River Rd,Chesterfield,VA,23838
Bethia United Methodist Church,10700 Winterpock Rd,Chesterfield,VA,23832
Centenary United Methodist Par,11270 Celtic Rd,Chesterfield,VA,23838
House of Prayer,10500 Newbys Bridge Rd,Chesterfield,VA,23832
Courthouse Church Of Christ,8330 Double Creek Ct,Chesterfield,VA,23832
Belmont Baptist Chapel,6511 Belmont Rd,Chesterfield,VA,23832
Gooch Uly H Rev,6600 Belmont Rd,Chesterfield,VA,23832
Hudgins Oscar M,3200 Holridge St,Chesterfield,VA,23832
Church Of God Alpha ,7412 Belmont Rd,Chesterfield,VA,23832
Heritage Baptist Chr Chstrfld,7777 Cogbill Rd,Chesterfield,VA,23832
Seay J Carlton,7907 Pleasant Pond Ln,Chesterfield,VA,23832
Fair Havens Church,8200 Belmont Rd,Chesterfield,VA,23832
Amazing Grace World Fellowship,6800 Lucy Corr Ct,Chesterfield,VA,23832
Oak Shade Baptist Church,PO Box 76,Catlett,VA,20119
Trinity United Methodist Ch,PO Box 106,Catlett,VA,20119
Round Hill Baptist Church,PO Box 467,King George,VA,22485
Fletcher's Chapel Methodist,8330 Fletchers Chapel Rd,King George,VA,22485
Trinity United Meth Church,PO Box 155,King George,VA,22485
Old Dominion Baptist Church,10405 Schaeffer Ln,Nokesville,VA,20181
Nokesville United Methodist,PO Box 27,Nokesville,VA,20182
Greenwich Presbyterian Church,15305 Vint Hill Rd,Nokesville,VA,20181
Olive Branch Baptist Church,11119 Boydton Plank Rd,4,VA,23841
Ox Hill Baptist Church,PO Box 220536,Chantilly,VA,20153
St Timothy Catholic Church,13807 Poplar Tree Rd,Chantilly,VA,20151
Pleasant Valley United Meth Ch,43987 John Mosby Hwy,Chantilly,VA,20152
Chantilly Presbyterian Church,"14080 Sullyfield Cir, #c",Chantilly,VA,20151
Andrawes Bishoy G,25868 Spring Farm Cir,Chantilly,VA,20152
Palestine Baptist Church,9244 Smith Mountain Lake Pky,Huddleston,VA,24104
Peace Baptist Church,PO Box 478,Dunn Loring,VA,22027
Church of the Holy Cross,2455 Gallows Rd,Dunn Loring,VA,22027
Dunn Loring United Methodist,2501 Gallows Rd,Dunn Loring,VA,22027
Community Church of God,2458 Gallows Rd,Dunn Loring,VA,22027
Community Church Of God,2500 Gallows Rd,Dunn Loring,VA,22027
Bethlehem United Methodist Chr,RR 3 Box 938,Hayes,VA,23072
Lighthouse Worship Ctr,4299 George Washington Memorial Hwy,Hayes,VA,23072
Purcellville Baptist Church,PO Box 366,Purcellville,VA,20134
St Francis De Sales Church,37730 St Francis Ct,Purcellville,VA,20132
Blue Ridge Bible Church,PO Box 2187,Purcellville,VA,20134
King Of Kings Worship Center,221 N 21st St,Purcellville,VA,20132
Purcellville Church Of Christ,201 N Maple Ave,Purcellville,VA,20132
Rainbow Forest Baptist Church,1338 Rainbow Forest Dr,Troutville,VA,24175
Troutville Baptist Church,PO Box 309,Troutville,VA,24175
Daleville Church Of Brethren,1540 Valley Rd,Troutville,VA,24175
Trinity Church Of Brethren,5088 Roanoke Rd,Troutville,VA,24175
Reed Creek Baptist Church,6563 Lee Jackson Hwy,Big Island,VA,24526
Riceville First Baptist Church,2432 Riceville Rd,Java,VA,24565
Redeemer Assembly Of God,1700 Cardwell Rd,Crozier,VA,23039
Sandy Level Baptist Church,10845 W Gretna Rd,Sandy Level,VA,24161
Seaford Baptist Church,PO Box 207,Seaford,VA,23696
Seaford Church Of Christ,1709 Seaford Rd,Seaford,VA,23696
Spring Hill Baptist Church,2620 Frays Mill Rd,Ruckersville,VA,22968
Stanardsville Baptist Church,103 Madison Rd,Stanardsville,VA,22973
Staunton Baptist Church,6101 Straightstone Rd,Long Island,VA,24569
Stevensburg Baptist Church,19393 York Rd,Stevensburg,VA,22741
Taylorsville Baptist Church,PO Box 129,Doswell,VA,23047
Thaxton Baptist Church,PO Box 32,Thaxton,VA,24174
Thomas Village Baptist Church,PO Box 267,Duffield,VA,24244
Warrenton Baptist Church,123 Main St,Warrenton,VA,20186
Warrenton United Methodist Chr,341 Church St,Warrenton,VA,20186
Faith Christian Church,6472 Duhollow Rd,Warrenton,VA,20187
Warrenton Bible Fellowship,46 Winchester St,Warrenton,VA,20186
Warrenton Presbyterian Church,PO Box 187,Warrenton,VA,20188
Tucker Swamp Baptist Church,37527 Seacock Chapel Rd,Zuni,VA,23898
Union Run Baptist Church,3220 Keswick Rd,Keswick,VA,22947
Grace Episcopal Church-Keswick,PO Box 43,Keswick,VA,22947
Wallers Baptist Church,PO Box 95,Partlow,VA,22534
Willis Memorial Baptist Church,5212 Cascade Rd,Cascade,VA,24069
Cloverdale Church-Brethren,PO Box 85,Cloverdale,VA,24077
Midland Church of the Brethren,10434 Old Carolina Rd,Midland,VA,22728
Summerdean Church-the Brethren,6604 Plantation Rd,Hollins,VA,24019
Church of the Nativity,6400 Nativity Ln,Burke,VA,22015
Abiding Presence Lutheran Chr,6304 Lee Chapel Rd,Burke,VA,22015
Burke United Methodist Church,6200 Burke Centre Pky,Burke,VA,22015
St Stephen's United Methodist,9203 Braddock Rd,Burke,VA,22015
Burke Community Church,9900 Old Keene Mill Rd,Burke,VA,22015
Burke Presbyterian Church,5690 Oak Leather Dr,Burke,VA,22015
Accotink Unitarian Unvrslst,10125 Lakehaven Ct,Burke,VA,22015
St Clare of Assisi Catholic,7616 Maple Branch Rd,Clifton,VA,20124
St Elizabeth Ann Seton,2631 Pocahontas Trl,Quinton,VA,23141
St John Neumann Church,11900 Lawyers Rd,Reston,VA,20191
St Anne's Episcopal Church,1700 Wainwright Dr,Reston,VA,20190
Northern Virginia Hebrew Schl,1441 Wiehle Ave,Reston,VA,20190
Christ the Servant Lutheran,2320 Hunters Woods Plz,Reston,VA,20191
United Christian Parish-Reston,2222 Colts Neck Rd,Reston,VA,20191
Oakbrook Church,1700 Reston Pky,Reston,VA,20190
Reston Bible Church,11979 North Shore Dr,Reston,VA,20190
Heritage Fellowship United Chr,2501 Fox Mill Rd,Reston,VA,20191
Cacina Diocese Of Virginia,1360 Northgate Sq,Reston,VA,20190
Highland Springs United Meth,22 N Holly Ave,Highland Springs,VA,23075
Olive Branch Christian Church,PO Box 190,Norge,VA,23127
Abingdon Episcopal Church,PO Box 82,White Marsh,VA,23183
Cunningham Chapel Parish,PO Box 153,Millwood,VA,22646
Kingston Parish,PO Box 471,Mathews,VA,23109
Salem Methodist Church,PO Box 425,Mathews,VA,23109
Leeds Episcopal Church,4332 Leeds Manor Rd,Markham,VA,22643
Pohick Episcopal Church,9301 Richmond Hwy,Lorton,VA,22079
Cranford United Methodist Chr,PO Box 212,Lorton,VA,22199
Church On the Move,8350 Terminal Rd,Lorton,VA,22079
Saint Paul's Episcopal Church,PO Box 441,Hanover,VA,23069
Lebanon United Methodist Chr,8492 Peaks Rd,Hanover,VA,23069
St John Episcopal Church,PO Box 351,Ivy,VA,22945
St Paul's Church Ivy,PO Box 37,Ivy,VA,22945
Unity Christ Church of Bon Air,923 Buford Rd,Bon Air,VA,23235
Westover Church,6401 John Tyler Memorial Hwy,Charles City,VA,23030
Grace Independent Bible Church,8390 W Main St,Marshall,VA,20115
Marshall United Methodist Chr,PO Box 144,Marshall,VA,20116
Belvoir Assembly Of God,4294 Belvoir Rd,Marshall,VA,20115
New Jerusalem Lutheran Church,12942 Lutheran Church Rd,Lovettsville,VA,20180
Unity of Fairfax,2854 Hunter Mill Rd,Oakton,VA,22124
Oakton United Methodist Church,PO Box 205,Oakton,VA,22124
Vale United Methodist Church,11528 Vale Rd,Oakton,VA,22124
Chinese Alliance Of Fairfax,12113 Vale Rd,Oakton,VA,22124
Abbott Richard C Pastor,11032 Oakton Rd,Oakton,VA,22124
Stafford Church of God,PO Box 309,Garrisonville,VA,22463
Emory United Methodist Church,PO Box 985,Emory,VA,24327
Enon United Methodist Church,PO Box 68,Studley,VA,23162
Gainesville United Methodist,PO Box 85,Gainesville,VA,20156
Sudley United Methodist Church,PO Box 96,Gainesville,VA,20143
Gainesville Presbyterian Chr,16127 Lee Hwy,Gainesville,VA,20155
Grace Church Of Gainesville,7612 James Madison Hwy,Gainesville,VA,20155
Macedonia United Methodist Chr,1941 Macedonia Church Rd,White Post,VA,22663
Matthews Chapel,PO Box 131,Cobbs Creek,VA,23035
Cornerstone Fellowship Church,PO Box 126,Cobbs Creek,VA,23035
Middleburg United Methodist,PO Box 284,Middleburg,VA,20118
Ocran United Methodist Church,20807 Cox Rd,Sutherland,VA,23885
St Luke's Methodist Church,300 Ella Taylor Rd,Grafton,VA,23692
Yorkminster Presbyterian Chr,6218 George Washington Mem Hwy,Grafton,VA,23692
Remington United Methodist Chr,PO Box 86,Remington,VA,22734
Round Hill United Methodist,PO Box 51,Round Hill,VA,20142
Singleton United Methodist Chr,PO Box 27,Schley,VA,23154
St Mark's United Methodist,PO Box 186,Daleville,VA,24083
St Peter's Methodist Church,15599 Mountain Rd,Montpelier,VA,23192
Chapel Church Of Christ,16263 Woodman Hall Rd,Montpelier,VA,23192
Susanna Wesley United Meth,PO Box 427,Ordinary,VA,23131
Langley Air Force Base Chapel,181 Dodd Blvd,Langley Afb,VA,23665
Hazel River Assembly of God,PO Box 338,Rixeyville,VA,22737
Manassas Assembly of God,11500 New Life Way,Bristow,VA,20136
Stonehouse Community Church,8824 Richmond Rd W,Toano,VA,23168
Kirk Wood Presbyterian Church,1209 Hampton Hwy,Tabb,VA,23693
Mt Carmel Christian Church,27650 Walters Hwy,Carrsville,VA,23315
Sandston Presbyterian Church,PO Box 325,Varina,VA,23150
Galilean House Of Worship,5078 A L Philpott Hwy,Martinsville,VA,24112
1Restorationministries,203 Emmett St,Martinsville,VA,24112
Adventure In Faith Church,705 Liberty St,Martinsville,VA,24112
Agape Bible Christian Flwshp,240 E Market St,Martinsville,VA,24112
Alpha Apostolic Temple Church,1014 Jordan St,Martinsville,VA,24112
Whitewood House Of Worship,1020 Stuart Cole Rd,Whitewood,VA,24657
Accomack Baptist Association,65 Market St,Onancock,VA,23417
Rose Of Sharon Worship Center,28406 General Thomas Hwy,Franklin,VA,23851
Rock Church Of Franklin,130 Lakeview Rd,Franklin,VA,23851
New Church Of Deliverance,27198 Shady Brook Trl,Franklin,VA,0
Agape Worship Center,1307 Mariner St,Franklin,VA,23851
Allen Grove Baptist Church,32376 Walters Hwy,Franklin,VA,23851
Ambassadors For Christ Church,502 Laurel St,Franklin,VA,23851
Galax Ch Of God Of Prophecy,1124 Tower Rd,Galax,VA,24333
New Harvest Christian Worship,101 E Washington St,Galax,VA,24333
Church Of Brethren Churches,202 Main St,Dayton,VA,22821
Summit Church Of Brethren,314 Summit Church Rd,Bridgewater,VA,22812
Bethel Church Of Brethren,11374 Phillips Store Rd,Broadway,VA,22815
Dayspring Church Of Nazarene,235 N Main St,Harrisonburg,VA,22802
Valley Church Of Christ,1570 Virginia Ave,Harrisonburg,VA,22802
Abundant Grace Ministries,2435 Millwood Loop,Harrisonburg,VA,22801
Southside Church Of God,35 1st St,Staunton,VA,24401
Staunton Church Of Christ,333 Churchville Ave,Staunton,VA,24401
Anglican Church Of Valley,15 N Market St,Staunton,VA,24401
Allen Chapel Ame Church,936 Sudbury St,Staunton,VA,24401
Church Of God Of Virginia,4704 Roanoke St,Christiansburg,VA,24073
Alleghany Church Of Christ,2095 N Franklin St,Christiansburg,VA,24073
Chilhowie Church Of God,1290 W Lee Hwy,Chilhowie,VA,24319
Good Shepard Of Hills,7420 Mission Home Rd,Free Union,VA,22940
Pearisburg Church Of God,805 Henson Ave,Pearisburg,VA,24134
Angels Rest Baptist Fellowship,1601 Wenonah Ave,Pearisburg,VA,24134
Nineveh Church Of Brethren,7060 Hardy Rd,Hardy,VA,24101
Presbyterian Church Of Floyd,169 Newtown Rd NE,Floyd,VA,24091
Floyd Church Of God,800 E Main St,Floyd,VA,24091
Topeco Church Of Brethren,3460 Floyd Hwy S,Floyd,VA,24091
Wirtz Assemblies Of God,1718 Burnt Chimney Rd,Wirtz,VA,24184
Cornerstone Church Of God,1262 S Lexington Ave,Covington,VA,24426
A R Edgemont Presbyterian Chr,2306 S Church Ave,Covington,VA,24426
Smyrna Assembly Of Yahshua,10037 Neal Parker Rd,Temperanceville,VA,23442
Acts Apostolic Church,9431 Jerusalem Rd,Temperanceville,VA,23442
